NAME;COUNTY;COUNTRY;LATITUDE;LONGITUDE;COMPNAME;CONNNAME;CreationDate
NOT AVAILABLE;HIDALGO;USA;26.497316;-98.128619;TENNESSEE GAS PIPELINE CO;TENNESSEE GAS PIPELINE CO;2022/01/08 17:00:16+00
NOT AVAILABLE;WILLACY;USA;26.545984;-97.671264;TENNESSEE GAS PIPELINE CO;TENNESSEE GAS PIPELINE CO;2022/01/08 17:00:16+00
NOT AVAILABLE;HIDALGO;USA;26.56731;-97.98802;TEXAS EASTERN TRANS CORP;TEXAS EASTERN TRANS CORP;2022/01/08 17:00:16+00
NOT AVAILABLE;HIDALGO;USA;26.670775;-98.199244;TRUNKLINE GAS CO;TENN;2022/01/08 17:00:16+00
104092725;JIM WELLS;USA;27.361311;-98.064454;TENNESSEE GAS PIPELINE CO;TENNESSEE GAS PIPELINE CO;2022/01/08 17:00:16+00
NOT AVAILABLE;NUECES;USA;27.67647;-97.617139;TEXAS EASTERN TRANS CORP;TEXAS EASTERN TRANS CORP;2022/01/08 17:00:16+00
FLA GAS INTERCONNECT;NUECES;USA;27.67647;-97.617139;TEXAS EASTERN TRANS CORP;TEXAS EASTERN TRANS CORP;2022/01/08 17:00:16+00
NET MEXI/NGPL  NUECES;NUECES;USA;27.751295;-97.856755;NAT GAS P L CO OF AMERICA;NAT GAS P L CO OF AMERICA;2022/01/08 17:00:16+00
KMTEJAS/NGPL  NUECES;NUECES;USA;27.760086;-97.798264;NAT GAS P L CO OF AMERICA;NAT GAS P L CO OF AMERICA;2022/01/08 17:00:16+00
NOT AVAILABLE;NUECES;USA;27.791235;-97.762926;TEXAS EASTERN TRANS CORP;TEXAS EASTERN TRANS CORP;2022/01/08 17:00:16+00
50903675;NOT APPLICABLE;USA;27.967936;-93.19232;TENNESSEE GAS PIPELINE CO;TENNESSEE GAS PIPELINE CO;2022/01/08 17:00:16+00
WC 595;NOT APPLICABLE;USA;28.13843;-93.280689;SEA ROBIN PIPELINE CO;SRAY;2022/01/08 17:00:16+00
WC 595 TO STINGRAY - DEVON;NOT APPLICABLE;USA;28.13843;-93.280689;SEA ROBIN PIPELINE CO;STINGRAY PIPELINE CO;2022/01/08 17:00:16+00
NOT AVAILABLE;REFUGIO;USA;28.143177;-97.288743;GULF SOUTH PIPELINE CO;GULF SOUTH PIPELINE CO;2022/01/08 17:00:16+00
NOT AVAILABLE;BEE;USA;28.191288;-97.700129;TRUNKLINE GAS CO;TRAN;2022/01/08 17:00:16+00
NOT AVAILABLE;BEE;USA;28.191288;-97.700129;TRUNKLINE GAS CO;TRAN;2022/01/08 17:00:16+00
SMI-128;NOT APPLICABLE;USA;28.317121;-91.908954;GARDEN BANKS GATHERING SYSTEM;SEA ROBIN PIPELINE CO;2022/01/08 17:00:16+00
SMI-76;NOT APPLICABLE;USA;28.572495;-91.95945;GARDEN BANKS GATHERING SYSTEM;ANR PIPELINE CO;2022/01/08 17:00:16+00
SMI-76;NOT APPLICABLE;USA;28.572495;-91.95945;GARDEN BANKS GATHERING SYSTEM;TENNESSEE GAS PIPELINE CO;2022/01/08 17:00:16+00
SMI-76;NOT APPLICABLE;USA;28.572495;-91.95945;GARDEN BANKS GATHERING SYSTEM;TRANSCONTINENTAL GAS P L CO;2022/01/08 17:00:16+00
TGC - TETCO INTERCONNECT-GOLIAD;GOLIAD;USA;28.668935;-97.240547;TRUNKLINE GAS CO;TENN;2022/01/08 17:00:16+00
NOT AVAILABLE;VICTORIA;USA;28.788928;-96.722112;GULF SOUTH PIPELINE CO;GULF SOUTH PIPELINE CO;2022/01/08 17:00:16+00
NOT AVAILABLE;MATAGORDA;USA;28.902147;-95.96511;TEXAS EASTERN TRANS CORP;TEXAS EASTERN TRANS CORP;2022/01/08 17:00:16+00
NOT AVAILABLE;JACKSON;USA;29.016148;-96.406462;GULF SOUTH PIPELINE CO;GULF SOUTH PIPELINE CO;2022/01/08 17:00:16+00
GULF SUTH INTERCONNECT;JACKSON;USA;29.016148;-96.406462;TEXAS EASTERN TRANS CORP;TEXAS EASTERN TRANS CORP;2022/01/08 17:00:16+00
111403975;JACKSON;USA;29.133443;-96.611759;TENNESSEE GAS PIPELINE CO;TENNESSEE GAS PIPELINE CO;2022/01/08 17:00:16+00
NOT AVAILABLE;JACKSON;USA;29.170168;-96.565322;TENNESSEE GAS PIPELINE CO;TENNESSEE GAS PIPELINE CO;2022/01/08 17:00:16+00
NOT AVAILABLE;JACKSON;USA;29.170168;-96.565322;TEXAS EASTERN TRANS CORP;TEXAS EASTERN TRANS CORP;2022/01/08 17:00:16+00
NOT AVAILABLE;JACKSON;USA;29.170168;-96.565322;TENNESSEE GAS PIPELINE CO;TENNESSEE GAS PIPELINE CO;2022/01/08 17:00:16+00
TENNESSEE GAS INTERCONNECT;JACKSON;USA;29.170168;-96.565322;TEXAS EASTERN TRANS CORP;TEXAS EASTERN TRANS CORP;2022/01/08 17:00:16+00
NOT AVAILABLE;BRAZORIA;USA;29.185305;-95.455151;TEXAS EASTERN TRANS CORP;TEXAS EASTERN TRANS CORP;2022/01/08 17:00:16+00
NOT AVAILABLE;PLAQUEMINES;USA;29.231586;-89.384301;MISSISSIPPI CANYON GAS PL CO;TEXAS EASTERN TRANS CORP;2022/01/08 17:00:16+00
111405575;WHARTON;USA;29.252025;-96.349784;TENNESSEE GAS PIPELINE CO;TENNESSEE GAS PIPELINE CO;2022/01/08 17:00:16+00
NOT AVAILABLE;NOT APPLICABLE;USA;29.262198;-90.539232;TENNESSEE GAS PIPELINE CO;TENNESSEE GAS PIPELINE CO;2022/01/08 17:00:16+00
NOT AVAILABLE;NOT APPLICABLE;USA;29.262198;-90.539232;TENNESSEE GAS PIPELINE CO;TENNESSEE GAS PIPELINE CO;2022/01/08 17:00:16+00
TRNSCO/NGPL  WHARTON;WHARTON;USA;29.265239;-96.278372;NAT GAS P L CO OF AMERICA;NAT GAS P L CO OF AMERICA;2022/01/08 17:00:16+00
OLD LADY LAKE;NOT APPLICABLE;USA;29.266451;-90.446841;DISCOVERY PIPELINE SYSTEM;TENN;2022/01/08 17:00:16+00
NOT AVAILABLE;NOT APPLICABLE;USA;29.266451;-90.446841;TENNESSEE GAS PIPELINE CO;TENNESSEE GAS PIPELINE CO;2022/01/08 17:00:16+00
NOT AVAILABLE;WHARTON;USA;29.269235;-96.266237;TRANSCONTINENTAL GAS P L CO;TRANSCONTINENTAL GAS P L CO;2022/01/08 17:00:16+00
NOT AVAILABLE;PLAQUEMINES;USA;29.29869;-89.647913;TENNESSEE GAS PIPELINE CO;TENNESSEE GAS PIPELINE CO;2022/01/08 17:00:16+00
NOT AVAILABLE;PLAQUEMINES;USA;29.29869;-89.647913;TENNESSEE GAS PIPELINE CO;TENNESSEE GAS PIPELINE CO;2022/01/08 17:00:16+00
355163326;LAFOURCHE;USA;29.339301;-90.304149;TENNESSEE GAS PIPELINE CO;TENNESSEE GAS PIPELINE CO;2022/01/08 17:00:16+00
355163327;LAFOURCHE;USA;29.344553;-90.30435;TENNESSEE GAS PIPELINE CO;TENNESSEE GAS PIPELINE CO;2022/01/08 17:00:16+00
COLUMBIA REC;TERREBONNE;USA;29.379975;-90.463091;DISCOVERY PIPELINE CO;CGUL;2022/01/08 17:00:16+00
ISLE DE JEAN CHARLES;TERREBONNE;USA;29.379975;-90.463091;DISCOVERY PL CO;CGUL;2022/01/08 17:00:16+00
NOT AVAILABLE;TERREBONNE;USA;29.4111;-90.553437;TENNESSEE GAS PIPELINE CO;TENNESSEE GAS PIPELINE CO;2022/01/08 17:00:16+00
NOT AVAILABLE;PLAQUEMINES;USA;29.461504;-89.920059;TENNESSEE GAS PIPELINE CO;TENNESSEE GAS PIPELINE CO;2022/01/08 17:00:16+00
NOT AVAILABLE;PLAQUEMINES;USA;29.461504;-89.936448;TENNESSEE GAS PIPELINE CO;TENNESSEE GAS PIPELINE CO;2022/01/08 17:00:16+00
GULF SOUTH INTERCONNECT;PLAQUEMINES;USA;29.461504;-89.936448;TEXAS EASTERN TRANS CORP;TEXAS EASTERN TRANS CORP;2022/01/08 17:00:16+00
NOT AVAILABLE;WHARTON;USA;29.462307;-96.091434;TENNESSEE GAS PIPELINE CO;TENNESSEE GAS PIPELINE CO;2022/01/08 17:00:16+00
NOT AVAILABLE;WHARTON;USA;29.462307;-96.091434;TENNESSEE GAS PIPELINE CO;TENNESSEE GAS PIPELINE CO;2022/01/08 17:00:16+00
NOT AVAILABLE;NOT APPLICABLE;USA;29.524736;-91.436352;TENNESSEE GAS PIPELINE CO;TENNESSEE GAS PIPELINE CO;2022/01/08 17:00:16+00
SABINE HENRY HUB - ACCT METER;VERMILION;USA;29.538304;-92.303104;TRUNKLINE GAS CO;SABN;2022/01/08 17:00:16+00
NOT AVAILABLE;COLORADO;USA;29.551352;-96.621553;TENNESSEE GAS PIPELINE CO;TENNESSEE GAS PIPELINE CO;2022/01/08 17:00:16+00
NOT AVAILABLE;ST. MARY;USA;29.552702;-91.354266;ANR PIPELINE CO;ANR PIPELINE CO;2022/01/08 17:00:16+00
ANR - SHADYSIDE TO ANR;ST. MARY;USA;29.552702;-91.354266;SOUTHERN NATURAL GAS CO;ANR PIPELINE CO;2022/01/08 17:00:16+00
GULF SOUTH PIPELINE CO;LAFOURCHE;USA;29.557669;-90.318708;DISCOVERY PL CO;GFSO;2022/01/08 17:00:16+00
BAYOU BLUE;LAFOURCHE;USA;29.57722;-90.603619;COLUMBIA GULF TRANS CO;COLUMBIA GULF TRANS CO;2022/01/08 17:00:16+00
NOT AVAILABLE;ST. MARY;USA;29.60601;-91.34641;TENNESSEE GAS PIPELINE CO;TENNESSEE GAS PIPELINE CO;2022/01/08 17:00:16+00
BAYOU BLUE (FRM COLUMBIA);LAFOURCHE;USA;29.606656;-90.599568;GULF SOUTH PIPELINE CO;GULF SOUTH PIPELINE CO;2022/01/08 17:00:16+00
CENTERVILLE (FROM ANR);ST. MARY;USA;29.627643;-91.349045;GULF SOUTH PIPELINE CO;GULF SOUTH PIPELINE CO;2022/01/08 17:00:16+00
TERREBONNE;TERREBONNE;USA;29.628373;-90.85618;COLUMBIA GULF TRANS CO;COLUMBIA GULF TRANS CO;2022/01/08 17:00:16+00
NOT AVAILABLE;PLAQUEMINES;USA;29.63175;-89.695741;TENNESSEE GAS PIPELINE CO;TENNESSEE GAS PIPELINE CO;2022/01/08 17:00:16+00
KOCH GATEWAY - SHADYSIDE TO SNG;ST. MARY;USA;29.633161;-91.432218;SOUTHERN NATURAL GAS CO;GULF SOUTH PIPELINE CO;2022/01/08 17:00:16+00
BAYOU SALE (TO SNG);ST. MARY;USA;29.634126;-91.339458;GULF SOUTH PIPELINE CO;GULF SOUTH PIPELINE CO;2022/01/08 17:00:16+00
355160100;ST. MARY;USA;29.639296;-91.329408;TENNESSEE GAS PIPELINE CO;TENNESSEE GAS PIPELINE CO;2022/01/08 17:00:16+00
SHADYSIDE;ST. MARY;USA;29.640414;-91.3397;COLUMBIA GULF TRANS CO;COLUMBIA GULF TRANS CO;2022/01/08 17:00:16+00
PATTERSON C.S. INTERCON;ST. MARY;USA;29.642175;-91.355847;ANR PIPELINE CO;ANR PIPELINE CO;2022/01/08 17:00:16+00
TRUNKLINE - SHADYSIDE TO SNG;ST. MARY;USA;29.64417;-91.356047;SOUTHERN NATURAL GAS CO;TRUNKLINE GAS CO;2022/01/08 17:00:16+00
TENN - PATTERSON TO SNG;ST. MARY;USA;29.651897;-91.401795;SOUTHERN NATURAL GAS CO;TENNESSEE GAS PIPELINE CO;2022/01/08 17:00:16+00
PATTERSON (TRUNKLINE);ST. MARY;USA;29.652727;-91.355452;ANR PIPELINE CO;ANR PIPELINE CO;2022/01/08 17:00:16+00
PATTERSON C.S. INT NO 1;ST. MARY;USA;29.652727;-91.355452;ANR PIPELINE CO;ANR PIPELINE CO;2022/01/08 17:00:16+00
PATTERSON C.S. INT NO 2;ST. MARY;USA;29.652727;-91.355452;ANR PIPELINE CO;ANR PIPELINE CO;2022/01/08 17:00:16+00
PATTERSON C.S. INTERC;ST. MARY;USA;29.652727;-91.355452;ANR PIPELINE CO;ANR PIPELINE CO;2022/01/08 17:00:16+00
PATTERSON;ST. MARY;USA;29.652727;-91.355452;TRUNKLINE GAS CO;ANRP;2022/01/08 17:00:16+00
PATTERSON @ ANR;ST. MARY;USA;29.652727;-91.355452;TRUNKLINE GAS CO;ANRP;2022/01/08 17:00:16+00
SOUTHERN NATURAL@SHADYSIDE;ST. MARY;USA;29.653093;-91.399447;TRUNKLINE GAS CO;SOUT;2022/01/08 17:00:16+00
ANR - SHADYSIDE TO SNG;ST. MARY;USA;29.675388;-91.345625;SOUTHERN NATURAL GAS CO;ANR PIPELINE CO;2022/01/08 17:00:16+00
RACELAND (FROM TEXAS EASTERN);LAFOURCHE;USA;29.675839;-90.605575;GULF SOUTH PIPELINE CO;GULF SOUTH PIPELINE CO;2022/01/08 17:00:16+00
NOT AVAILABLE;LAFOURCHE;USA;29.675839;-90.605575;TEXAS EASTERN TRANS CORP;TEXAS EASTERN TRANS CORP;2022/01/08 17:00:16+00
SHADYSIDE (S.N.G.);ST. MARY;USA;29.692794;-91.372165;ANR PIPELINE CO;ANR PIPELINE CO;2022/01/08 17:00:16+00
NOT AVAILABLE;ST. CHARLES;USA;29.6982;-90.256635;TENNESSEE GAS PIPELINE CO;TENNESSEE GAS PIPELINE CO;2022/01/08 17:00:16+00
ANRP;ST. MARY;USA;29.703212;-91.466429;NAUTILUS PIPELINE CO;ANR PIPELINE CO;2022/01/08 17:00:16+00
GFSO;ST. MARY;USA;29.70627;-91.45945;NAUTILUS PIPELINE CO;GULF SOUTH PIPELINE CO;2022/01/08 17:00:16+00
TENN 800 LEG;ST. MARY;USA;29.70627;-91.45945;NAUTILUS PIPELINE CO;TENNESSEE GAS PIPELINE CO;2022/01/08 17:00:16+00
TXGS;ST. MARY;USA;29.70627;-91.45945;NAUTILUS PIPELINE CO;TEXAS GAS TRANSMISSION CO;2022/01/08 17:00:16+00
CENTERVILLE (FROM TRUNKLINE);ST. MARY;USA;29.706304;-91.459392;GULF SOUTH PIPELINE CO;GULF SOUTH PIPELINE CO;2022/01/08 17:00:16+00
NAUTILUS (FROM NAUTILUS;ST. MARY;USA;29.706304;-91.459392;GULF SOUTH PIPELINE CO;GULF SOUTH PIPELINE CO;2022/01/08 17:00:16+00
208234900;ST. MARY;USA;29.706304;-91.459392;TENNESSEE GAS PIPELINE CO;TENNESSEE GAS PIPELINE CO;2022/01/08 17:00:16+00
NOT AVAILABLE;ST. MARY;USA;29.706304;-91.459392;TENNESSEE GAS PIPELINE CO;TENNESSEE GAS PIPELINE CO;2022/01/08 17:00:16+00
TEXAS GAS @ CENTERVILLE;ST. MARY;USA;29.706304;-91.459392;TRUNKLINE GAS CO;TXGS;2022/01/08 17:00:16+00
GARDEN CITY;ST. MARY;USA;29.706924;-91.466933;ANR PIPELINE CO;ANR PIPELINE CO;2022/01/08 17:00:16+00
COLUMBIA GULF@CENTERVILLE;ST. MARY;USA;29.71166;-91.472407;TRUNKLINE GAS CO;CGUL;2022/01/08 17:00:16+00
TENNESSEE @ CENTERVILLE;ST. MARY;USA;29.7264;-91.49336;TRUNKLINE GAS CO;TENN;2022/01/08 17:00:16+00
CENTANA/NGPL #3 JEFFERSON;JEFFERSON;USA;29.759102;-93.935785;NAT GAS P L CO OF AMERICA;NAT GAS P L CO OF AMERICA;2022/01/08 17:00:16+00
NGPL/KMLP  CAMERON;CAMERON;USA;29.765728;-93.645412;NAT GAS P L CO OF AMERICA;NAT GAS P L CO OF AMERICA;2022/01/08 17:00:16+00
TRNSCO/NGPL JOHNSONS BAYOU SW CAMER;CAMERON;USA;29.767377;-93.64367;NAT GAS P L CO OF AMERICA;NAT GAS P L CO OF AMERICA;2022/01/08 17:00:16+00
208233835;CAMERON;USA;29.769052;-93.637509;TENNESSEE GAS PIPELINE CO;TENNESSEE GAS PIPELINE CO;2022/01/08 17:00:16+00
JOHNSON BAYOU (UTOS);CAMERON;USA;29.770231;-93.671717;ANR PIPELINE CO;ANR PIPELINE CO;2022/01/08 17:00:16+00
TENNESSEE (99.45);CAMERON;USA;29.781446;-93.610834;STINGRAY PIPELINE CO;TENN;2022/01/08 17:00:16+00
TENNESSEE (99.45);CAMERON;USA;29.781446;-93.610834;STINGRAY PIPELINE CO;TENNESSEE GAS PIPELINE CO;2022/01/08 17:00:16+00
ANR (101.62);CAMERON;USA;29.787899;-93.613306;STINGRAY PIPELINE CO;ANRP;2022/01/08 17:00:16+00
ANR (101.62);CAMERON;USA;29.787899;-93.613306;STINGRAY PIPELINE CO;ANR PIPELINE CO;2022/01/08 17:00:16+00
NGPL  LOUISIANA M/L (103.36);CAMERON;USA;29.78816;-93.613408;STINGRAY PIPELINE CO;NGPL;2022/01/08 17:00:16+00
NGPL  LOUISIANA M/L (103.36);CAMERON;USA;29.78816;-93.613408;STINGRAY PIPELINE CO;NAT GAS P L CO OF AMERICA;2022/01/08 17:00:16+00
NOT AVAILABLE;CAMERON;USA;29.798404;-93.029515;TENNESSEE GAS PIPELINE CO;TENNESSEE GAS PIPELINE CO;2022/01/08 17:00:16+00
CAMERON (FROM TENN GAS);CAMERON;USA;29.802944;-93.29568;GULF SOUTH PIPELINE CO;GULF SOUTH PIPELINE CO;2022/01/08 17:00:16+00
CAMERON (TENN TO ZAPATA);CAMERON;USA;29.802944;-93.29568;GULF SOUTH PIPELINE CO;GULF SOUTH PIPELINE CO;2022/01/08 17:00:16+00
2082333848;CAMERON;USA;29.802944;-93.29568;TENNESSEE GAS PIPELINE CO;TENNESSEE GAS PIPELINE CO;2022/01/08 17:00:16+00
RACELAND;LAFOURCHE;USA;29.80599;-90.836373;DISCOVERY PIPELINE CO;TRAN;2022/01/08 17:00:16+00
THIBODAUX (THRU TETC LEASE);LAFOURCHE;USA;29.80599;-90.836373;DISCOVERY PL CO;TRAN;2022/01/08 17:00:16+00
NOT AVAILABLE;WALLER;USA;29.814248;-95.872608;TENNESSEE GAS PIPELINE CO;TENNESSEE GAS PIPELINE CO;2022/01/08 17:00:16+00
400820600;ST. BERNARD;USA;29.825499;-89.817533;TENNESSEE GAS PIPELINE CO;TENNESSEE GAS PIPELINE CO;2022/01/08 17:00:16+00
TENN - TOCA TO SNG;ST. BERNARD;USA;29.826076;-89.817721;SOUTHERN NATURAL GAS CO;TENNESSEE GAS PIPELINE CO;2022/01/08 17:00:16+00
NOT AVAILABLE;ST. BERNARD;USA;29.826076;-89.817721;SOUTHERN NATURAL GAS CO;TENNESSEE GAS PIPELINE CO;2022/01/08 17:00:16+00
400820575;ST. BERNARD;USA;29.827885;-89.820615;TENNESSEE GAS PIPELINE CO;TENNESSEE GAS PIPELINE CO;2022/01/08 17:00:16+00
NOT AVAILABLE;HARRIS;USA;29.8456;-95.836096;TENNESSEE GAS PIPELINE CO;TENNESSEE GAS PIPELINE CO;2022/01/08 17:00:16+00
NOT AVAILABLE;HARRIS;USA;29.8456;-95.836096;TENNESSEE GAS PIPELINE CO;TENNESSEE GAS PIPELINE CO;2022/01/08 17:00:16+00
208233842;CAMERON;USA;29.863799;-93.09492;TENNESSEE GAS PIPELINE CO;TENNESSEE GAS PIPELINE CO;2022/01/08 17:00:16+00
208233846;CAMERON;USA;29.863799;-93.09492;TENNESSEE GAS PIPELINE CO;TENNESSEE GAS PIPELINE CO;2022/01/08 17:00:16+00
NOT AVAILABLE;HARRIS;USA;29.881886;-95.799399;TRUNKLINE GAS CO;TENN;2022/01/08 17:00:16+00
NOT AVAILABLE;HARRIS;USA;29.881886;-95.799399;TRUNKLINE GAS CO;TENN;2022/01/08 17:00:16+00
SOUTHEAST GUEYDAN;VERMILION;USA;29.888979;-92.286869;ANR PIPELINE CO;ANR PIPELINE CO;2022/01/08 17:00:16+00
ERATH (FROM NGPL);VERMILION;USA;29.892096;-92.0576;GULF SOUTH PIPELINE CO;GULF SOUTH PIPELINE CO;2022/01/08 17:00:16+00
ERATH (FROM SEA ROBIN);VERMILION;USA;29.892096;-92.0576;GULF SOUTH PIPELINE CO;GULF SOUTH PIPELINE CO;2022/01/08 17:00:16+00
SOUTHERN/HENRY HUB;VERMILION;USA;29.892096;-92.0576;SABINE LLC;SOUTHERN NATURAL GAS CO;2022/01/08 17:00:16+00
NGPL/HENRY HUB;VERMILION;USA;29.892096;-92.0576;SABINE LLC;NAT GAS P L CO OF AMERICA;2022/01/08 17:00:16+00
TRUNKLINE/HENRY HUB;VERMILION;USA;29.892096;-92.0576;SABINE LLC;TRUNKLINE GAS CO;2022/01/08 17:00:16+00
SEA ROBIN/HENRY HUB;VERMILION;USA;29.892096;-92.0576;SABINE LLC;SEA ROBIN PIPELINE CO;2022/01/08 17:00:16+00
GULF SOUTH/HENRY HUB;VERMILION;USA;29.892096;-92.0576;SABINE LLC;GULF SOUTH PIPELINE CO;2022/01/08 17:00:16+00
CG/HENRY/HUB;VERMILION;USA;29.892096;-92.0576;SABINE LLC;COLUMBIA GULF TRANS CO;2022/01/08 17:00:16+00
NGPL - ERATH TO SNG;VERMILION;USA;29.892096;-92.0576;SOUTHERN NATURAL GAS CO;NAT GAS P L CO OF AMERICA;2022/01/08 17:00:16+00
SEA ROBIN - ERATH TO SNG;VERMILION;USA;29.892096;-92.0576;SOUTHERN NATURAL GAS CO;SEA ROBIN PIPELINE CO;2022/01/08 17:00:16+00
CG/HENRY HUB;VERMILION;USA;29.892096;-92.0576;SABINE LLC;COLUMBIA GULF TRANS CO;2022/01/08 17:00:16+00
GULF SOUTH/HENRY HUB;VERMILION;USA;29.892096;-92.0576;SABINE LLC;GULF SOUTH PIPELINE CO;2022/01/08 17:00:16+00
NGPL/HENRY HUB;VERMILION;USA;29.892096;-92.0576;SABINE LLC;NAT GAS P L CO OF AMERICA;2022/01/08 17:00:16+00
SOUTHERN/HENRY HUB;VERMILION;USA;29.892096;-92.0576;SABINE LLC;SOUTHERN NATURAL GAS CO;2022/01/08 17:00:16+00
TEXAS GAS/HENRY HUB;VERMILION;USA;29.892096;-92.0576;SABINE LLC;TEXAS GAS TRANSMISSION CO;2022/01/08 17:00:16+00
TRANSCO/HENRY HUB;VERMILION;USA;29.892096;-92.0576;SABINE LLC;TRANSCONTINENTAL GAS P L CO;2022/01/08 17:00:16+00
TRUNKLINE/HENRY HUB;VERMILION;USA;29.892096;-92.0576;SABINE LLC;TRUNKLINE GAS CO;2022/01/08 17:00:16+00
ERATH;VERMILION;USA;29.892096;-92.0576;SEA ROBIN PIPELINE CO;CGUL;2022/01/08 17:00:16+00
ERATH;VERMILION;USA;29.892096;-92.0576;SEA ROBIN PIPELINE CO;GFSO;2022/01/08 17:00:16+00
ERATH;VERMILION;USA;29.892096;-92.0576;SEA ROBIN PIPELINE CO;SABN;2022/01/08 17:00:16+00
ERATH;VERMILION;USA;29.892096;-92.0576;SEA ROBIN PIPELINE CO;SOUT;2022/01/08 17:00:16+00
ERATH;VERMILION;USA;29.892096;-92.0576;SEA ROBIN PIPELINE CO;TENN;2022/01/08 17:00:16+00
COLUMBIA GULF TRANSMISSION;VERMILION;USA;29.892096;-92.0576;SEA ROBIN PIPELINE CO;COLUMBIA GULF TRANS CO;2022/01/08 17:00:16+00
GULF SOUTH PIPLINE;VERMILION;USA;29.892096;-92.0576;SEA ROBIN PIPELINE CO;GULF SOUTH PIPELINE CO;2022/01/08 17:00:16+00
HENRY HUB- SABINE 2 - SOUTH;VERMILION;USA;29.892096;-92.0576;SEA ROBIN PIPELINE CO;SABINE PIPELINE CO;2022/01/08 17:00:16+00
SOUTHERN NATURAL - (INTERCONNECT);VERMILION;USA;29.892096;-92.0576;SEA ROBIN PIPELINE CO;SOUTHERN NATURAL GAS CO;2022/01/08 17:00:16+00
SEA ROBIN - TGC INTERCONNECT;VERMILION;USA;29.892096;-92.0576;SEA ROBIN PIPELINE CO;TENNESSEE GAS PIPELINE CO;2022/01/08 17:00:16+00
SABINE - SNG TO SABINE;VERMILION;USA;29.892096;-92.0576;SOUTHERN NATURAL GAS CO;SABINE PIPELINE CO;2022/01/08 17:00:16+00
COL GULF/NGPL ERATH VERMILION;VERMILION;USA;29.896699;-92.069426;NAT GAS P L CO OF AMERICA;NAT GAS P L CO OF AMERICA;2022/01/08 17:00:16+00
SABPL/NGPL HENRY HUB VERMILION;VERMILION;USA;29.896699;-92.069426;NAT GAS P L CO OF AMERICA;NAT GAS P L CO OF AMERICA;2022/01/08 17:00:16+00
SNG/NGPL ERATH VERMILION;VERMILION;USA;29.896699;-92.069426;NAT GAS P L CO OF AMERICA;NAT GAS P L CO OF AMERICA;2022/01/08 17:00:16+00
FGT TGC VERMILLION - FLA INT;VERMILION;USA;29.896714;-92.345744;TRUNKLINE GAS CO;FLDR;2022/01/08 17:00:16+00
DEEP LAKE (FROM NGPL);CAMERON;USA;29.897529;-93.128654;GULF SOUTH PIPELINE CO;GULF SOUTH PIPELINE CO;2022/01/08 17:00:16+00
NOT AVAILABLE;CAMERON;USA;29.902348;-92.985513;TENNESSEE GAS PIPELINE CO;TENNESSEE GAS PIPELINE CO;2022/01/08 17:00:16+00
208233400;CAMERON;USA;29.909556;-92.980595;TENNESSEE GAS PIPELINE CO;TENNESSEE GAS PIPELINE CO;2022/01/08 17:00:16+00
NOT AVAILABLE;CAMERON;USA;29.909556;-92.980595;ANR PIPELINE CO;ANR PIPELINE CO;2022/01/08 17:00:16+00
FGT/NGPL  JEFFERSON;JEFFERSON;USA;29.913136;-94.076084;NAT GAS P L CO OF AMERICA;NAT GAS P L CO OF AMERICA;2022/01/08 17:00:16+00
NOT AVAILABLE;IBERIA;USA;29.914381;-91.796747;TENNESSEE GAS PIPELINE CO;TENNESSEE GAS PIPELINE CO;2022/01/08 17:00:16+00
NOT AVAILABLE;HARRIS;USA;29.923362;-95.755906;TENNESSEE GAS PIPELINE CO;TENNESSEE GAS PIPELINE CO;2022/01/08 17:00:16+00
NOT AVAILABLE;VERMILION;USA;29.933406;-92.307537;FLORIDA GAS TRANSMISSION;NGPL;2022/01/08 17:00:16+00
20823350;CAMERON;USA;29.935847;-92.98071;TENNESSEE GAS PIPELINE CO;TENNESSEE GAS PIPELINE CO;2022/01/08 17:00:16+00
FLORIDA/KAPLAN;VERMILION;USA;29.938116;-92.302812;SABINE LLC;FLORIDA GAS TRANS CO;2022/01/08 17:00:16+00
TRANSCO/KAPLAN;VERMILION;USA;29.93914;-92.309032;SABINE LLC;TRANSCONTINENTAL GAS P L CO;2022/01/08 17:00:16+00
LAKESIDE;CAMERON;USA;29.958405;-92.851925;TRUNKLINE GAS CO;NGPL;2022/01/08 17:00:16+00
LAKE ARTHUR (NGPL);CAMERON;USA;29.963035;-92.825505;ANR PIPELINE CO;ANR PIPELINE CO;2022/01/08 17:00:16+00
HPL/NGPL DEVERS LIBERTY;LIBERTY;USA;29.965516;-94.555792;NAT GAS P L CO OF AMERICA;NAT GAS P L CO OF AMERICA;2022/01/08 17:00:16+00
FGT/NGPL  VERMILION;VERMILION;USA;29.989624;-92.325483;NAT GAS P L CO OF AMERICA;NAT GAS P L CO OF AMERICA;2022/01/08 17:00:16+00
COL GULF/NGPL PECAN LAKE CAMERON;CAMERON;USA;29.992662;-92.64159;NAT GAS P L CO OF AMERICA;NAT GAS P L CO OF AMERICA;2022/01/08 17:00:16+00
TRUNKLNE/NGPL LAKESIDE CAMERON;CAMERON;USA;29.992713;-92.641562;NAT GAS P L CO OF AMERICA;NAT GAS P L CO OF AMERICA;2022/01/08 17:00:16+00
EUNICE COMPRESSOR;CAMERON;USA;29.992799;-92.806889;ANR PIPELINE CO;ANR PIPELINE CO;2022/01/08 17:00:16+00
LOWRY - TGT;CAMERON;USA;29.992799;-92.806889;ANR PIPELINE CO;ANR PIPELINE CO;2022/01/08 17:00:16+00
GULFSTH/NGPL DEEP LAKE CAMERON;CAMERON;USA;29.994969;-93.115564;NAT GAS P L CO OF AMERICA;NAT GAS P L CO OF AMERICA;2022/01/08 17:00:16+00
TET/NGPL SWEET LAKE CAMERON;CAMERON;USA;30.0058;-93.028635;NAT GAS P L CO OF AMERICA;NAT GAS P L CO OF AMERICA;2022/01/08 17:00:16+00
TENNESSEE/LAKE ARTHUR;CAMERON;USA;30.008044;-92.676975;SABINE LLC;TENNESSEE GAS PIPELINE CO;2022/01/08 17:00:16+00
TEX GAS/NGPL LOWRY CAMERON;CAMERON;USA;30.009074;-92.776629;NAT GAS P L CO OF AMERICA;NAT GAS P L CO OF AMERICA;2022/01/08 17:00:16+00
NOT AVAILABLE;IBERIA;USA;30.012984;-91.353394;SOUTHERN NATURAL GAS CO;TEXAS GAS TRANSMISSION CO;2022/01/08 17:00:16+00
COL GULF/NGPL CHALKLEY CAMERON;CAMERON;USA;30.015775;-92.911959;NAT GAS P L CO OF AMERICA;NAT GAS P L CO OF AMERICA;2022/01/08 17:00:16+00
TGP/NGPL CHALKLEY CAMERON;CAMERON;USA;30.015775;-92.911959;NAT GAS P L CO OF AMERICA;NAT GAS P L CO OF AMERICA;2022/01/08 17:00:16+00
NOT AVAILABLE;CAMERON;USA;30.015961;-93.090209;TENNESSEE GAS PIPELINE CO;TENNESSEE GAS PIPELINE CO;2022/01/08 17:00:16+00
ANR/NGPL LAKE ARTHUR R/U CAMERON;CAMERON;USA;30.017286;-92.783341;NAT GAS P L CO OF AMERICA;NAT GAS P L CO OF AMERICA;2022/01/08 17:00:16+00
ANR/LAKE ARTHUR;CAMERON;USA;30.032655;-92.77754;SABINE LLC;ANR PIPELINE CO;2022/01/08 17:00:16+00
NOT AVAILABLE;VERMILION;USA;30.077062;-92.192821;TENNESSEE GAS PIPELINE CO;TENNESSEE GAS PIPELINE CO;2022/01/08 17:00:16+00
50906081;ACADIA;USA;30.087224;-92.472817;TENNESSEE GAS PIPELINE CO;TENNESSEE GAS PIPELINE CO;2022/01/08 17:00:16+00
TENNESSEE/BELL CITY;CALCASIEU;USA;30.096432;-93.065586;SABINE LLC;TENNESSEE GAS PIPELINE CO;2022/01/08 17:00:16+00
208233775;CALCASIEU;USA;30.096553;-93.069492;TENNESSEE GAS PIPELINE CO;TENNESSEE GAS PIPELINE CO;2022/01/08 17:00:16+00
NOT AVAILABLE;CALCASIEU;USA;30.096806;-93.069467;TENNESSEE GAS PIPELINE CO;TENNESSEE GAS PIPELINE CO;2022/01/08 17:00:16+00
NOT AVAILABLE;HARRIS;USA;30.100503;-95.513676;TRUNKLINE GAS CO;TENN;2022/01/08 17:00:16+00
"EGAN ""B""";ACADIA;USA;30.126208;-92.48448;COLUMBIA GULF TRANS CO;COLUMBIA GULF TRANS CO;2022/01/08 17:00:16+00
"EGAN ""C""";ACADIA;USA;30.126208;-92.48448;COLUMBIA GULF TRANS CO;COLUMBIA GULF TRANS CO;2022/01/08 17:00:16+00
"EGAN ""D""";ACADIA;USA;30.126208;-92.48448;COLUMBIA GULF TRANS CO;COLUMBIA GULF TRANS CO;2022/01/08 17:00:16+00
NOT AVAILABLE;IBERVILLE;USA;30.127746;-91.210974;TEXAS EASTERN TRANS CORP;TEXAS EASTERN TRANS CORP;2022/01/08 17:00:16+00
NOT AVAILABLE;IBERVILLE;USA;30.127746;-91.210974;SOUTHERN NATURAL GAS CO;TEXAS EASTERN TRANS CORP;2022/01/08 17:00:16+00
NOT AVAILABLE;ST. MARTIN;USA;30.142496;-91.830624;FLORIDA GAS TRANSMISSION;GULF SOUTH PIPELINE CO;2022/01/08 17:00:16+00
DONE, USED DEL PT LOCATION. STILL MOVE.;ST. MARTIN;USA;30.142496;-91.830624;GULF SOUTH PIPELINE CO;GULF SOUTH PIPELINE CO;2022/01/08 17:00:16+00
NOT AVAILABLE;ST. MARTIN;USA;30.142496;-91.830624;GULF SOUTH PIPELINE CO;GULF SOUTH PIPELINE CO;2022/01/08 17:00:16+00
NOT AVAILABLE;CALCASIEU;USA;30.155651;-93.065852;GULF SOUTH PIPELINE CO;GULF SOUTH PIPELINE CO;2022/01/08 17:00:16+00
NOT AVAILABLE;MONTGOMERY;USA;30.172083;-95.197248;TRUNKLINE GAS CO;NGPL;2022/01/08 17:00:16+00
NOT AVAILABLE;ACADIA;USA;30.180553;-92.310913;TENNESSEE GAS PIPELINE CO;TENNESSEE GAS PIPELINE CO;2022/01/08 17:00:16+00
208236075;ACADIA;USA;30.182935;-92.372588;TENNESSEE GAS PIPELINE CO;TENNESSEE GAS PIPELINE CO;2022/01/08 17:00:16+00
NOT AVAILABLE;JEFFERSON DAVIS;USA;30.232128;-92.978528;TEXAS EASTERN TRANS CORP;TEXAS EASTERN TRANS CORP;2022/01/08 17:00:16+00
TEXAS GAS INTERCONNECT;JEFFERSON DAVIS;USA;30.232128;-92.978528;TEXAS EASTERN TRANS CORP;TEXAS EASTERN TRANS CORP;2022/01/08 17:00:16+00
KMTEJAS/NGPL  MONTGOMERY;MONTGOMERY;USA;30.232261;-95.367777;NAT GAS P L CO OF AMERICA;NAT GAS P L CO OF AMERICA;2022/01/08 17:00:16+00
LAFAYETTE;LAFAYETTE;USA;30.236239;-92.156002;COLUMBIA GULF TRANS CO;COLUMBIA GULF TRANS CO;2022/01/08 17:00:16+00
NOT AVAILABLE;LAFAYETTE;USA;30.236239;-92.156002;FLORIDA GAS TRANSMISSION;COLUMBIA GULF;2022/01/08 17:00:16+00
KOCH GATEWAY YAZOO;ASCENSION;USA;30.269153;-90.907743;SOUTHERN NATURAL GAS CO;GULF SOUTH PIPELINE CO;2022/01/08 17:00:16+00
208205100;CALCASIEU;USA;30.27934;-93.610392;TENNESSEE GAS PIPELINE CO;TENNESSEE GAS PIPELINE CO;2022/01/08 17:00:16+00
NOT AVAILABLE;CALCASIEU;USA;30.286113;-93.052724;FLORIDA GAS TRANSMISSION;TRUNKLINE;2022/01/08 17:00:16+00
FLORIDA GAS;CALCASIEU;USA;30.286113;-93.052724;TRUNKLINE GAS CO;FLDR;2022/01/08 17:00:16+00
NOT AVAILABLE;JEFFERSON DAVIS;USA;30.3184;-92.953242;TENNESSEE GAS PIPELINE CO;TENNESSEE GAS PIPELINE CO;2022/01/08 17:00:16+00
NOT AVAILABLE;NEWTON;USA;30.33925;-93.837677;TEXAS EASTERN TRANS CORP;TEXAS EASTERN TRANS CORP;2022/01/08 17:00:16+00
KOCH GATEWAY FRANKLINTON;LIVINGSTON;USA;30.352082;-90.792655;SOUTHERN NATURAL GAS CO;GULF SOUTH PIPELINE CO;2022/01/08 17:00:16+00
CITY OF DENHAM SPRINGS;LIVINGSTON;USA;30.352108;-90.792642;GULF SOUTH PIPELINE CO;GULF SOUTH PIPELINE CO;2022/01/08 17:00:16+00
TRANSCO FRANKLINTON;LIVINGSTON;USA;30.385928;-90.812786;SOUTHERN NATURAL GAS CO;TRANSCONTINENTAL GAS P L CO;2022/01/08 17:00:16+00
NOT AVAILABLE;ACADIA;USA;30.387866;-92.437586;TRANSCONTINENTAL GAS P L CO;TRANSCONTINENTAL GAS P L CO;2022/01/08 17:00:16+00
LAKE ARTHUR;ACADIA;USA;30.397332;-92.55483;ANR PIPELINE CO;ANR PIPELINE CO;2022/01/08 17:00:16+00
208205475;JEFFERSON DAVIS;USA;30.411373;-92.967919;TENNESSEE GAS PIPELINE CO;TENNESSEE GAS PIPELINE CO;2022/01/08 17:00:16+00
NOT AVAILABLE;ST. LANDRY;USA;30.43356;-91.921262;FLORIDA GAS TRANSMISSION;SABN;2022/01/08 17:00:16+00
KROTZ SPRINGS;ST. LANDRY;USA;30.434431;-91.90765;ANR PIPELINE CO;ANR PIPELINE CO;2022/01/08 17:00:16+00
NOT AVAILABLE;ST. LANDRY;USA;30.434431;-91.90765;FLORIDA GAS TRANSMISSION;ANR;2022/01/08 17:00:16+00
KILN (FROM TENN GAS);HANCOCK;USA;30.439336;-89.458024;GULF SOUTH PIPELINE CO;GULF SOUTH PIPELINE CO;2022/01/08 17:00:16+00
400820925;HANCOCK;USA;30.439336;-89.458024;TENNESSEE GAS PIPELINE CO;TENNESSEE GAS PIPELINE CO;2022/01/08 17:00:16+00
KILN (TO TENN GAS);HANCOCK;USA;30.439336;-89.458024;GULF SOUTH PIPELINE CO;GULF SOUTH PIPELINE CO;2022/01/08 17:00:16+00
400820950;HANCOCK;USA;30.439336;-89.458024;TENNESSEE GAS PIPELINE CO;TENNESSEE GAS PIPELINE CO;2022/01/08 17:00:16+00
NOT AVAILABLE;BEAUREGARD;USA;30.442153;-93.165727;TRANSCONTINENTAL GAS P L CO;TRANSCONTINENTAL GAS P L CO;2022/01/08 17:00:16+00
RAGLEY EXCHANGE - TRANSCO;BEAUREGARD;USA;30.442194;-93.16574;TRUNKLINE GAS CO;TRAN;2022/01/08 17:00:16+00
NOT AVAILABLE;BEAUREGARD;USA;30.442194;-93.16574;TRUNKLINE GAS CO;TRAN;2022/01/08 17:00:16+00
NOT AVAILABLE;BEAUREGARD;USA;30.443008;-93.247456;TEXAS EASTERN TRANS CORP;TEXAS EASTERN TRANS CORP;2022/01/08 17:00:16+00
NOT AVAILABLE;BEAUREGARD;USA;30.443008;-93.247456;TRANSCONTINENTAL GAS P L CO;TRANSCONTINENTAL GAS P L CO;2022/01/08 17:00:16+00
TRANSCONTINENTAL GAS INTERCONNECT;BEAUREGARD;USA;30.443008;-93.247456;TEXAS EASTERN TRANS CORP;TEXAS EASTERN TRANS CORP;2022/01/08 17:00:16+00
NOT AVAILABLE;ACADIA;USA;30.452752;-92.582555;FLORIDA GAS TRANSMISSION;TEXAS GAS;2022/01/08 17:00:16+00
NOT AVAILABLE;ST. LANDRY;USA;30.454954;-92.196287;TEXAS EASTERN TRANS CORP;TEXAS EASTERN TRANS CORP;2022/01/08 17:00:16+00
NOT AVAILABLE;ST. LANDRY;USA;30.454954;-92.196287;ANR PIPELINE CO;ANR PIPELINE CO;2022/01/08 17:00:16+00
ANR INTERCONNECT;ST. LANDRY;USA;30.454954;-92.196287;TEXAS EASTERN TRANS CORP;TEXAS EASTERN TRANS CORP;2022/01/08 17:00:16+00
GILLIS (FROM TEXAS EASTERN);BEAUREGARD;USA;30.457028;-93.218268;GULF SOUTH PIPELINE CO;GULF SOUTH PIPELINE CO;2022/01/08 17:00:16+00
GULF SOUTH INTERCONNECT;BEAUREGARD;USA;30.457028;-93.218268;TEXAS EASTERN TRANS CORP;TEXAS EASTERN TRANS CORP;2022/01/08 17:00:16+00
NOT AVAILABLE;ST. LANDRY;USA;30.466318;-92.168447;TEXAS EASTERN TRANS CORP;TEXAS EASTERN TRANS CORP;2022/01/08 17:00:16+00
EUNICE;ACADIA;USA;30.469678;-92.437004;ANR PIPELINE CO;ANR PIPELINE CO;2022/01/08 17:00:16+00
NOT AVAILABLE;BEAUREGARD;USA;30.47057;-93.195537;TEXAS EASTERN TRANS CORP;TEXAS EASTERN TRANS CORP;2022/01/08 17:00:16+00
TETCO (ALLEN & BEAUREGARD);BEAUREGARD;USA;30.47057;-93.195537;TRUNKLINE GAS CO;TETC;2022/01/08 17:00:16+00
TETCO (BEAUREGARD PARISH);BEAUREGARD;USA;30.47057;-93.195537;TRUNKLINE GAS CO;TETC;2022/01/08 17:00:16+00
NOT AVAILABLE;ALLEN;USA;30.480218;-93.111515;TEXAS EASTERN TRANS CORP;TEXAS EASTERN TRANS CORP;2022/01/08 17:00:16+00
TRUNKLINE GAS INTERCONNECT;ALLEN;USA;30.480218;-93.111515;TEXAS EASTERN TRANS CORP;TEXAS EASTERN TRANS CORP;2022/01/08 17:00:16+00
ALLEN PARISH;ALLEN;USA;30.480218;-93.111515;TRUNKLINE GAS CO;TETC;2022/01/08 17:00:16+00
ARNAUDVILLE/ ST LANDRY TO (FGT);ST. LANDRY;USA;30.481971;-92.029533;GULF SOUTH PIPELINE CO;GULF SOUTH PIPELINE CO;2022/01/08 17:00:16+00
NOT AVAILABLE;ST. LANDRY;USA;30.484259;-92.127439;TEXAS EASTERN TRANS CORP;TEXAS EASTERN TRANS CORP;2022/01/08 17:00:16+00
FLA GAS INTERCONNECT;ST. LANDRY;USA;30.484259;-92.127439;TEXAS EASTERN TRANS CORP;TEXAS EASTERN TRANS CORP;2022/01/08 17:00:16+00
ST. LANDRY;ST. LANDRY;USA;30.4856;-92.124119;ANR PIPELINE CO;ANR PIPELINE CO;2022/01/08 17:00:16+00
208237150;ALLEN;USA;30.499203;-92.932049;TENNESSEE GAS PIPELINE CO;TENNESSEE GAS PIPELINE CO;2022/01/08 17:00:16+00
NOT AVAILABLE;ALLEN;USA;30.499203;-92.932049;TRANSCONTINENTAL GAS P L CO;TRANSCONTINENTAL GAS P L CO;2022/01/08 17:00:16+00
208237125;ALLEN;USA;30.499203;-92.932049;TENNESSEE GAS PIPELINE CO;TENNESSEE GAS PIPELINE CO;2022/01/08 17:00:16+00
NOT AVAILABLE;ALLEN;USA;30.51243;-92.86312;TENNESSEE GAS PIPELINE CO;TENNESSEE GAS PIPELINE CO;2022/01/08 17:00:16+00
NOT AVAILABLE;ALLEN;USA;30.51243;-92.86312;TEXAS EASTERN TRANS CORP;TEXAS EASTERN TRANS CORP;2022/01/08 17:00:16+00
NOT AVAILABLE;ALLEN;USA;30.51243;-92.86312;TENNESSEE GAS PIPELINE CO;TENNESSEE GAS PIPELINE CO;2022/01/08 17:00:16+00
TENNESSEE GAS INTERCONNECT;ALLEN;USA;30.51243;-92.86312;TEXAS EASTERN TRANS CORP;TEXAS EASTERN TRANS CORP;2022/01/08 17:00:16+00
OPELOUSAS (TO TET);ST. LANDRY;USA;30.523749;-92.040747;GULF SOUTH PIPELINE CO;GULF SOUTH PIPELINE CO;2022/01/08 17:00:16+00
NOT AVAILABLE;ST. LANDRY;USA;30.52512;-92.3024;TEXAS EASTERN TRANS CORP;TEXAS EASTERN TRANS CORP;2022/01/08 17:00:16+00
ST. LANDRY PH.;ST. LANDRY;USA;30.52512;-92.3024;COLUMBIA GULF TRANS CO;COLUMBIA GULF TRANS CO;2022/01/08 17:00:16+00
NOT AVAILABLE;EVANGELINE;USA;30.537265;-92.488452;TEXAS EASTERN TRANS CORP;TEXAS EASTERN TRANS CORP;2022/01/08 17:00:16+00
TEXAS GAS TRANSMISSION CORP;EVANGELINE;USA;30.537265;-92.488452;TEXAS EASTERN TRANS CORP;TEXAS EASTERN TRANS CORP;2022/01/08 17:00:16+00
DIGS-MOBIL BAY;JACKSON;USA;30.557546;-88.511151;GULF SOUTH PIPELINE CO;GULF SOUTH PIPELINE CO;2022/01/08 17:00:16+00
GULF SOUTH  INTERCONNECT;JACKSON;USA;30.557546;-88.511151;DESTIN PIPELINE CO;GFSO;2022/01/08 17:00:16+00
NOT AVAILABLE;LIVINGSTON;USA;30.557863;-90.805737;FLORIDA GAS TRANSMISSION;TRANSCONTINENTAL GAS P L CO;2022/01/08 17:00:16+00
DESTIN (FROM DESTIN);JACKSON;USA;30.558126;-88.511;GULF SOUTH PIPELINE CO;GULF SOUTH PIPELINE CO;2022/01/08 17:00:16+00
DURALDE                                *;EVANGELINE;USA;30.560674;-92.496707;TRANSCONTINENTAL GAS P L CO;TRANSCONTINENTAL GAS P L CO;2022/01/08 17:00:16+00
NOT AVAILABLE;EVANGELINE;USA;30.560674;-92.496707;ANR PIPELINE CO;ANR PIPELINE CO;2022/01/08 17:00:16+00
INDEPENDENCE (FROM SNG);TANGIPAHOA;USA;30.597821;-90.496642;GULF SOUTH PIPELINE CO;GULF SOUTH PIPELINE CO;2022/01/08 17:00:16+00
KOCH GATEWAY - TANGIPAHOA TO KOCH;TANGIPAHOA;USA;30.597821;-90.496642;SOUTHERN NATURAL GAS CO;GULF SOUTH PIPELINE CO;2022/01/08 17:00:16+00
GULFSTH/NGPL GOODRICH POLK;POLK;USA;30.600342;-94.925862;NAT GAS P L CO OF AMERICA;NAT GAS P L CO OF AMERICA;2022/01/08 17:00:16+00
KMTP/NGPL GOODRICH POLK;POLK;USA;30.60036;-94.925986;NAT GAS P L CO OF AMERICA;NAT GAS P L CO OF AMERICA;2022/01/08 17:00:16+00
NOT AVAILABLE;EVANGELINE;USA;30.611677;-92.304606;TRANSCONTINENTAL GAS P L CO;TRANSCONTINENTAL GAS P L CO;2022/01/08 17:00:16+00
EVANGELINE;EVANGELINE;USA;30.611677;-92.304606;COLUMBIA GULF TRANS CO;COLUMBIA GULF TRANS CO;2022/01/08 17:00:16+00
HUNTSVILLE (FROM TET);SAN JACINTO;USA;30.648438;-95.324641;GULF SOUTH PIPELINE CO;GULF SOUTH PIPELINE CO;2022/01/08 17:00:16+00
GULF SOUTH INTERCONNECT;SAN JACINTO;USA;30.648438;-95.324641;TEXAS EASTERN TRANS CORP;TEXAS EASTERN TRANS CORP;2022/01/08 17:00:16+00
FGT - FRANKLINTON WEST TO FGT;TANGIPAHOA;USA;30.678148;-90.339238;SOUTHERN NATURAL GAS CO;FLORIDA GAS TRANS CO;2022/01/08 17:00:16+00
NOT AVAILABLE;ST. HELENA;USA;30.68335;-90.639505;FLORIDA GAS TRANSMISSION;GULF SOUTH PIPELINE CO;2022/01/08 17:00:16+00
NOT AVAILABLE;POLK;USA;30.693714;-94.871043;GULF SOUTH PIPELINE CO;GULF SOUTH PIPELINE CO;2022/01/08 17:00:16+00
GOODRICH (TO NGPL);POLK;USA;30.693714;-94.871043;GULF SOUTH PIPELINE CO;GULF SOUTH PIPELINE CO;2022/01/08 17:00:16+00
MONTPELIER/ST. HELEN (TO FGT);ST. HELENA;USA;30.701907;-90.620955;GULF SOUTH PIPELINE CO;GULF SOUTH PIPELINE CO;2022/01/08 17:00:16+00
NOT AVAILABLE;WASHINGTON;USA;30.726565;-90.142766;FLORIDA GAS TRANSMISSION;SOUT;2022/01/08 17:00:16+00
FGT - FRANKLINTON - TO FGT;WASHINGTON;USA;30.73093;-90.089667;SOUTHERN NATURAL GAS CO;FLORIDA GAS TRANS CO;2022/01/08 17:00:16+00
NOT AVAILABLE;WEST FELICIANA;USA;30.74823;-91.351786;TEXAS EASTERN TRANS CORP;TEXAS EASTERN TRANS CORP;2022/01/08 17:00:16+00
400821050;STONE;USA;30.861032;-89.3324;TENNESSEE GAS PIPELINE CO;TENNESSEE GAS PIPELINE CO;2022/01/08 17:00:16+00
400821025;STONE;USA;30.861032;-89.3324;TENNESSEE GAS PIPELINE CO;TENNESSEE GAS PIPELINE CO;2022/01/08 17:00:16+00
FLORIDA GAS INTERCONNECT;GEORGE;USA;30.983723;-88.744538;DESTIN PIPELINE CO;FLOR;2022/01/08 17:00:16+00
NOT AVAILABLE;AMITE;USA;31.011608;-90.661762;TRANSCONTINENTAL GAS P L CO;TRANSCONTINENTAL GAS P L CO;2022/01/08 17:00:16+00
NOT AVAILABLE;MOBILE;USA;31.05923;-88.334775;TRANSCONTINENTAL GAS P L CO;TRANSCONTINENTAL GAS P L CO;2022/01/08 17:00:16+00
300820400;RAPIDES;USA;31.07904;-92.459904;TENNESSEE GAS PIPELINE CO;TENNESSEE GAS PIPELINE CO;2022/01/08 17:00:16+00
NOT AVAILABLE;MOBILE;USA;31.10745;-88.073139;FLORIDA GAS TRANSMISSION;GULF SOUTH PIPELINE CO;2022/01/08 17:00:16+00
EL PASO;PECOS;USA;31.118109;-102.975955;NORTHERN NATURAL GAS CO;NORTHERN NATURAL GAS CO;2022/01/08 17:00:16+00
NOT AVAILABLE;PIKE;USA;31.206033;-90.289678;TRANSCONTINENTAL GAS P L CO;TRANSCONTINENTAL GAS P L CO;2022/01/08 17:00:16+00
HOLMESVILLE (TO TRANSCO);PIKE;USA;31.212943;-90.284299;GULF SOUTH PIPELINE CO;GULF SOUTH PIPELINE CO;2022/01/08 17:00:16+00
MAGNOLIA (FROM TRANSCO);PIKE;USA;31.245108;-90.468364;GULF SOUTH PIPELINE CO;GULF SOUTH PIPELINE CO;2022/01/08 17:00:16+00
NOT AVAILABLE;PIKE;USA;31.245108;-90.468364;TRANSCONTINENTAL GAS P L CO;TRANSCONTINENTAL GAS P L CO;2022/01/08 17:00:16+00
BARRON (TO COLUMBIA GULF);RAPIDES;USA;31.361874;-92.240766;GULF SOUTH PIPELINE CO;GULF SOUTH PIPELINE CO;2022/01/08 17:00:16+00
FLORIDA NEWSOM C.E. SIBLEY;MARION;USA;31.37914;-89.916807;TRANSCONTINENTAL GAS P L CO;TRANSCONTINENTAL GAS P L CO;2022/01/08 17:00:16+00
RAPIDES (UGPL);RAPIDES;USA;31.413339;-92.248191;ANR PIPELINE CO;ANR PIPELINE CO;2022/01/08 17:00:16+00
NOT AVAILABLE;RAPIDES;USA;31.413339;-92.248191;GULF SOUTH PIPELINE CO;GULF SOUTH PIPELINE CO;2022/01/08 17:00:16+00
NOT AVAILABLE;MARION;USA;31.421662;-89.814722;TRANSCONTINENTAL GAS P L CO;TRANSCONTINENTAL GAS P L CO;2022/01/08 17:00:16+00
NOT AVAILABLE;MARION;USA;31.421662;-89.814722;TRANSCONTINENTAL GAS P L CO;TRANSCONTINENTAL GAS P L CO;2022/01/08 17:00:16+00
NOT AVAILABLE;MARION;USA;31.421662;-89.814722;TRANSCONTINENTAL GAS P L CO;TRANSCONTINENTAL GAS P L CO;2022/01/08 17:00:16+00
KMTEJAS/NGPL  NACOGDOCHES;NACOGDOCHES;USA;31.521808;-94.627538;NAT GAS P L CO OF AMERICA;NAT GAS P L CO OF AMERICA;2022/01/08 17:00:16+00
NOT AVAILABLE;LA SALLE;USA;31.525632;-92.137344;TENNESSEE GAS PIPELINE CO;TENNESSEE GAS PIPELINE CO;2022/01/08 17:00:16+00
LASALLE;LA SALLE;USA;31.525632;-92.137344;COLUMBIA GULF TRANS CO;COLUMBIA GULF TRANS CO;2022/01/08 17:00:16+00
CLINT JUNCTION;EL PASO;USA;31.589082;-106.220653;EL PASO NAT GAS CO;EL PASO NAT GAS CO;2022/01/08 17:00:16+00
WARD CO.;WARD;USA;31.60109;-103.056149;NORTHERN NATURAL GAS CO;NORTHERN NATURAL GAS CO;2022/01/08 17:00:16+00
TRANSWESTERN;WARD;USA;31.60109;-103.056149;NORTHERN NATURAL GAS CO;NORTHERN NATURAL GAS CO;2022/01/08 17:00:16+00
TW/NNG;WARD;USA;31.60109;-103.056149;NORTHERN NATURAL GAS CO;NORTHERN NATURAL GAS CO;2022/01/08 17:00:16+00
NORTHERN NATURAL GAS CO;WARD;USA;31.60109;-103.056149;TRANSWESTERN PIPELINE CO;NNAT;2022/01/08 17:00:16+00
NORTHERN NATURAL GAS CO;WARD;USA;31.60109;-103.056149;TRANSWESTERN PIPELINE CO;NNAT;2022/01/08 17:00:16+00
NOT AVAILABLE;WARD;USA;31.60109;-103.056149;TRANSWESTERN PIPELINE CO;NNAT;2022/01/08 17:00:16+00
ESTES;WARD;USA;31.626217;-103.05613;NORTHERN NATURAL GAS CO;NORTHERN NATURAL GAS CO;2022/01/08 17:00:16+00
NOT AVAILABLE;COVINGTON;USA;31.627243;-89.409891;TRANSCONTINENTAL GAS P L CO;TRANSCONTINENTAL GAS P L CO;2022/01/08 17:00:16+00
EL PASO NATURAL GAS;WINKLER;USA;31.72563;-103.178204;TRANSWESTERN PIPELINE CO;ELPA;2022/01/08 17:00:16+00
EL PASO NATURAL GAS;WINKLER;USA;31.72563;-103.178204;TRANSWESTERN PIPELINE CO;ELPA;2022/01/08 17:00:16+00
EL PASO NATURAL GAS;WINKLER;USA;31.72563;-103.178204;TRANSWESTERN PIPELINE CO;ELPA;2022/01/08 17:00:16+00
NOT AVAILABLE;JASPER;USA;31.844558;-88.988572;TENNESSEE GAS PIPELINE CO;TENNESSEE GAS PIPELINE CO;2022/01/08 17:00:16+00
HEIDELBLERG EXCHANGE;JASPER;USA;31.844558;-88.988572;TRANSCONTINENTAL GAS P L CO;TRANSCONTINENTAL GAS P L CO;2022/01/08 17:00:16+00
400821750;JASPER;USA;31.844558;-88.988572;TENNESSEE GAS PIPELINE CO;TENNESSEE GAS PIPELINE CO;2022/01/08 17:00:16+00
NATURAL GAS PIPELINE;WINKLER;USA;31.87072;-103.27168;TRANSWESTERN PIPELINE CO;NGPL;2022/01/08 17:00:16+00
NATURAL GAS PIPELINE;WINKLER;USA;31.87072;-103.27168;TRANSWESTERN PIPELINE CO;NGPL;2022/01/08 17:00:16+00
NOT AVAILABLE;WINKLER;USA;31.87072;-103.27168;TRANSWESTERN PIPELINE CO;NGPL;2022/01/08 17:00:16+00
OLLA (TO TRUNKLINE);LA SALLE;USA;31.883904;-92.25792;GULF SOUTH PIPELINE CO;GULF SOUTH PIPELINE CO;2022/01/08 17:00:16+00
OLLA;LA SALLE;USA;31.883904;-92.25792;TRUNKLINE GAS CO;GFSO;2022/01/08 17:00:16+00
NOT AVAILABLE;LA SALLE;USA;31.883904;-92.25792;TRUNKLINE GAS CO;GFSO;2022/01/08 17:00:16+00
SHUBUTA;CLARKE;USA;31.917609;-88.805368;TRANSCONTINENTAL GAS P L CO;TRANSCONTINENTAL GAS P L CO;2022/01/08 17:00:16+00
TRANSCO INTERCONNECT;CLARKE;USA;31.917614;-88.805343;DESTIN PIPELINE CO;TRAN;2022/01/08 17:00:16+00
KEYSTONE;WINKLER;USA;31.947109;-103.099514;NORTHERN NATURAL GAS CO;NORTHERN NATURAL GAS CO;2022/01/08 17:00:16+00
KEYSTONE - NNG TO EP;WINKLER;USA;31.947373;-103.099619;EL PASO NAT GAS CO;EL PASO NAT GAS CO;2022/01/08 17:00:16+00
NGPL DELIVERY;LEA;USA;32.057259;-103.249289;EL PASO NAT GAS CO;EL PASO NAT GAS CO;2022/01/08 17:00:16+00
NOT AVAILABLE;LEA;USA;32.057297;-103.29721;EL PASO NAT GAS CO;EL PASO NAT GAS CO;2022/01/08 17:00:16+00
TENN - ROSE HILL TO SNG;CLARKE;USA;32.073576;-88.894164;SOUTHERN NATURAL GAS CO;TENNESSEE GAS PIPELINE CO;2022/01/08 17:00:16+00
400821900;CLARKE;USA;32.073576;-88.894164;TENNESSEE GAS PIPELINE CO;TENNESSEE GAS PIPELINE CO;2022/01/08 17:00:16+00
NOT AVAILABLE;CLARKE;USA;32.073576;-88.894164;TENNESSEE GAS PIPELINE CO;TENNESSEE GAS PIPELINE CO;2022/01/08 17:00:16+00
TENN - ROSE HILL TO TENN;CLARKE;USA;32.073576;-88.894164;SOUTHERN NATURAL GAS CO;TENNESSEE GAS PIPELINE CO;2022/01/08 17:00:16+00
400821925;CLARKE;USA;32.073576;-88.894164;TENNESSEE GAS PIPELINE CO;TENNESSEE GAS PIPELINE CO;2022/01/08 17:00:16+00
NOT AVAILABLE;CLARKE;USA;32.109972;-88.80557;SOUTHERN NATURAL GAS CO;DESTIN PIPELINE CO;2022/01/08 17:00:16+00
DESTIN - ENTERPRISE TO SNG;CLARKE;USA;32.109972;-88.80557;SOUTHERN NATURAL GAS CO;DESTIN PIPELINE CO;2022/01/08 17:00:16+00
SONAT INTERCONNECT;CLARKE;USA;32.109972;-88.80557;DESTIN PIPELINE CO;SOUT;2022/01/08 17:00:16+00
NOT AVAILABLE;CLARKE;USA;32.111363;-88.882343;TENNESSEE GAS PIPELINE CO;TENNESSEE GAS PIPELINE CO;2022/01/08 17:00:16+00
TENNECO INTERCONNECT;CLARKE;USA;32.111363;-88.882343;DESTIN PIPELINE CO;TENN;2022/01/08 17:00:16+00
NOT AVAILABLE;PANOLA;USA;32.152535;-94.297113;CENTERPOINT ENERGY GAS TRANS CO;DOMI;2022/01/08 17:00:16+00
EPNG/NGPL JAL LEA;LEA;USA;32.172307;-103.175446;NAT GAS P L CO OF AMERICA;NAT GAS P L CO OF AMERICA;2022/01/08 17:00:16+00
NOT AVAILABLE;PANOLA;USA;32.181072;-94.259574;CENTERPOINT ENERGY GAS TRANS CO;TENN;2022/01/08 17:00:16+00
NOT AVAILABLE;PANOLA;USA;32.220079;-94.219214;CENTERPOINT ENERGY GAS TRANS CO;TXGS;2022/01/08 17:00:16+00
NOT AVAILABLE;RED RIVER;USA;32.224038;-93.485081;GULF SOUTH PIPELINE CO;GULF SOUTH PIPELINE CO;2022/01/08 17:00:16+00
KMTEJAS/NGPL BECKVILLE PANOLA;PANOLA;USA;32.228704;-94.475529;NAT GAS P L CO OF AMERICA;NAT GAS P L CO OF AMERICA;2022/01/08 17:00:16+00
CASTOR STATION (FROM TET);BIENVILLE;USA;32.264739;-93.134425;GULF SOUTH PIPELINE CO;GULF SOUTH PIPELINE CO;2022/01/08 17:00:16+00
NOT AVAILABLE;BIENVILLE;USA;32.264739;-93.134425;TEXAS EASTERN TRANS CORP;TEXAS EASTERN TRANS CORP;2022/01/08 17:00:16+00
GULF SOUTH INTERCONNECT;BIENVILLE;USA;32.264739;-93.134425;TEXAS EASTERN TRANS CORP;TEXAS EASTERN TRANS CORP;2022/01/08 17:00:16+00
NOT AVAILABLE;BIENVILLE;USA;32.338432;-93.300352;CENTERPOINT ENERGY GAS TRANS CO;GFSO;2022/01/08 17:00:16+00
NOT AVAILABLE;BIENVILLE;USA;32.338432;-93.300352;CENTERPOINT ENERGY GAS TRANS CO;DOMI;2022/01/08 17:00:16+00
NOT AVAILABLE;FRANKLIN;USA;32.376294;-91.47256;CENTERPOINT ENERGY GAS TRANS CO;TENN;2022/01/08 17:00:16+00
300820875;FRANKLIN;USA;32.376295;-91.47256;TENNESSEE GAS PIPELINE CO;TENNESSEE GAS PIPELINE CO;2022/01/08 17:00:16+00
NOT AVAILABLE;RICHLAND;USA;32.428418;-91.529051;CENTERPOINT ENERGY GAS TRANS CO;CGUL;2022/01/08 17:00:16+00
NORAM WASKOM PLANT;HARRISON;USA;32.451403;-94.187044;GULF SOUTH PIPELINE CO;GULF SOUTH PIPELINE CO;2022/01/08 17:00:16+00
GEORGE B. FRANKLIN;RICHLAND;USA;32.463387;-91.59833;ANR PIPELINE CO;ANR PIPELINE CO;2022/01/08 17:00:16+00
NOT AVAILABLE;RICHLAND;USA;32.463431;-91.598332;CENTERPOINT ENERGY GAS TRANS CO;ANRP;2022/01/08 17:00:16+00
NOT AVAILABLE;BOSSIER;USA;32.482176;-93.597824;TEXAS EASTERN TRANS CORP;TEXAS EASTERN TRANS CORP;2022/01/08 17:00:16+00
TEXAS GAS INTERCONNECT;BOSSIER;USA;32.482176;-93.597824;TEXAS EASTERN TRANS CORP;TEXAS EASTERN TRANS CORP;2022/01/08 17:00:16+00
KOCH GATEWAY - RANKIN TO KOCH;RANKIN;USA;32.505616;-89.935118;SOUTHERN NATURAL GAS CO;GULF SOUTH PIPELINE CO;2022/01/08 17:00:16+00
NOT AVAILABLE;BOSSIER;USA;32.511686;-93.529111;CENTERPOINT ENERGY GAS TRANS CO;TXGS;2022/01/08 17:00:16+00
NOT AVAILABLE;RICHLAND;USA;32.529178;-91.635816;CENTERPOINT ENERGY GAS TRANS CO;TRNK;2022/01/08 17:00:16+00
KMTEJAS/NGPL  HARRISON;HARRISON;USA;32.53564;-94.426166;NAT GAS P L CO OF AMERICA;NAT GAS P L CO OF AMERICA;2022/01/08 17:00:16+00
SOUTHERN NATURAL GAS COMPANY;LEE;USA;32.544003;-85.311449;SOUTH GEORGIA NAT GAS CO;SOUTHERN NATURAL GAS CO;2022/01/08 17:00:16+00
SOUTH GEORGIA - METER STATION;LEE;USA;32.544003;-85.311449;SOUTHERN NATURAL GAS CO;SOUTH GEORGIA  NAT GAS CO;2022/01/08 17:00:16+00
NOT AVAILABLE;CADDO;USA;32.544897;-94.031986;CENTERPOINT ENERGY GAS TRANS CO;TETC;2022/01/08 17:00:16+00
NOT AVAILABLE;CADDO;USA;32.544958;-94.032094;TEXAS EASTERN TRANS CORP;TEXAS EASTERN TRANS CORP;2022/01/08 17:00:16+00
NOT AVAILABLE;CADDO;USA;32.545003;-94.032102;CENTERPOINT ENERGY GAS TRANS CO;TETC;2022/01/08 17:00:16+00
250400975;OUACHITA;USA;32.551613;-92.195399;TENNESSEE GAS PIPELINE CO;TENNESSEE GAS PIPELINE CO;2022/01/08 17:00:16+00
NOT AVAILABLE;OUACHITA;USA;32.551693;-92.195495;TENNESSEE GAS PIPELINE CO;TENNESSEE GAS PIPELINE CO;2022/01/08 17:00:16+00
X;OUACHITA;USA;32.551694;-92.195592;GULF SOUTH PIPELINE CO;GULF SOUTH PIPELINE CO;2022/01/08 17:00:16+00
NOT AVAILABLE;OUACHITA;USA;32.561427;-92.185328;CENTERPOINT ENERGY GAS TRANS CO;GFSO;2022/01/08 17:00:16+00
NOT AVAILABLE;OUACHITA;USA;32.561452;-92.18527;TENNESSEE GAS PIPELINE CO;TENNESSEE GAS PIPELINE CO;2022/01/08 17:00:16+00
NOT AVAILABLE;OUACHITA;USA;32.561482;-92.185304;CENTERPOINT ENERGY GAS TRANS CO;DOMI;2022/01/08 17:00:16+00
TGC@PERRYVILLE;RICHLAND;USA;32.575242;-91.719103;TRUNKLINE GAS CO;RELI;2022/01/08 17:00:16+00
NOT AVAILABLE;RICHLAND;USA;32.575242;-91.719103;TRUNKLINE GAS CO;ARKL;2022/01/08 17:00:16+00
CANTON (FROM TET);MADISON;USA;32.576166;-90.133118;GULF SOUTH PIPELINE CO;GULF SOUTH PIPELINE CO;2022/01/08 17:00:16+00
NOT AVAILABLE;RICHLAND;USA;32.579125;-91.719224;CENTERPOINT ENERGY GAS TRANS CO;TRNK;2022/01/08 17:00:16+00
NOT AVAILABLE;OUACHITA;USA;32.602184;-92.149856;TEXAS EASTERN TRANS CORP;TEXAS EASTERN TRANS CORP;2022/01/08 17:00:16+00
WEST MONROE (TO TET);OUACHITA;USA;32.602184;-92.149856;GULF SOUTH PIPELINE CO;GULF SOUTH PIPELINE CO;2022/01/08 17:00:16+00
NOT AVAILABLE;OUACHITA;USA;32.602724;-92.126984;CENTERPOINT ENERGY GAS TRANS CO;TETC;2022/01/08 17:00:16+00
HOBBS;LEA;USA;32.605958;-103.258177;NORTHERN NATURAL GAS CO;NORTHERN NATURAL GAS CO;2022/01/08 17:00:16+00
HARRISON;HARRISON;USA;32.633611;-94.236682;MISSISSIPPI RIVER TRANS CORP;TEXAS EASTERN TRANS CORP;2022/01/08 17:00:16+00
HARRISON;HARRISON;USA;32.637696;-94.408576;MISSISSIPPI RIVER TRANS CORP;NAT GAS P L CO OF AMERICA;2022/01/08 17:00:16+00
NOT AVAILABLE;HARRISON;USA;32.637696;-94.408576;MISSISSIPPI RIVER TRANS CORP;NAT GAS P L CO OF AMERICA;2022/01/08 17:00:16+00
RUSTON;LINCOLN;USA;32.637764;-92.609178;MISSISSIPPI RIVER TRANS CORP;RELIANT ENERGY GAS TRANS CO;2022/01/08 17:00:16+00
ENABLEMR/NGPL  HARRISON;HARRISON;USA;32.644518;-94.406052;NAT GAS P L CO OF AMERICA;NAT GAS P L CO OF AMERICA;2022/01/08 17:00:16+00
NOT AVAILABLE;WEST CARROLL;USA;32.645504;-91.522592;TEXAS EASTERN TRANS CORP;TEXAS EASTERN TRANS CORP;2022/01/08 17:00:16+00
TRUNKLINE GAS INTERCONNECT;WEST CARROLL;USA;32.645504;-91.522592;TEXAS EASTERN TRANS CORP;TEXAS EASTERN TRANS CORP;2022/01/08 17:00:16+00
NOT AVAILABLE;WEST CARROLL;USA;32.645504;-91.522592;TRUNKLINE GAS CO;TETC;2022/01/08 17:00:16+00
WEST CARROLL (FROM TET);WEST CARROLL;USA;32.647456;-91.48768;GULF SOUTH PIPELINE CO;GULF SOUTH PIPELINE CO;2022/01/08 17:00:16+00
NOT AVAILABLE;WEST CARROLL;USA;32.647456;-91.48768;TEXAS EASTERN TRANS CORP;TEXAS EASTERN TRANS CORP;2022/01/08 17:00:16+00
UNIONVILLE;LINCOLN;USA;32.64893;-92.536581;MISSISSIPPI RIVER TRANS CORP;TEXAS GAS TRANSMISSION CO;2022/01/08 17:00:16+00
NOT AVAILABLE;LINCOLN;USA;32.648932;-92.536526;MISSISSIPPI RIVER TRANS CORP;TEXAS GAS TRANSMISSION CO;2022/01/08 17:00:16+00
NOT AVAILABLE;CADDO;USA;32.659233;-93.829002;CENTERPOINT ENERGY GAS TRANS CO;WNGP;2022/01/08 17:00:16+00
NOT AVAILABLE;CADDO;USA;32.663428;-93.827286;MISSISSIPPI RIVER TRANS CORP;CENTERPOINT ENERGY GAS TRANS CO;2022/01/08 17:00:16+00
NOT AVAILABLE;CADDO;USA;32.66348;-93.82743;CENTERPOINT ENERGY GAS TRANS CO;MISS;2022/01/08 17:00:16+00
DIXIE;CADDO;USA;32.663538;-93.827463;MISSISSIPPI RIVER TRANS CORP;RELIANT ENERGY GAS TRANS CO;2022/01/08 17:00:16+00
NOT AVAILABLE;CADDO;USA;32.663632;-93.827286;CENTERPOINT ENERGY GAS TRANS CO;MISS;2022/01/08 17:00:16+00
NOT AVAILABLE;OUACHITA;USA;32.674445;-92.093263;CENTERPOINT ENERGY GAS TRANS CO;MISS;2022/01/08 17:00:16+00
NOT AVAILABLE;OUACHITA;USA;32.674445;-92.093344;CENTERPOINT ENERGY GAS TRANS CO;MISS;2022/01/08 17:00:16+00
NOT AVAILABLE;OUACHITA;USA;32.676282;-92.098235;CENTERPOINT ENERGY GAS TRANS CO;TXGS;2022/01/08 17:00:16+00
NOT AVAILABLE;OUACHITA;USA;32.676394;-92.043051;CENTERPOINT ENERGY GAS TRANS CO;TENN;2022/01/08 17:00:16+00
NOT AVAILABLE;OUACHITA;USA;32.676449;-92.043052;CENTERPOINT ENERGY GAS TRANS CO;TENN;2022/01/08 17:00:16+00
EAST CARROLL PH.;EAST CARROLL;USA;32.676697;-91.282885;COLUMBIA GULF TRANS CO;COLUMBIA GULF TRANS CO;2022/01/08 17:00:16+00
KOCH GATEWAY - PERRYVILLE;OUACHITA;USA;32.676753;-92.005941;SOUTHERN NATURAL GAS CO;GULF SOUTH PIPELINE CO;2022/01/08 17:00:16+00
INTER - RELIANT- PERRYVILLE TO SNG;OUACHITA;USA;32.676753;-92.005941;SOUTHERN NATURAL GAS CO;RELIANT ENERGY GAS TRANS CO;2022/01/08 17:00:16+00
STERLINGTON;OUACHITA;USA;32.677084;-92.078631;MISSISSIPPI RIVER TRANS CORP;RELIANT ENERGY GAS TRANS CO;2022/01/08 17:00:16+00
NOT AVAILABLE;OUACHITA;USA;32.677105;-92.07857;MISSISSIPPI RIVER TRANS CORP;CENTERPOINT ENERGY GAS TRANS CO;2022/01/08 17:00:16+00
NOT AVAILABLE;OUACHITA;USA;32.677812;-92.09484;CENTERPOINT ENERGY GAS TRANS CO;TXGS;2022/01/08 17:00:16+00
250401351;OUACHITA;USA;32.68396;-92.033222;TENNESSEE GAS PIPELINE CO;TENNESSEE GAS PIPELINE CO;2022/01/08 17:00:16+00
250401350;OUACHITA;USA;32.684141;-92.033438;TENNESSEE GAS PIPELINE CO;TENNESSEE GAS PIPELINE CO;2022/01/08 17:00:16+00
LONEWA  (TO TEXAS GAS);OUACHITA;USA;32.686747;-92.070812;GULF SOUTH PIPELINE CO;GULF SOUTH PIPELINE CO;2022/01/08 17:00:16+00
PERRYVILLE (TO MRT);OUACHITA;USA;32.687596;-92.026414;GULF SOUTH PIPELINE CO;GULF SOUTH PIPELINE CO;2022/01/08 17:00:16+00
PERRYVILLE;OUACHITA;USA;32.687596;-92.026414;MISSISSIPPI RIVER TRANS CORP;GULF SOUTH PIPELINE CO;2022/01/08 17:00:16+00
PERRYVILLE (TO SNG);OUACHITA;USA;32.691083;-92.065913;GULF SOUTH PIPELINE CO;GULF SOUTH PIPELINE CO;2022/01/08 17:00:16+00
NOT AVAILABLE;OUACHITA;USA;32.691922;-92.020387;CENTERPOINT ENERGY GAS TRANS CO;TXGS;2022/01/08 17:00:16+00
NOT AVAILABLE;OUACHITA;USA;32.691922;-92.020387;CENTERPOINT ENERGY GAS TRANS CO;TXGS;2022/01/08 17:00:16+00
PERRYVILLE;OUACHITA;USA;32.691923;-92.021013;MISSISSIPPI RIVER TRANS CORP;TEXAS GAS TRANSMISSION CO;2022/01/08 17:00:16+00
NOT AVAILABLE;EAST CARROLL;USA;32.69474;-91.170741;TEXAS EASTERN TRANS CORP;TEXAS EASTERN TRANS CORP;2022/01/08 17:00:16+00
TENNESSEE GAS INTERCONNECT;EAST CARROLL;USA;32.69474;-91.170741;TEXAS EASTERN TRANS CORP;TEXAS EASTERN TRANS CORP;2022/01/08 17:00:16+00
NOT AVAILABLE;OUACHITA;USA;32.706907;-92.004624;CENTERPOINT ENERGY GAS TRANS CO;MISS;2022/01/08 17:00:16+00
NOT AVAILABLE;OUACHITA;USA;32.706907;-92.004624;CENTERPOINT ENERGY GAS TRANS CO;MISS;2022/01/08 17:00:16+00
NOT AVAILABLE;OUACHITA;USA;32.706907;-92.004624;MISSISSIPPI RIVER TRANS CORP;CENTERPOINT ENERGY GAS TRANS CO;2022/01/08 17:00:16+00
NOT AVAILABLE;EAST CARROLL;USA;32.707159;-91.102887;TENNESSEE GAS PIPELINE CO;TENNESSEE GAS PIPELINE CO;2022/01/08 17:00:16+00
NOT AVAILABLE;EAST CARROLL;USA;32.707159;-91.102887;TENNESSEE GAS PIPELINE CO;TENNESSEE GAS PIPELINE CO;2022/01/08 17:00:16+00
TEXAS GAS INTERCONNECT;CLAIBORNE;USA;32.72733;-92.93329;TEXAS EASTERN TRANS CORP;TEXAS EASTERN TRANS CORP;2022/01/08 17:00:16+00
NOT AVAILABLE;CLAIBORNE;USA;32.786378;-92.910498;TEXAS EASTERN TRANS CORP;TEXAS EASTERN TRANS CORP;2022/01/08 17:00:16+00
NGPL EDDY COUNTY;EDDY;USA;32.856104;-104.024959;TRANSWESTERN PIPELINE CO;NGPL;2022/01/08 17:00:16+00
NGPL EDDY COUNTY;EDDY;USA;32.856104;-104.024959;TRANSWESTERN PIPELINE CO;NGPL;2022/01/08 17:00:16+00
NOT AVAILABLE;EDDY;USA;32.856104;-104.024959;TRANSWESTERN PIPELINE CO;NGPL;2022/01/08 17:00:16+00
TRNSWEST/NGPL INDIAN BASIN EDDY;EDDY;USA;32.86285;-104.037604;NAT GAS P L CO OF AMERICA;NAT GAS P L CO OF AMERICA;2022/01/08 17:00:16+00
30- PLAINS;GAINES;USA;32.896671;-102.78884;NORTHERN NATURAL GAS CO;NORTHERN NATURAL GAS CO;2022/01/08 17:00:16+00
EPNG/NGPL LUSK LEA;LEA;USA;32.913067;-103.6308;NAT GAS P L CO OF AMERICA;NAT GAS P L CO OF AMERICA;2022/01/08 17:00:16+00
NOT AVAILABLE;ATTALA;USA;32.987271;-89.515525;GULF SOUTH PIPELINE CO;GULF SOUTH PIPELINE CO;2022/01/08 17:00:16+00
NOT AVAILABLE;ATTALA;USA;32.987271;-89.515525;TEXAS EASTERN TRANS CORP;TEXAS EASTERN TRANS CORP;2022/01/08 17:00:16+00
NOT AVAILABLE;ATTALA;USA;32.987271;-89.515525;TEXAS EASTERN TRANS CORP;TEXAS EASTERN TRANS CORP;2022/01/08 17:00:16+00
KOSCIUSKO (TO TET);ATTALA;USA;32.987271;-89.515525;GULF SOUTH PIPELINE CO;GULF SOUTH PIPELINE CO;2022/01/08 17:00:16+00
NOT AVAILABLE;ATTALA;USA;32.987271;-89.515525;GULF SOUTH PIPELINE CO;GULF SOUTH PIPELINE CO;2022/01/08 17:00:16+00
NOT AVAILABLE;ATTALA;USA;32.987271;-89.515525;SOUTHERN NATURAL GAS CO;GULF SOUTH PIPELINE CO;2022/01/08 17:00:16+00
TEXAS EASTERN - LOSCIUSKO TO TETCO;ATTALA;USA;32.987271;-89.515525;SOUTHERN NATURAL GAS CO;TEXAS EASTERN TRANS CORP;2022/01/08 17:00:16+00
EPNG;YOAKUM;USA;33.008128;-102.724864;NORTHERN NATURAL GAS CO;NORTHERN NATURAL GAS CO;2022/01/08 17:00:16+00
EPNG TO NNG @ PLAINS;YOAKUM;USA;33.010406;-102.729357;EL PASO NAT GAS CO;EL PASO NAT GAS CO;2022/01/08 17:00:16+00
NORTHERN NATURAL TO EPNG;YOAKUM;USA;33.011198;-102.729093;EL PASO NAT GAS CO;EL PASO NAT GAS CO;2022/01/08 17:00:16+00
NGPL/MEP ATLANTA CASS;CASS;USA;33.100365;-94.259177;NAT GAS P L CO OF AMERICA;NAT GAS P L CO OF AMERICA;2022/01/08 17:00:16+00
TGC @ RICELAND- NORAM;CHICOT;USA;33.200355;-91.248173;TRUNKLINE GAS CO;TENN;2022/01/08 17:00:16+00
MARIETTA/NGPL MARIETTA CASS;CASS;USA;33.227627;-94.455661;NAT GAS P L CO OF AMERICA;NAT GAS P L CO OF AMERICA;2022/01/08 17:00:16+00
TENN - PUGH TO SNG;LOWNDES;USA;33.309551;-88.409924;SOUTHERN NATURAL GAS CO;TENNESSEE GAS PIPELINE CO;2022/01/08 17:00:16+00
400822225;LOWNDES;USA;33.309551;-88.409924;TENNESSEE GAS PIPELINE CO;TENNESSEE GAS PIPELINE CO;2022/01/08 17:00:16+00
TENN - PUGH TO TENN;LOWNDES;USA;33.309551;-88.409924;SOUTHERN NATURAL GAS CO;TENNESSEE GAS PIPELINE CO;2022/01/08 17:00:16+00
400822250;LOWNDES;USA;33.309551;-88.409924;TENNESSEE GAS PIPELINE CO;TENNESSEE GAS PIPELINE CO;2022/01/08 17:00:16+00
NOT AVAILABLE;WASHINGTON;USA;33.487021;-90.898082;TENNESSEE GAS PIPELINE CO;TENNESSEE GAS PIPELINE CO;2022/01/08 17:00:16+00
TRANSCO- JONESBORO TO TRANSCO;CLAYTON;USA;33.522707;-84.417727;SOUTHERN NATURAL GAS CO;TRANSCONTINENTAL GAS P L CO;2022/01/08 17:00:16+00
NOT AVAILABLE;SUNFLOWER;USA;33.661539;-90.657507;TENNESSEE GAS PIPELINE CO;TENNESSEE GAS PIPELINE CO;2022/01/08 17:00:16+00
NOT AVAILABLE;SUNFLOWER;USA;33.661539;-90.657507;TENNESSEE GAS PIPELINE CO;TENNESSEE GAS PIPELINE CO;2022/01/08 17:00:16+00
NOT AVAILABLE;SUNFLOWER;USA;33.661539;-90.657507;TRUNKLINE GAS CO;TENN;2022/01/08 17:00:16+00
NOT AVAILABLE;SUNFLOWER;USA;33.661539;-90.657507;TRUNKLINE GAS CO;TENN;2022/01/08 17:00:16+00
NOT AVAILABLE;LINCOLN;USA;33.963296;-91.957714;CENTERPOINT ENERGY GAS TRANS CO;MISS;2022/01/08 17:00:16+00
GLENDALE;LINCOLN;USA;33.963297;-91.957772;MISSISSIPPI RIVER TRANS CORP;RELIANT ENERGY GAS TRANS CO;2022/01/08 17:00:16+00
NOT AVAILABLE;JEFFERSON;USA;34.224891;-91.935264;CENTERPOINT ENERGY GAS TRANS CO;MISS;2022/01/08 17:00:16+00
NOT AVAILABLE;JEFFERSON;USA;34.224891;-91.935264;MISSISSIPPI RIVER TRANS CORP;CENTERPOINT ENERGY GAS TRANS CO;2022/01/08 17:00:16+00
NOT AVAILABLE;HOT SPRING;USA;34.246607;-92.781719;CENTERPOINT ENERGY GAS TRANS CO;TETC;2022/01/08 17:00:16+00
NOT AVAILABLE;HOT SPRING;USA;34.2688;-92.82692;CENTERPOINT ENERGY GAS TRANS CO;NGPL;2022/01/08 17:00:16+00
GETHSEMANE;JEFFERSON;USA;34.402048;-91.958784;MISSISSIPPI RIVER TRANS CORP;RELIANT ENERGY GAS TRANS CO;2022/01/08 17:00:16+00
NOT AVAILABLE;PHILLIPS;USA;34.492568;-90.60162;CENTERPOINT ENERGY GAS TRANS CO;TXGS;2022/01/08 17:00:16+00
NOT AVAILABLE;TATE;USA;34.689834;-89.896323;TRUNKLINE GAS CO;ANRP;2022/01/08 17:00:16+00
NOT AVAILABLE;COMANCHE;USA;34.710528;-98.116096;SOUTHERN STAR CENTRAL GAS PL CO;TRANSWESTERN PIPELINE CO;2022/01/08 17:00:16+00
NAGD TETCO;COLBERT;USA;34.718049;-87.889655;ALABAMA-TENNESSEE NAT GAS CO;TETC;2022/01/08 17:00:16+00
TRIGAS TETCO;COLBERT;USA;34.718049;-87.889655;ALABAMA-TENNESSEE NAT GAS CO;TETC;2022/01/08 17:00:16+00
MOJAVE;SAN BERNARDINO;USA;34.722951;-114.496876;EL PASO NAT GAS CO;EL PASO NAT GAS CO;2022/01/08 17:00:16+00
NOT AVAILABLE;SAN BERNARDINO;USA;34.722951;-114.496876;MOJAVE PIPELINE CO;TRANSWESTERN PIPELINE CO;2022/01/08 17:00:16+00
NOT AVAILABLE;SAN BERNARDINO;USA;34.722951;-114.496876;MOJAVE PIPELINE CO;EL PASO NAT GAS CO;2022/01/08 17:00:16+00
BARTON TCP;COLBERT;USA;34.726687;-87.976956;ALABAMA-TENNESSEE NAT GAS CO;TENN;2022/01/08 17:00:16+00
400824200;COLBERT;USA;34.726687;-87.976956;TENNESSEE GAS PIPELINE CO;TENNESSEE GAS PIPELINE CO;2022/01/08 17:00:16+00
400824275;COLBERT;USA;34.726687;-87.976956;TENNESSEE GAS PIPELINE CO;TENNESSEE GAS PIPELINE CO;2022/01/08 17:00:16+00
TOPOCK;MOHAVE;USA;34.72679;-114.485749;TRANSWESTERN PIPELINE CO;MOJA;2022/01/08 17:00:16+00
P.G. & E. - DAGGETT;SAN BERNARDINO;USA;34.889145;-116.859911;KERN RIVER GAS TRANS CO;P.G. & E.;2022/01/08 17:00:16+00
CORINTH CGT;ALCORN;USA;34.956088;-88.41184;ALABAMA-TENNESSEE NAT GAS CO;CGUL;2022/01/08 17:00:16+00
ALCORN CO;ALCORN;USA;34.956088;-88.41184;COLUMBIA GULF TRANS CO;COLUMBIA GULF TRANS CO;2022/01/08 17:00:16+00
CORINTH TGP;ALCORN;USA;34.961664;-88.418944;ALABAMA-TENNESSEE NAT GAS CO;TENN;2022/01/08 17:00:16+00
300821650;ALCORN;USA;34.961664;-88.418944;TENNESSEE GAS PIPELINE CO;TENNESSEE GAS PIPELINE CO;2022/01/08 17:00:16+00
EAST TENNESSEE CLEVELAND;CATOOSA;USA;34.971968;-85.180736;SOUTHERN NATURAL GAS CO;EAST TENNESSEE NAT GAS CO;2022/01/08 17:00:16+00
EAST TENN- CLEVELAND TO ETNG #2;CATOOSA;USA;34.971968;-85.180736;SOUTHERN NATURAL GAS CO;EAST TENNESSEE NAT GAS CO;2022/01/08 17:00:16+00
FREEMONT PEAK DELIVERY;SAN BERNARDINO;USA;34.990398;-117.525715;KERN RIVER GAS TRANS CO;PACIFIC GAS & ELECTRIC COMPANY;2022/01/08 17:00:16+00
KRAMER JUNCTION;SAN BERNARDINO;USA;34.992393;-117.540709;KERN RIVER GAS TRANS CO;SOCAL;2022/01/08 17:00:16+00
LAGUNA;CIBOLA;USA;35.047351;-107.485583;EL PASO NAT GAS CO;EL PASO NAT GAS CO;2022/01/08 17:00:16+00
WHEELER RIDGE;KERN;USA;35.059757;-119.105838;KERN RIVER GAS TRANS CO;SOCAL;2022/01/08 17:00:16+00
VILONIA;FAULKNER;USA;35.095186;-92.189542;MISSISSIPPI RIVER TRANS CORP;RELIANT ENERGY GAS TRANS CO;2022/01/08 17:00:16+00
NOT AVAILABLE;FAULKNER;USA;35.095187;-92.189554;CENTERPOINT ENERGY GAS TRANS CO;MISS;2022/01/08 17:00:16+00
FORT MOHAVE;CLARK;USA;35.09629;-114.658259;EL PASO NAT GAS CO;EL PASO NAT GAS CO;2022/01/08 17:00:16+00
EPNG/NGPL CLIFFSIDE POTTER;RANDALL;USA;35.133675;-102.072982;NAT GAS P L CO OF AMERICA;NAT GAS P L CO OF AMERICA;2022/01/08 17:00:16+00
TEX GAS/NGPL BALD KNOB WHITE;WHITE;USA;35.206786;-91.772554;NAT GAS P L CO OF AMERICA;NAT GAS P L CO OF AMERICA;2022/01/08 17:00:16+00
NOT AVAILABLE;WHITE;USA;35.240577;-91.688778;TEXAS EASTERN TRANS CORP;TEXAS EASTERN TRANS CORP;2022/01/08 17:00:16+00
NOT AVAILABLE;GRADY;USA;35.258448;-98.04992;SOUTHERN STAR CENTRAL GAS PL CO;NAT GAS P L CO OF AMERICA;2022/01/08 17:00:16+00
NOT AVAILABLE;WHITE;USA;35.301086;-91.610079;CENTERPOINT ENERGY GAS TRANS CO;TETC;2022/01/08 17:00:16+00
NOT AVAILABLE;WHITE;USA;35.301086;-91.610079;CENTERPOINT ENERGY GAS TRANS CO;TETC;2022/01/08 17:00:16+00
NOT AVAILABLE;GRADY;USA;35.303392;-98.07296;SOUTHERN STAR CENTRAL GAS PL CO;NAT GAS P L CO OF AMERICA;2022/01/08 17:00:16+00
EPNG/NGPL #2 WASHITA;WASHITA;USA;35.308499;-99.301626;NAT GAS P L CO OF AMERICA;NAT GAS P L CO OF AMERICA;2022/01/08 17:00:16+00
NOT AVAILABLE;CADDO;USA;35.308937;-98.307825;CENTERPOINT ENERGY GAS TRANS CO;ANRP;2022/01/08 17:00:16+00
NOT AVAILABLE;CADDO;USA;35.308937;-98.307825;CENTERPOINT ENERGY GAS TRANS CO;ANRP;2022/01/08 17:00:16+00
WHEELER;WHEELER;USA;35.325855;-100.171747;EL PASO NAT GAS CO;EL PASO NAT GAS CO;2022/01/08 17:00:16+00
WHEELER;WHEELER;USA;35.325855;-100.171747;EL PASO NAT GAS CO;EL PASO NAT GAS CO;2022/01/08 17:00:16+00
NOT AVAILABLE;WHITE;USA;35.347087;-91.505624;TEXAS EASTERN TRANS CORP;TEXAS EASTERN TRANS CORP;2022/01/08 17:00:16+00
NOT AVAILABLE;WHITE;USA;35.347087;-91.505624;MISSISSIPPI RIVER TRANS CORP;TEXAS EASTERN TRANS CORP;2022/01/08 17:00:16+00
NOT AVAILABLE;WHITE;USA;35.347087;-91.505624;TEXAS EASTERN TRANS CORP;TEXAS EASTERN TRANS CORP;2022/01/08 17:00:16+00
SEARCY;WHITE;USA;35.347267;-91.505521;MISSISSIPPI RIVER TRANS CORP;RELIANT ENERGY GAS TRANS CO;2022/01/08 17:00:16+00
NOT AVAILABLE;GILES;USA;35.408237;-87.163031;TEXAS EASTERN TRANS CORP;TEXAS EASTERN TRANS CORP;2022/01/08 17:00:16+00
NOT AVAILABLE;GILES;USA;35.408237;-87.163031;TEXAS EASTERN TRANS CORP;TEXAS EASTERN TRANS CORP;2022/01/08 17:00:16+00
NOT AVAILABLE;GILES;USA;35.408237;-87.163031;TEXAS EASTERN TRANS CORP;TEXAS EASTERN TRANS CORP;2022/01/08 17:00:16+00
HEMPHILL COUNTY;WHEELER;USA;35.414432;-100.178208;KM INTERSTATE GAS CO;NAT GAS P L CO OF AMERICA;2022/01/08 17:00:16+00
NOT AVAILABLE;WHEELER;USA;35.414432;-100.178208;KM INTERSTATE GAS CO;NAT GAS P L CO OF AMERICA;2022/01/08 17:00:16+00
ANR/NGPL MILLS RANCH WHEELER;WHEELER;USA;35.430151;-100.093005;NAT GAS P L CO OF AMERICA;NAT GAS P L CO OF AMERICA;2022/01/08 17:00:16+00
BALD KNOB;WHITE;USA;35.433736;-91.443626;MISSISSIPPI RIVER TRANS CORP;TEXAS EASTERN TRANS CORP;2022/01/08 17:00:16+00
ANADARKO;CARSON;USA;35.473158;-101.12731;TRANSWESTERN PIPELINE CO;NNAT;2022/01/08 17:00:16+00
NOT AVAILABLE;JACKSON;USA;35.509436;-91.391685;CENTERPOINT ENERGY GAS TRANS CO;MISS;2022/01/08 17:00:16+00
NOT AVAILABLE;JACKSON;USA;35.509867;-91.393793;MISSISSIPPI RIVER TRANS CORP;CENTERPOINT ENERGY GAS TRANS CO;2022/01/08 17:00:16+00
OLYPHANT;JACKSON;USA;35.509911;-91.393845;MISSISSIPPI RIVER TRANS CORP;RELIANT ENERGY GAS TRANS CO;2022/01/08 17:00:16+00
TRANSOK;ROGER MILLS;USA;35.545551;-99.483594;NORTHERN NATURAL GAS CO;NORTHERN NATURAL GAS CO;2022/01/08 17:00:16+00
NOT AVAILABLE;CUSTER;USA;35.578886;-98.893349;CENTERPOINT ENERGY GAS TRANS CO;NGPL;2022/01/08 17:00:16+00
NOT AVAILABLE;WHEELER;USA;35.59002;-100.160219;CENTERPOINT ENERGY GAS TRANS CO;ELPA;2022/01/08 17:00:16+00
NOT AVAILABLE;WHEELER;USA;35.590038;-100.160343;CENTERPOINT ENERGY GAS TRANS CO;ELPA;2022/01/08 17:00:16+00
NOT AVAILABLE;CUSTER;USA;35.637685;-99.020149;CENTERPOINT ENERGY GAS TRANS CO;ANRP;2022/01/08 17:00:16+00
NOT AVAILABLE;CUSTER;USA;35.637685;-99.020149;CENTERPOINT ENERGY GAS TRANS CO;ANRP;2022/01/08 17:00:16+00
CUSTER DELIVERY;CUSTER;USA;35.637687;-99.020149;ANR PIPELINE CO;ANR PIPELINE CO;2022/01/08 17:00:16+00
NOT AVAILABLE;CUSTER;USA;35.660232;-99.181239;CENTERPOINT ENERGY GAS TRANS CO;NNAT;2022/01/08 17:00:16+00
NOT AVAILABLE;CUSTER;USA;35.660233;-99.18174;CENTERPOINT ENERGY GAS TRANS CO;NNAT;2022/01/08 17:00:16+00
NOT AVAILABLE;CUSTER;USA;35.670025;-99.237215;CENTERPOINT ENERGY GAS TRANS CO;PANH;2022/01/08 17:00:16+00
NOT AVAILABLE;HEMPHILL;USA;35.694469;-100.273681;CENTERPOINT ENERGY GAS TRANS CO;KNEN;2022/01/08 17:00:16+00
NOT AVAILABLE;HEMPHILL;USA;35.694478;-100.273673;KM INTERSTATE GAS CO;CENTERPOINT ENERGY GAS TRANS CO;2022/01/08 17:00:16+00
NOT AVAILABLE;HEMPHILL;USA;35.694488;-100.273668;CENTERPOINT ENERGY GAS TRANS CO;KMIG;2022/01/08 17:00:16+00
HEMPHILL COUNTY;HEMPHILL;USA;35.694488;-100.273681;KM INTERSTATE GAS CO;RELIANT ENERGY GAS TRANS CO;2022/01/08 17:00:16+00
LOBELVILLE;HICKMAN;USA;35.694864;-87.722655;EAST TENNESSEE NAT GAS CO;TENN;2022/01/08 17:00:16+00
TGP 3200 LINE INTERCONNECT;HICKMAN;USA;35.694864;-87.722655;EAST TENNESSEE NAT GAS CO;TENN;2022/01/08 17:00:16+00
NOT AVAILABLE;HICKMAN;USA;35.694864;-87.722655;TENNESSEE GAS PIPELINE CO;TENNESSEE GAS PIPELINE CO;2022/01/08 17:00:16+00
BUFFALO WALLOW;HEMPHILL;USA;35.733847;-100.283632;KM INTERSTATE GAS CO;EL PASO NAT GAS CO;2022/01/08 17:00:16+00
NOT AVAILABLE;HEMPHILL;USA;35.733847;-100.283632;KM INTERSTATE GAS CO;EL PASO NAT GAS CO;2022/01/08 17:00:16+00
NOT AVAILABLE;HEMPHILL;USA;35.740914;-100.295746;KM INTERSTATE GAS CO;SOUTHERN NATURAL GAS CO;2022/01/08 17:00:16+00
NOT AVAILABLE;HEMPHILL;USA;35.74342;-100.396099;KM INTERSTATE GAS CO;ANR PIPELINE CO;2022/01/08 17:00:16+00
ROBERTS COUNTY NO 1;ROBERTS;USA;35.765862;-100.598074;ANR PIPELINE CO;ANR PIPELINE CO;2022/01/08 17:00:16+00
ANR PIPELINE;ROBERTS;USA;35.765862;-100.598074;TRANSWESTERN PIPELINE CO;ANRP;2022/01/08 17:00:16+00
ANR PIPELINE;ROBERTS;USA;35.765862;-100.598074;TRANSWESTERN PIPELINE CO;ANRP;2022/01/08 17:00:16+00
ANR PIPELINE;ROBERTS;USA;35.765862;-100.598074;TRANSWESTERN PIPELINE CO;ANRP;2022/01/08 17:00:16+00
ANR PIPELINE;ROBERTS;USA;35.765862;-100.598074;TRANSWESTERN PIPELINE CO;ANRP;2022/01/08 17:00:16+00
MOORE COUNTY;MOORE;USA;35.769282;-101.658773;EL PASO NAT GAS CO;EL PASO NAT GAS CO;2022/01/08 17:00:16+00
NOT AVAILABLE;HEMPHILL;USA;35.781232;-100.351984;KM INTERSTATE GAS CO;SOUTHERN STAR CENTRAL GAS PL CO;2022/01/08 17:00:16+00
DEWEY COUNTY;ROGER MILLS;USA;35.785468;-99.406481;KM INTERSTATE GAS CO;TRANSWESTERN PIPELINE CO;2022/01/08 17:00:16+00
NOT AVAILABLE;ROGER MILLS;USA;35.785468;-99.406481;TRANSWESTERN PIPELINE CO;KNEN;2022/01/08 17:00:16+00
EPNG/NGPL  MOORE;MOORE;USA;35.785565;-101.693712;NAT GAS P L CO OF AMERICA;NAT GAS P L CO OF AMERICA;2022/01/08 17:00:16+00
BIG BLUE;MOORE;USA;35.814541;-101.958437;COLORADO INTERSTATE GAS;ELPA;2022/01/08 17:00:16+00
BIG BLUE;MOORE;USA;35.814892;-101.957772;EL PASO NAT GAS CO;EL PASO NAT GAS CO;2022/01/08 17:00:16+00
DUMAS;MOORE;USA;35.815422;-102.000214;NORTHERN NATURAL GAS CO;NORTHERN NATURAL GAS CO;2022/01/08 17:00:16+00
NORTHERN NATURAL EX DUMAS PLT;MOORE;USA;35.815422;-102.000214;EL PASO NAT GAS CO;EL PASO NAT GAS CO;2022/01/08 17:00:16+00
EPNG;MOORE;USA;35.815422;-102.000214;NORTHERN NATURAL GAS CO;NORTHERN NATURAL GAS CO;2022/01/08 17:00:16+00
BIG CANYON;HARTLEY;USA;35.820032;-102.168192;COLORADO INTERSTATE GAS COMPANY LLC (KINDER MORGAN);NOT AVAILABLE;2022/01/08 17:00:16+00
NOT AVAILABLE;DEWEY;USA;35.830972;-99.107209;KM INTERSTATE GAS CO;PANHANDLE EASTERN P L CO;2022/01/08 17:00:16+00
DUMAS;MOORE;USA;35.846058;-101.960728;NORTHERN NATURAL GAS CO;NORTHERN NATURAL GAS CO;2022/01/08 17:00:16+00
DUMAS;MOORE;USA;35.846058;-101.960728;COLORADO INTERSTATE GAS;NNAT;2022/01/08 17:00:16+00
NICHOLS;HARTLEY;USA;35.887232;-102.267776;COLORADO INTERSTATE GAS COMPANY LLC (KINDER MORGAN);NOT AVAILABLE;2022/01/08 17:00:16+00
NOT AVAILABLE;HEMPHILL;USA;35.944436;-100.385488;SOUTHERN STAR CENTRAL GAS PL CO;TRANSWESTERN PIPELINE CO;2022/01/08 17:00:16+00
NOT AVAILABLE;HEMPHILL;USA;35.944436;-100.385488;SOUTHERN STAR CENTRAL GAS PL CO;TRANSWESTERN PIPELINE CO;2022/01/08 17:00:16+00
NOT AVAILABLE;HEMPHILL;USA;35.944436;-100.385488;SOUTHERN STAR CENTRAL GAS PL CO;TRANSWESTERN PIPELINE CO;2022/01/08 17:00:16+00
NOT AVAILABLE;HEMPHILL;USA;35.944436;-100.385488;SOUTHERN STAR CENTRAL GAS PL CO;TRANSWESTERN PIPELINE CO;2022/01/08 17:00:16+00
SOUTHERN STAR-CANADIAN RIVER;HEMPHILL;USA;35.944436;-100.385488;TRANSWESTERN PIPELINE CO;WNGP;2022/01/08 17:00:16+00
NOT AVAILABLE;HEMPHILL;USA;35.972268;-100.028647;SOUTHERN STAR CENTRAL GAS PL CO;EL PASO NAT GAS CO;2022/01/08 17:00:16+00
DYERSBURG - OUTLET;DYER;USA;36.004667;-89.314073;TRUNKLINE GAS CO;TXGS;2022/01/08 17:00:16+00
TUMBLEWEED;SHERMAN;USA;36.083834;-101.987343;COLORADO INTERSTATE GAS;TRWT;2022/01/08 17:00:16+00
NATURAL GAS PIPELINE;HANSFORD;USA;36.085491;-101.364801;TRANSWESTERN PIPELINE CO;NGPL;2022/01/08 17:00:16+00
TRANSWEST PAN TRANS;HANSFORD;USA;36.089564;-101.448244;PANHANDLE EASTERN P L CO;TRANSWESTERN PIPELINE CO;2022/01/08 17:00:16+00
PANHANDLE EASTERN P L CO;HANSFORD;USA;36.089564;-101.448244;TRANSWESTERN PIPELINE CO;PANH;2022/01/08 17:00:16+00
PANHANDLE EASTERN PIPELLINE;HANSFORD;USA;36.089564;-101.448244;TRANSWESTERN PIPELINE CO;PANH;2022/01/08 17:00:16+00
NOT AVAILABLE;HANSFORD;USA;36.089564;-101.448244;TRANSWESTERN PIPELINE CO;PANH;2022/01/08 17:00:16+00
NOT AVAILABLE;WOODWARD;USA;36.17984;-99.382592;SOUTHERN STAR CENTRAL GAS PL CO;TRANSWESTERN PIPELINE CO;2022/01/08 17:00:16+00
COLORADO INTERSTATE GAS;SHERMAN;USA;36.18629;-102.01995;TRANSWESTERN PIPELINE CO;CIGG;2022/01/08 17:00:16+00
CIG TUMBLEWEED REC CIG TW;SHERMAN;USA;36.18629;-102.01995;TRANSWESTERN PIPELINE CO;CIGG;2022/01/08 17:00:16+00
BEAVER;OCHILTREE;USA;36.198415;-100.681633;NORTHERN NATURAL GAS CO;NORTHERN NATURAL GAS CO;2022/01/08 17:00:16+00
GRAY ITE;OCHILTREE;USA;36.201072;-100.680038;NORTHERN NATURAL GAS CO;NORTHERN NATURAL GAS CO;2022/01/08 17:00:16+00
NOT AVAILABLE;WOODWARD;USA;36.264917;-99.062683;SOUTHERN STAR CENTRAL GAS PL CO;TRANSWESTERN PIPELINE CO;2022/01/08 17:00:16+00
RANDOLPH;RANDOLPH;USA;36.322478;-90.8068;MISSISSIPPI RIVER TRANS CORP;NAT GAS P L CO OF AMERICA;2022/01/08 17:00:16+00
NOT AVAILABLE;TROUSDALE;USA;36.397736;-86.265354;TEXAS EASTERN TRANS CORP;TEXAS EASTERN TRANS CORP;2022/01/08 17:00:16+00
NOT AVAILABLE;TROUSDALE;USA;36.397736;-86.265354;TEXAS EASTERN TRANS CORP;TEXAS EASTERN TRANS CORP;2022/01/08 17:00:16+00
TENNESSEE-EASTMAN;GREENE;USA;36.4128;-82.635008;EAST TENNESSEE NAT GAS CO;TENN;2022/01/08 17:00:16+00
RIDGETOP;ROBERTSON;USA;36.466893;-86.760028;EAST TENNESSEE NAT GAS CO;TENN;2022/01/08 17:00:16+00
450820525;ROBERTSON;USA;36.466893;-86.760028;TENNESSEE GAS PIPELINE CO;TENNESSEE GAS PIPELINE CO;2022/01/08 17:00:16+00
NOT AVAILABLE;MCDONALD;USA;36.530591;-94.382103;SOUTHERN STAR CENTRAL GAS PL CO;RELIANT ENERGY GAS TRANS CO;2022/01/08 17:00:16+00
NOT AVAILABLE;MCDONALD;USA;36.530591;-94.382103;CENTERPOINT ENERGY GAS TRANS CO;WNGP;2022/01/08 17:00:16+00
NOT AVAILABLE;MCDONALD;USA;36.530591;-94.382103;SOUTHERN STAR CENTRAL GAS PL CO;CENTERPOINT ENERGY GAS TRANS CO;2022/01/08 17:00:16+00
NOT AVAILABLE;MCDONALD;USA;36.530591;-94.382103;SOUTHERN STAR CENTRAL GAS PL CO;CENTERPOINT ENERGY GAS TRANS CO;2022/01/08 17:00:16+00
NOT AVAILABLE;ALFALFA;USA;36.570145;-98.172487;SOUTHERN STAR CENTRAL GAS PL CO;NAT GAS P L CO OF AMERICA;2022/01/08 17:00:16+00
HERSHER;ROBERTSON;USA;36.627289;-86.567784;MIDWESTERN GAS TRANS CO;NAT GAS P L CO OF AMERICA;2022/01/08 17:00:16+00
PORTLAND;ROBERTSON;USA;36.627289;-86.567784;MIDWESTERN GAS TRANS CO;TENNESSEE GAS PIPELINE CO;2022/01/08 17:00:16+00
NOT AVAILABLE;ROBERTSON;USA;36.627289;-86.567784;TENNESSEE GAS PIPELINE CO;TENNESSEE GAS PIPELINE CO;2022/01/08 17:00:16+00
NOT AVAILABLE;ROBERTSON;USA;36.627289;-86.567784;TENNESSEE GAS PIPELINE CO;TENNESSEE GAS PIPELINE CO;2022/01/08 17:00:16+00
NOT AVAILABLE;GREENSVILLE;USA;36.638809;-77.583503;COLUMBIA GAS TRANS CORP;COLUMBIA GAS TRANS CORP;2022/01/08 17:00:16+00
EMPORIA;GREENSVILLE;USA;36.638809;-77.583503;TRANSCONTINENTAL GAS P L CO;TRANSCONTINENTAL GAS P L CO;2022/01/08 17:00:16+00
450820700;SUMNER;USA;36.640608;-86.508736;TENNESSEE GAS PIPELINE CO;TENNESSEE GAS PIPELINE CO;2022/01/08 17:00:16+00
WILLIAMS MILAGRO;SAN JUAN;USA;36.686387;-107.957337;EL PASO NAT GAS CO;EL PASO NAT GAS CO;2022/01/08 17:00:16+00
BLANCO EXCHANGE TO EPNG;SAN JUAN;USA;36.686387;-107.957337;NORTHWEST PIPELINE CORP;ELPA;2022/01/08 17:00:16+00
BLANCO HUB FROM NWP;SAN JUAN;USA;36.686387;-107.957337;NORTHWEST PIPELINE CORP;TRWT;2022/01/08 17:00:16+00
IGNACIO EXCHANGE TO EPNG;SAN JUAN;USA;36.686387;-107.957337;NORTHWEST PIPELINE CORP;ELPA;2022/01/08 17:00:16+00
NORTHWEST PIPELINE;SAN JUAN;USA;36.686387;-107.957337;TRANSWESTERN PIPELINE CO;NWST;2022/01/08 17:00:16+00
NORTHWEST PIPELINE;SAN JUAN;USA;36.686387;-107.957337;TRANSWESTERN PIPELINE CO;NWST;2022/01/08 17:00:16+00
NOT AVAILABLE;SAN JUAN;USA;36.686387;-107.957337;TRANSWESTERN PIPELINE CO;NWST;2022/01/08 17:00:16+00
PERMIAM;BEAVER;USA;36.754857;-100.183693;TRANSWESTERN PIPELINE CO;NNAT;2022/01/08 17:00:16+00
471100100;ALLEN;USA;36.824285;-86.22504;TENNESSEE GAS PIPELINE CO;TENNESSEE GAS PIPELINE CO;2022/01/08 17:00:16+00
NOT AVAILABLE;GRANT;USA;36.83501;-97.718402;SOUTHERN STAR CENTRAL GAS PL CO;PANHANDLE EASTERN P L CO;2022/01/08 17:00:16+00
NOT AVAILABLE;WOODS;USA;36.849744;-98.62247;SOUTHERN STAR CENTRAL GAS PL CO;RELIANT ENERGY GAS TRANS CO;2022/01/08 17:00:16+00
BEAVER-NGPL;BEAVER;USA;36.861419;-100.827397;ANR PIPELINE CO;ANR PIPELINE CO;2022/01/08 17:00:16+00
NOT AVAILABLE;BEAVER;USA;36.86522;-100.502022;SOUTHERN STAR CENTRAL GAS PL CO;PANHANDLE EASTERN P L CO;2022/01/08 17:00:16+00
NOT AVAILABLE;BEAVER;USA;36.86522;-100.502022;SOUTHERN STAR CENTRAL GAS PL CO;PANHANDLE EASTERN P L CO;2022/01/08 17:00:16+00
NOT AVAILABLE;BEAVER;USA;36.86522;-100.502022;SOUTHERN STAR CENTRAL GAS PL CO;PANHANDLE EASTERN P L CO;2022/01/08 17:00:16+00
NOT AVAILABLE;BEAVER;USA;36.866304;-100.598528;SOUTHERN STAR CENTRAL GAS PL CO;NAT GAS P L CO OF AMERICA;2022/01/08 17:00:16+00
NOT AVAILABLE;BEAVER;USA;36.866304;-100.099072;SOUTHERN STAR CENTRAL GAS PL CO;TRANSWESTERN PIPELINE CO;2022/01/08 17:00:16+00
NOT AVAILABLE;HARPER;USA;36.866304;-99.770624;SOUTHERN STAR CENTRAL GAS PL CO;TRANSWESTERN PIPELINE CO;2022/01/08 17:00:16+00
FLORIS;BEAVER;USA;36.866304;-100.437504;COLORADO INTERSTATE GAS;WNGP;2022/01/08 17:00:16+00
FORGAN;BEAVER;USA;36.882002;-100.586541;COLORADO INTERSTATE GAS;NGPL;2022/01/08 17:00:16+00
BEAVER C.I.G.;BEAVER;USA;36.882365;-100.723616;ANR PIPELINE CO;ANR PIPELINE CO;2022/01/08 17:00:16+00
BEAVER-CIG;BEAVER;USA;36.882365;-100.723616;ANR PIPELINE CO;ANR PIPELINE CO;2022/01/08 17:00:16+00
BEAVER;BEAVER;USA;36.882365;-100.723616;COLORADO INTERSTATE GAS;ANRP;2022/01/08 17:00:16+00
BEAVER DELIVERY;BEAVER;USA;36.882365;-100.723616;COLORADO INTERSTATE GAS;ANRP;2022/01/08 17:00:16+00
CIG PAN BAKER EXCHANGE - WIT;TEXAS;USA;36.890215;-100.95823;PANHANDLE EASTERN P L CO;COLORADO INTERSTATE GAS;2022/01/08 17:00:16+00
BAKER;TEXAS;USA;36.890215;-100.95823;COLORADO INTERSTATE GAS;PANH;2022/01/08 17:00:16+00
BAKER;TEXAS;USA;36.890215;-100.95823;COLORADO INTERSTATE GAS;PANH;2022/01/08 17:00:16+00
PURGATOIRE;COSTILLA;USA;37.073129;-105.204693;COLORADO INTERSTATE GAS COMPANY LLC (KINDER MORGAN);NOT AVAILABLE;2022/01/08 17:00:16+00
471100150;BARREN;USA;37.0829;-85.90382;TENNESSEE GAS PIPELINE CO;TENNESSEE GAS PIPELINE CO;2022/01/08 17:00:16+00
PICKETWIRE;LAS ANIMAS;USA;37.093453;-105.142298;COLORADO INTERSTATE GAS COMPANY LLC (KINDER MORGAN);NOT AVAILABLE;2022/01/08 17:00:16+00
FREDERICK;LAS ANIMAS;USA;37.103465;-105.112335;COLORADO INTERSTATE GAS COMPANY LLC (KINDER MORGAN);NOT AVAILABLE;2022/01/08 17:00:16+00
LORENCITO;LAS ANIMAS;USA;37.103686;-105.11234;COLORADO INTERSTATE GAS COMPANY LLC (KINDER MORGAN);NOT AVAILABLE;2022/01/08 17:00:16+00
NORTHWEST PIPELINE CORP;LA PLATA;USA;37.119229;-107.781165;EL PASO NAT GAS CO;EL PASO NAT GAS CO;2022/01/08 17:00:16+00
LA PLATA;LA PLATA;USA;37.119229;-107.781165;NORTHWEST PIPELINE CORP;TRWT;2022/01/08 17:00:16+00
NWPL LA PLATA I/C;LA PLATA;USA;37.146549;-107.783112;TRANSWESTERN PIPELINE CO;NWST;2022/01/08 17:00:16+00
NOT AVAILABLE;ADAIR;USA;37.152285;-85.29166;TEXAS EASTERN TRANS CORP;TEXAS EASTERN TRANS CORP;2022/01/08 17:00:16+00
ADAIR;ADAIR;USA;37.152285;-85.29166;COLUMBIA GULF TRANS CO;COLUMBIA GULF TRANS CO;2022/01/08 17:00:16+00
COLUMBIA GULF INTERCONNECT;ADAIR;USA;37.152285;-85.29166;TEXAS EASTERN TRANS CORP;TEXAS EASTERN TRANS CORP;2022/01/08 17:00:16+00
NOT AVAILABLE;ADAIR;USA;37.152285;-85.29166;TEXAS EASTERN TRANS CORP;TEXAS EASTERN TRANS CORP;2022/01/08 17:00:16+00
NOT AVAILABLE;HARPER;USA;37.20577;-98.013371;SOUTHERN STAR CENTRAL GAS PL CO;PANHANDLE EASTERN P L CO;2022/01/08 17:00:16+00
LITTLE BEAR;LAS ANIMAS;USA;37.267448;-104.45123;COLORADO INTERSTATE GAS COMPANY LLC (KINDER MORGAN);NOT AVAILABLE;2022/01/08 17:00:16+00
KN GRANT #1 - RECEIPT;GRANT;USA;37.435392;-101.186304;PANHANDLE EASTERN P L CO;KM INTERSTATE GAS CO;2022/01/08 17:00:16+00
KINDER MORGAN GRANT #1 - RECEIPT;GRANT;USA;37.435392;-101.186304;PANHANDLE EASTERN P L CO;KM INTERSTATE GAS CO;2022/01/08 17:00:16+00
NOT AVAILABLE;GRANT;USA;37.438167;-101.186354;KM INTERSTATE GAS CO;PANHANDLE EASTERN P L CO;2022/01/08 17:00:16+00
NOT AVAILABLE;FORD;USA;37.501851;-99.891735;PANHANDLE EASTERN P L CO;NAT GAS P L CO OF AMERICA;2022/01/08 17:00:16+00
NOT AVAILABLE;FORD;USA;37.501851;-99.891735;PANHANDLE EASTERN P L CO;NAT GAS P L CO OF AMERICA;2022/01/08 17:00:16+00
SLAUGHTERS;WEBSTER;USA;37.546352;-87.471582;ANR PIPELINE CO;ANR PIPELINE CO;2022/01/08 17:00:16+00
GREENSBURG INTERCONNECT;KIOWA;USA;37.549744;-99.39736;NORTHERN NATURAL GAS CO;NORTHERN NATURAL GAS CO;2022/01/08 17:00:16+00
GREENSBURG;KIOWA;USA;37.549744;-99.39736;ANR PIPELINE CO;ANR PIPELINE CO;2022/01/08 17:00:16+00
NOT AVAILABLE;GRANT;USA;37.553034;-101.186302;KM INTERSTATE GAS CO;SOUTHERN STAR CENTRAL GAS PL CO;2022/01/08 17:00:16+00
NOT AVAILABLE;GRANT;USA;37.553034;-101.186302;KM INTERSTATE GAS CO;WILLIAMS GAS PIPELINES CENTRAL INC;2022/01/08 17:00:16+00
NOT AVAILABLE;WYOMING;USA;37.555877;-81.521697;COLUMBIA GAS TRANS CORP;COLUMBIA GAS TRANS CORP;2022/01/08 17:00:16+00
NOT AVAILABLE;HASKELL;USA;37.556457;-100.778948;SOUTHERN STAR CENTRAL GAS PL CO;KM INTERSTATE GAS CO;2022/01/08 17:00:16+00
GREENSBURG ITE;KIOWA;USA;37.564858;-99.420803;NORTHERN NATURAL GAS CO;NORTHERN NATURAL GAS CO;2022/01/08 17:00:16+00
PEPL;KIOWA;USA;37.564858;-99.420803;NORTHERN NATURAL GAS CO;NORTHERN NATURAL GAS CO;2022/01/08 17:00:16+00
NOT AVAILABLE;GRAY;USA;37.566776;-100.507445;SOUTHERN STAR CENTRAL GAS PL CO;KM INTERSTATE GAS CO;2022/01/08 17:00:16+00
NOT AVAILABLE;SEDGWICK;USA;37.573167;-97.383127;SOUTHERN STAR CENTRAL GAS PL CO;CENTERPOINT ENERGY GAS TRANS CO;2022/01/08 17:00:16+00
NOT AVAILABLE;FORD;USA;37.62381;-99.887458;SOUTHERN STAR CENTRAL GAS PL CO;EL PASO NAT GAS CO;2022/01/08 17:00:16+00
NOT AVAILABLE;KIOWA;USA;37.626193;-99.418465;PANHANDLE EASTERN P L CO;NORTHERN NATURAL GAS CO;2022/01/08 17:00:16+00
NOT AVAILABLE;GRANT;USA;37.634464;-101.186304;KM INTERSTATE GAS CO;PANHANDLE EASTERN P L CO;2022/01/08 17:00:16+00
NN-GREENS TO PEPL;KIOWA;USA;37.6452;-99.335551;PANHANDLE EASTERN P L CO;NORTHERN NATURAL GAS CO;2022/01/08 17:00:16+00
NOT AVAILABLE;WILLIAMSON;USA;37.675593;-88.88762;TRUNKLINE GAS CO;TETC;2022/01/08 17:00:16+00
LICK CREEK;WILLIAMSON;USA;37.676101;-88.8876;TRUNKLINE GAS CO;TETC;2022/01/08 17:00:16+00
TEXAS EASTERN LICK CREEK;WILLIAMSON;USA;37.676139;-88.887857;TRUNKLINE GAS CO;TETC;2022/01/08 17:00:16+00
NOT AVAILABLE;WILLIAMSON;USA;37.676139;-88.887857;TRUNKLINE GAS CO;TETC;2022/01/08 17:00:16+00
WHITESVILLE;DAVIESS;USA;37.678542;-86.908673;MIDWESTERN GAS TRANS CO;TEXAS GAS TRANSMISSION CO;2022/01/08 17:00:16+00
NOT AVAILABLE;MADISON;USA;37.727127;-84.168566;COLUMBIA GAS TRANS CORP;COLUMBIA GAS TRANS CORP;2022/01/08 17:00:16+00
NOT AVAILABLE;EDWARDS;USA;37.749376;-99.049024;SOUTHERN STAR CENTRAL GAS PL CO;KM INTERSTATE GAS CO;2022/01/08 17:00:16+00
NOT AVAILABLE;MADISON;USA;37.8077;-84.30098;COLUMBIA GAS TRANS CORP;COLUMBIA GAS TRANS CORP;2022/01/08 17:00:16+00
NOT AVAILABLE;MADISON;USA;37.8077;-84.30098;TENNESSEE GAS PIPELINE CO;TENNESSEE GAS PIPELINE CO;2022/01/08 17:00:16+00
NNG/CIG;KEARNY;USA;37.899815;-101.228232;NORTHERN NATURAL GAS CO;NORTHERN NATURAL GAS CO;2022/01/08 17:00:16+00
DEERFIELD;KEARNY;USA;37.917327;-101.242822;COLORADO INTERSTATE GAS;KNEN;2022/01/08 17:00:16+00
NOT AVAILABLE;KEARNY;USA;37.917327;-101.242822;KM INTERSTATE GAS CO;COLORADO INTERSTATE GAS;2022/01/08 17:00:16+00
NOT AVAILABLE;MENIFEE;USA;37.940442;-83.756575;COLUMBIA GAS TRANS CORP;COLUMBIA GAS TRANS CORP;2022/01/08 17:00:16+00
NOT AVAILABLE;KEARNY;USA;37.977155;-101.173749;KM INTERSTATE GAS CO;NORTHERN NATURAL GAS CO;2022/01/08 17:00:16+00
CIG EXCHANGE-RAW GAS- WIT;KEARNY;USA;37.982112;-101.2968;PANHANDLE EASTERN P L CO;COLORADO INTERSTATE GAS;2022/01/08 17:00:16+00
CIG EXCHANGE-PROCESSED GAS-WIT;KEARNY;USA;37.982112;-101.2968;PANHANDLE EASTERN P L CO;COLORADO INTERSTATE GAS;2022/01/08 17:00:16+00
LAKIN/PEPL;KEARNY;USA;37.982112;-101.2968;COLORADO INTERSTATE GAS;PANH;2022/01/08 17:00:16+00
NOT AVAILABLE;MONTGOMERY;USA;37.999744;-83.800384;COLUMBIA GAS TRANS CORP;COLUMBIA GAS TRANS CORP;2022/01/08 17:00:16+00
471100875;MONTGOMERY;USA;37.999744;-83.800384;TENNESSEE GAS PIPELINE CO;TENNESSEE GAS PIPELINE CO;2022/01/08 17:00:16+00
NOT AVAILABLE;RENO;USA;38.010397;-97.841137;SOUTHERN STAR CENTRAL GAS PL CO;CENTERPOINT ENERGY GAS TRANS CO;2022/01/08 17:00:16+00
NOT AVAILABLE;RENO;USA;38.010397;-97.841137;SOUTHERN STAR CENTRAL GAS PL CO;CENTERPOINT ENERGY GAS TRANS CO;2022/01/08 17:00:16+00
NOT AVAILABLE;RENO;USA;38.025896;-97.791163;SOUTHERN STAR CENTRAL GAS PL CO;KM INTERSTATE GAS CO;2022/01/08 17:00:16+00
CHRISNEY DELIVERY;SPENCER;USA;38.05719;-87.011621;ANR PIPELINE CO;ANR PIPELINE CO;2022/01/08 17:00:16+00
CHRISNEY EXCHANGE (BIT-7014);SPENCER;USA;38.05719;-87.011621;MIDWESTERN GAS TRANS CO;ANR PIPELINE CO;2022/01/08 17:00:16+00
MEADOWLARK GARDEN CITY;FINNEY;USA;38.090816;-101.09952;NORTHERN NATURAL GAS CO;NORTHERN NATURAL GAS CO;2022/01/08 17:00:16+00
MEADOWLARK;FINNEY;USA;38.090816;-101.09952;COLORADO INTERSTATE GAS;NNAT;2022/01/08 17:00:16+00
NOT AVAILABLE;ROWAN;USA;38.151031;-83.483707;TENNESSEE GAS PIPELINE CO;TENNESSEE GAS PIPELINE CO;2022/01/08 17:00:16+00
ROWAN;ROWAN;USA;38.151031;-83.483707;COLUMBIA GULF TRANS CO;COLUMBIA GULF TRANS CO;2022/01/08 17:00:16+00
NOT AVAILABLE;ROWAN;USA;38.151031;-83.483707;TENNESSEE GAS PIPELINE CO;TENNESSEE GAS PIPELINE CO;2022/01/08 17:00:16+00
ALDEN (WILLIAMS NATURAL);RICE;USA;38.291762;-98.146198;ANR PIPELINE CO;ANR PIPELINE CO;2022/01/08 17:00:16+00
NOT AVAILABLE;WAYNE;USA;38.310184;-82.461283;COLUMBIA GAS TRANS CORP;COLUMBIA GAS TRANS CORP;2022/01/08 17:00:16+00
471101325;WAYNE;USA;38.310184;-82.461283;TENNESSEE GAS PIPELINE CO;TENNESSEE GAS PIPELINE CO;2022/01/08 17:00:16+00
NOT AVAILABLE;BARTON;USA;38.337152;-99.02912;KM INTERSTATE GAS CO;NAT GAS P L CO OF AMERICA;2022/01/08 17:00:16+00
NOT AVAILABLE;GIBSON;USA;38.345888;-87.414272;TEXAS EASTERN TRANS CORP;TEXAS EASTERN TRANS CORP;2022/01/08 17:00:16+00
TEXAS GAS INTERCONNECT;GIBSON;USA;38.345888;-87.414272;TEXAS EASTERN TRANS CORP;TEXAS EASTERN TRANS CORP;2022/01/08 17:00:16+00
NOT AVAILABLE;KANAWHA;USA;38.352896;-81.558144;COLUMBIA GAS TRANS CORP;COLUMBIA GAS TRANS CORP;2022/01/08 17:00:16+00
NOT AVAILABLE;KANAWHA;USA;38.352896;-81.558144;TENNESSEE GAS PIPELINE CO;TENNESSEE GAS PIPELINE CO;2022/01/08 17:00:16+00
NOT AVAILABLE;RICE;USA;38.364928;-98.214144;SOUTHERN STAR CENTRAL GAS PL CO;CENTERPOINT ENERGY GAS TRANS CO;2022/01/08 17:00:16+00
NOT AVAILABLE;BOYD;USA;38.369363;-82.618443;COLUMBIA GAS TRANS CORP;COLUMBIA GAS TRANS CORP;2022/01/08 17:00:16+00
NOT AVAILABLE;KANAWHA;USA;38.380654;-81.402254;COLUMBIA GAS TRANS CORP;COLUMBIA GAS TRANS CORP;2022/01/08 17:00:16+00
471101825;KANAWHA;USA;38.380654;-81.402254;TENNESSEE GAS PIPELINE CO;TENNESSEE GAS PIPELINE CO;2022/01/08 17:00:16+00
NOT AVAILABLE;BOYD;USA;38.38189;-82.712192;COLUMBIA GAS TRANS CORP;COLUMBIA GAS TRANS CORP;2022/01/08 17:00:16+00
471101160;BOYD;USA;38.38189;-82.712192;TENNESSEE GAS PIPELINE CO;TENNESSEE GAS PIPELINE CO;2022/01/08 17:00:16+00
NOT AVAILABLE;BARTON;USA;38.384658;-98.640216;SOUTHERN STAR CENTRAL GAS PL CO;NORTHERN NATURAL GAS CO;2022/01/08 17:00:16+00
NOT AVAILABLE;BARTON;USA;38.384658;-98.640216;SOUTHERN STAR CENTRAL GAS PL CO;NORTHERN NATURAL GAS CO;2022/01/08 17:00:16+00
NOT AVAILABLE;BARTON;USA;38.384658;-98.640216;SOUTHERN STAR CENTRAL GAS PL CO;NORTHERN NATURAL GAS CO;2022/01/08 17:00:16+00
NOT AVAILABLE;BARTON;USA;38.384658;-98.640216;SOUTHERN STAR CENTRAL GAS PL CO;NORTHERN NATURAL GAS CO;2022/01/08 17:00:16+00
NOT AVAILABLE;KANAWHA;USA;38.393016;-81.332834;TENNESSEE GAS PIPELINE CO;TENNESSEE GAS PIPELINE CO;2022/01/08 17:00:16+00
471101875;KANAWHA;USA;38.393016;-81.332834;TENNESSEE GAS PIPELINE CO;TENNESSEE GAS PIPELINE CO;2022/01/08 17:00:16+00
WILLIAMS NATURAL GAS PRINCETON - WI;FRANKLIN;USA;38.428225;-95.277349;PANHANDLE EASTERN P L CO;WILLIAMS GAS PIPELINES CENTRAL INC;2022/01/08 17:00:16+00
NOT AVAILABLE;FRANKLIN;USA;38.428225;-95.277349;PANHANDLE EASTERN P L CO;SOUTHERN STAR CENTRAL GAS PL CO;2022/01/08 17:00:16+00
NOT AVAILABLE;FRANKLIN;USA;38.428225;-95.277349;SOUTHERN STAR CENTRAL GAS PL CO;PANHANDLE EASTERN P L CO;2022/01/08 17:00:16+00
NOT AVAILABLE;DUBOIS;USA;38.499017;-86.695901;TEXAS EASTERN TRANS CORP;TEXAS EASTERN TRANS CORP;2022/01/08 17:00:16+00
FRENCH LICK;DUBOIS;USA;38.49903;-86.695891;ANR PIPELINE CO;ANR PIPELINE CO;2022/01/08 17:00:16+00
NOT AVAILABLE;BARTON;USA;38.504082;-98.864194;SOUTHERN STAR CENTRAL GAS PL CO;EL PASO NAT GAS CO;2022/01/08 17:00:16+00
NOT AVAILABLE;BARTON;USA;38.504082;-98.864194;SOUTHERN STAR CENTRAL GAS PL CO;EL PASO NAT GAS CO;2022/01/08 17:00:16+00
SHATTUC;CLINTON;USA;38.595854;-89.202237;MISSISSIPPI RIVER TRANS CORP;NAT GAS P L CO OF AMERICA;2022/01/08 17:00:16+00
ENABLEMR/NGPL  CLINTON;CLINTON;USA;38.596596;-89.215312;NAT GAS P L CO OF AMERICA;NAT GAS P L CO OF AMERICA;2022/01/08 17:00:16+00
NOT AVAILABLE;GREENUP;USA;38.605081;-82.910634;COLUMBIA GAS TRANS CORP;COLUMBIA GAS TRANS CORP;2022/01/08 17:00:16+00
501100025;GREENUP;USA;38.605081;-82.910634;TENNESSEE GAS PIPELINE CO;TENNESSEE GAS PIPELINE CO;2022/01/08 17:00:16+00
KN MIAMI TO PEPL REC;MIAMI;USA;38.606341;-94.68055;PANHANDLE EASTERN P L CO;KM INTERSTATE GAS CO;2022/01/08 17:00:16+00
SINGING GRASS;CHEYENNE;USA;38.6304;-102.748992;COLORADO INTERSTATE GAS COMPANY LLC (KINDER MORGAN);NOT AVAILABLE;2022/01/08 17:00:16+00
NOT AVAILABLE;ORANGE;USA;38.633317;-86.420378;TEXAS EASTERN TRANS CORP;TEXAS EASTERN TRANS CORP;2022/01/08 17:00:16+00
NOT AVAILABLE;CLAY;USA;38.635448;-88.576194;MISSISSIPPI RIVER TRANS CORP;TRUNKLINE GAS CO;2022/01/08 17:00:16+00
FLORA;CLAY;USA;38.635448;-88.576194;TRUNKLINE GAS CO;MISS;2022/01/08 17:00:16+00
NOT AVAILABLE;ELLSWORTH;USA;38.642642;-98.216645;SOUTHERN STAR CENTRAL GAS PL CO;NORTHERN NATURAL GAS CO;2022/01/08 17:00:16+00
NOT AVAILABLE;SCIOTO;USA;38.653766;-82.855639;TENNESSEE GAS PIPELINE CO;TENNESSEE GAS PIPELINE CO;2022/01/08 17:00:16+00
NOT AVAILABLE;SCIOTO;USA;38.653766;-82.855639;TENNESSEE GAS PIPELINE CO;TENNESSEE GAS PIPELINE CO;2022/01/08 17:00:16+00
NOT AVAILABLE;SCIOTO;USA;38.653766;-82.855639;TEXAS EASTERN TRANS CORP;TEXAS EASTERN TRANS CORP;2022/01/08 17:00:16+00
BICKNELL;KNOX;USA;38.725219;-87.30654;MIDWESTERN GAS TRANS CO;TEXAS GAS TRANSMISSION CO;2022/01/08 17:00:16+00
NOKESVILLE;PRINCE WILLIAM;USA;38.763703;-77.548898;DOMINION TRANSMISSION CO;DOMINION TRANSMISSION CO;2022/01/08 17:00:16+00
NOT AVAILABLE;JOHNSON;USA;38.784167;-93.555027;SOUTHERN STAR CENTRAL GAS PL CO;PANHANDLE EASTERN P L CO;2022/01/08 17:00:16+00
NOT AVAILABLE;JOHNSON;USA;38.784167;-93.555027;SOUTHERN STAR CENTRAL GAS PL CO;PANHANDLE EASTERN P L CO;2022/01/08 17:00:16+00
PLEASANT VALLEY OUT;FAIRFAX;USA;38.833043;-77.471939;COVE POINT LNG LP;TRAN;2022/01/08 17:00:16+00
NOT AVAILABLE;FAIRFAX;USA;38.833043;-77.471939;TRANSCONTINENTAL GAS P L CO;TRANSCONTINENTAL GAS P L CO;2022/01/08 17:00:16+00
NOT AVAILABLE;CAMPBELL;USA;38.856989;-84.325703;UNION LIGHT HEAT AND POWER;CGTC;2022/01/08 17:00:16+00
NOT AVAILABLE;JACKSON;USA;38.96352;-86.16368;TEXAS EASTERN TRANS CORP;TEXAS EASTERN TRANS CORP;2022/01/08 17:00:16+00
NOT AVAILABLE;FAIRFAX;USA;38.974538;-77.324712;COLUMBIA GAS TRANS CORP;COLUMBIA GAS TRANS CORP;2022/01/08 17:00:16+00
WASHINGTON GAS LIGHT CO;FAIRFAX;USA;38.974538;-77.324712;TRANSCONTINENTAL GAS P L CO;TRANSCONTINENTAL GAS P L CO;2022/01/08 17:00:16+00
TESCOTT PONY EXPRESS;LINCOLN;USA;38.985779;-97.94681;NORTHERN NATURAL GAS CO;NORTHERN NATURAL GAS CO;2022/01/08 17:00:16+00
CNG LOUDOUN OUT;LOUDOUN;USA;38.99456;-77.583488;COVE POINT LNG LP;DOMI;2022/01/08 17:00:16+00
LOUDOUN;LOUDOUN;USA;38.99456;-77.583488;COVE POINT LNG LP;NOT AVAILABLE;2022/01/08 17:00:16+00
LOUDOUN;LOUDOUN;USA;38.99456;-77.583488;COVE POINT LNG LP;CGTC;2022/01/08 17:00:16+00
TCO LOUDOUN OUT;LOUDOUN;USA;38.99456;-77.583488;COVE POINT LNG LP;CGTC;2022/01/08 17:00:16+00
LOUDOUN;LOUDOUN;USA;38.99456;-77.583488;DOMINION TRANSMISSION CO;DOMINION TRANSMISSION CO;2022/01/08 17:00:16+00
NOT AVAILABLE;MONTGOMERY;USA;39.130503;-77.118705;COLUMBIA GAS TRANS CORP;COLUMBIA GAS TRANS CORP;2022/01/08 17:00:16+00
NOT AVAILABLE;BALTIMORE;USA;39.408475;-76.782909;COLUMBIA GAS TRANS CORP;COLUMBIA GAS TRANS CORP;2022/01/08 17:00:16+00
NOT AVAILABLE;THOMAS;USA;39.489568;-100.932864;KM INTERSTATE GAS CO;SOUTHERN STAR CENTRAL GAS PL CO;2022/01/08 17:00:16+00
NOT AVAILABLE;THOMAS;USA;39.489568;-100.932864;KM INTERSTATE GAS CO;WILLIAMS GAS PIPELINES CENTRAL INC;2022/01/08 17:00:16+00
NOT AVAILABLE;BALTIMORE;USA;39.495365;-76.671229;COLUMBIA GAS TRANS CORP;COLUMBIA GAS TRANS CORP;2022/01/08 17:00:16+00
NOT AVAILABLE;CLINTON;USA;39.501936;-83.882248;COLUMBIA GAS TRANS CORP;COLUMBIA GAS TRANS CORP;2022/01/08 17:00:16+00
FALLEN TIMBER;WETZEL;USA;39.522725;-80.56683;EQUITRANS LP;NOT AVAILABLE;2022/01/08 17:00:16+00
NOT AVAILABLE;WARREN;USA;39.532032;-84.279808;TEXAS EASTERN TRANS CORP;TEXAS EASTERN TRANS CORP;2022/01/08 17:00:16+00
NOT AVAILABLE;WARREN;USA;39.532032;-84.279808;COLUMBIA GAS TRANS CORP;COLUMBIA GAS TRANS CORP;2022/01/08 17:00:16+00
NOT AVAILABLE;WARREN;USA;39.532032;-84.279808;COLUMBIA GAS TRANS CORP;COLUMBIA GAS TRANS CORP;2022/01/08 17:00:16+00
NOT AVAILABLE;WARREN;USA;39.532032;-84.279808;COLUMBIA GAS TRANS CORP;COLUMBIA GAS TRANS CORP;2022/01/08 17:00:16+00
NOT AVAILABLE;WARREN;USA;39.532032;-84.279808;TEXAS EASTERN TRANS CORP;TEXAS EASTERN TRANS CORP;2022/01/08 17:00:16+00
NOT AVAILABLE;FAYETTE;USA;39.56569;-83.506194;TEXAS EASTERN TRANS CORP;TEXAS EASTERN TRANS CORP;2022/01/08 17:00:16+00
NOT AVAILABLE;FAYETTE;USA;39.586304;-83.387832;TEXAS EASTERN TRANS CORP;TEXAS EASTERN TRANS CORP;2022/01/08 17:00:16+00
NOT AVAILABLE;PICKAWAY;USA;39.609301;-83.21595;TEXAS EASTERN TRANS CORP;TEXAS EASTERN TRANS CORP;2022/01/08 17:00:16+00
NOT AVAILABLE;FAIRFIELD;USA;39.683333;-82.630589;COLUMBIA GAS TRANS CORP;COLUMBIA GAS TRANS CORP;2022/01/08 17:00:16+00
NOT AVAILABLE;FAIRFIELD;USA;39.683333;-82.630589;TEXAS EASTERN TRANS CORP;TEXAS EASTERN TRANS CORP;2022/01/08 17:00:16+00
NOT AVAILABLE;FAIRFIELD;USA;39.689457;-82.596216;TEXAS EASTERN TRANS CORP;TEXAS EASTERN TRANS CORP;2022/01/08 17:00:16+00
FIRST CREEK (PSCO-NEW AIRPORT);ARAPAHOE;USA;39.724905;-104.695382;COLORADO INTERSTATE GAS COMPANY LLC (KINDER MORGAN);NOT AVAILABLE;2022/01/08 17:00:16+00
NGPL -HAMMOND RECEIVED;MOULTRIE;USA;39.78464;-88.622944;PANHANDLE EASTERN P L CO;NAT GAS P L CO OF AMERICA;2022/01/08 17:00:16+00
PEPL/NGPL  MOULTRIE;MOULTRIE;USA;39.787466;-88.606773;NAT GAS P L CO OF AMERICA;NAT GAS P L CO OF AMERICA;2022/01/08 17:00:16+00
EASTERN HOCKESSIN;NEW CASTLE;USA;39.796302;-75.710692;TRANSCONTINENTAL GAS P L CO;TRANSCONTINENTAL GAS P L CO;2022/01/08 17:00:16+00
HOCKESSIN;NEW CASTLE;USA;39.796501;-75.710731;TRANSCONTINENTAL GAS P L CO;TRANSCONTINENTAL GAS P L CO;2022/01/08 17:00:16+00
NOT AVAILABLE;MONROE;USA;39.798161;-80.987054;TEXAS EASTERN TRANS CORP;TEXAS EASTERN TRANS CORP;2022/01/08 17:00:16+00
TRUNKLINE TO PEPL - BOURBON;DOUGLAS;USA;39.811299;-88.4268;PANHANDLE EASTERN P L CO;TRUNKLINE GAS CO;2022/01/08 17:00:16+00
PEPL@BOURBON - TGC;DOUGLAS;USA;39.811299;-88.4268;TRUNKLINE GAS CO;PEPL;2022/01/08 17:00:16+00
SAND SPRING;RIO BLANCO;USA;39.826348;-108.747661;COLORADO INTERSTATE GAS;NWST;2022/01/08 17:00:16+00
SAND SPRING;RIO BLANCO;USA;39.826348;-108.747661;COLORADO INTERSTATE GAS;NWST;2022/01/08 17:00:16+00
LITTLE HORSE RECEIPT;RIO BLANCO;USA;39.826348;-108.744898;COLORADO INTERSTATE GAS COMPANY LLC (KINDER MORGAN);NOT AVAILABLE;2022/01/08 17:00:16+00
SAND SPRINGS;RIO BLANCO;USA;39.82636;-108.747654;NORTHWEST PIPELINE CORP;CIGG;2022/01/08 17:00:16+00
RHINEHART (TO TCO);GREENE;USA;39.831472;-80.168688;EQUITRANS LP;NOT AVAILABLE;2022/01/08 17:00:16+00
RHINEHART (FROM TCO);GREENE;USA;39.831472;-80.168688;EQUITRANS LP;NOT AVAILABLE;2022/01/08 17:00:16+00
NOT AVAILABLE;MARSHALL;USA;39.841738;-80.751367;TEXAS EASTERN TRANS CORP;TEXAS EASTERN TRANS CORP;2022/01/08 17:00:16+00
DRAGON TRAIL MM DEL;RIO BLANCO;USA;39.842397;-108.814512;QUESTAR P L CO;NORTHWEST PIPELINE CORP;2022/01/08 17:00:16+00
NOT AVAILABLE;MARSHALL;USA;39.858547;-80.639933;COLUMBIA GAS TRANS CORP;COLUMBIA GAS TRANS CORP;2022/01/08 17:00:16+00
NOT AVAILABLE;GREENE;USA;39.878095;-80.48758;COLUMBIA GAS TRANS CORP;COLUMBIA GAS TRANS CORP;2022/01/08 17:00:16+00
NOT AVAILABLE;GREENE;USA;39.878095;-80.48758;TEXAS EASTERN TRANS CORP;TEXAS EASTERN TRANS CORP;2022/01/08 17:00:16+00
PRATT EQT TO DTI;GREENE;USA;39.886266;-80.107694;EQUITRANS LP;NOT AVAILABLE;2022/01/08 17:00:16+00
PRATT DTI TO EQT;GREENE;USA;39.886266;-80.107694;EQUITRANS LP;NOT AVAILABLE;2022/01/08 17:00:16+00
NOT AVAILABLE;GREENE;USA;39.886319;-80.249671;TEXAS EASTERN TRANS CORP;TEXAS EASTERN TRANS CORP;2022/01/08 17:00:16+00
DUDLEY BLUFFS;RIO BLANCO;USA;39.890508;-108.298574;COLORADO INTERSTATE GAS COMPANY LLC (KINDER MORGAN);NOT AVAILABLE;2022/01/08 17:00:16+00
NOT AVAILABLE;GREENE;USA;39.89056;-80.17472;COLUMBIA GAS TRANS CORP;COLUMBIA GAS TRANS CORP;2022/01/08 17:00:16+00
NOT AVAILABLE;GREENE;USA;39.89056;-80.17472;TEXAS EASTERN TRANS CORP;TEXAS EASTERN TRANS CORP;2022/01/08 17:00:16+00
CRAYNE;GREENE;USA;39.901314;-80.098708;DOMINION TRANSMISSION CO;DOMINION TRANSMISSION CO;2022/01/08 17:00:16+00
MORRIS III;GREENE;USA;39.901314;-80.098708;EQUITRANS LP;NOT AVAILABLE;2022/01/08 17:00:16+00
MORRIS 2;GREENE;USA;39.901314;-80.098708;EQUITRANS LP;NOT AVAILABLE;2022/01/08 17:00:16+00
MORRIS (TO TETCO);GREENE;USA;39.901314;-80.098708;EQUITRANS LP;NOT AVAILABLE;2022/01/08 17:00:16+00
MORRIS (FROM TETCO);GREENE;USA;39.901314;-80.098708;EQUITRANS LP;NOT AVAILABLE;2022/01/08 17:00:16+00
WAYNESBURG REC (75275);GREENE;USA;39.901314;-80.098708;EQUITRANS LP;NOT AVAILABLE;2022/01/08 17:00:16+00
WAYNESBURG DEL (75275);GREENE;USA;39.901314;-80.098708;EQUITRANS LP;NOT AVAILABLE;2022/01/08 17:00:16+00
NOT AVAILABLE;GREENE;USA;39.901314;-80.098708;TEXAS EASTERN TRANS CORP;TEXAS EASTERN TRANS CORP;2022/01/08 17:00:16+00
NOT AVAILABLE;GREENE;USA;39.901314;-80.098708;TEXAS EASTERN TRANS CORP;TEXAS EASTERN TRANS CORP;2022/01/08 17:00:16+00
CORRAL GULCH RECEIPT;RIO BLANCO;USA;39.907015;-108.181976;COLORADO INTERSTATE GAS COMPANY LLC (KINDER MORGAN);NOT AVAILABLE;2022/01/08 17:00:16+00
FORT LUPTON DELIVERY;ADAMS;USA;39.916993;-104.75543;COLORADO INTERSTATE GAS COMPANY LLC (KINDER MORGAN);NOT AVAILABLE;2022/01/08 17:00:16+00
NOT AVAILABLE;NOBLE;USA;39.92047;-81.345801;TEXAS EASTERN TRANS CORP;TEXAS EASTERN TRANS CORP;2022/01/08 17:00:16+00
HIAWATHA (KS);BROWN;USA;39.93865;-95.533498;ANR PIPELINE CO;ANR PIPELINE CO;2022/01/08 17:00:16+00
NOT AVAILABLE;BROWN;USA;39.938681;-95.533491;SOUTHERN STAR CENTRAL GAS PL CO;ANR PIPELINE CO;2022/01/08 17:00:16+00
NATURAL BUTTE;UINTAH;USA;39.984367;-109.448054;QUESTAR P L CO;COLORADO INTERSTATE GAS;2022/01/08 17:00:16+00
NOT AVAILABLE;BELMONT;USA;39.990796;-80.886348;TEXAS EASTERN TRANS CORP;TEXAS EASTERN TRANS CORP;2022/01/08 17:00:16+00
501100600;GUERNSEY;USA;40.009472;-81.723648;TENNESSEE GAS PIPELINE CO;TENNESSEE GAS PIPELINE CO;2022/01/08 17:00:16+00
ROGGEN;WELD;USA;40.010434;-104.28561;COLORADO INTERSTATE GAS COMPANY LLC (KINDER MORGAN);NOT AVAILABLE;2022/01/08 17:00:16+00
METER 101;UINTAH;USA;40.017444;-109.507812;COLORADO INTERSTATE GAS;QUES;2022/01/08 17:00:16+00
N.B 101 CIG DEL;UINTAH;USA;40.017444;-109.507812;QUESTAR P L CO;COLORADO INTERSTATE GAS;2022/01/08 17:00:16+00
NOT AVAILABLE;CHESTER;USA;40.024282;-75.693317;COLUMBIA GAS TRANS CORP;COLUMBIA GAS TRANS CORP;2022/01/08 17:00:16+00
NOT AVAILABLE;CHESTER;USA;40.024282;-75.693317;TRANSCONTINENTAL GAS P L CO;TRANSCONTINENTAL GAS P L CO;2022/01/08 17:00:16+00
TRANSCONTINENTAL GAS INTERCONNECT;CHESTER;USA;40.024901;-75.557291;TEXAS EASTERN TRANS CORP;TEXAS EASTERN TRANS CORP;2022/01/08 17:00:16+00
WHITE RIVER METER STATION;RIO BLANCO;USA;40.104962;-108.154164;COLORADO INTERSTATE GAS COMPANY LLC (KINDER MORGAN);NOT AVAILABLE;2022/01/08 17:00:16+00
BRUSH STATION;MORGAN;USA;40.10979;-103.80222;COLORADO INTERSTATE GAS COMPANY LLC (KINDER MORGAN);NOT AVAILABLE;2022/01/08 17:00:16+00
NOT AVAILABLE;GUERNSEY;USA;40.110675;-81.619337;COLUMBIA GAS TRANS CORP;COLUMBIA GAS TRANS CORP;2022/01/08 17:00:16+00
NOT AVAILABLE;CHESTER;USA;40.126261;-75.715721;COLUMBIA GAS TRANS CORP;COLUMBIA GAS TRANS CORP;2022/01/08 17:00:16+00
NOT AVAILABLE;CHESTER;USA;40.126261;-75.715721;TEXAS EASTERN TRANS CORP;TEXAS EASTERN TRANS CORP;2022/01/08 17:00:16+00
NOT AVAILABLE;YUMA;USA;40.160757;-102.558411;SOUTHERN STAR CENTRAL GAS PL CO;KM INTERSTATE GAS CO;2022/01/08 17:00:16+00
NOT AVAILABLE;YUMA;USA;40.160757;-102.558411;KM INTERSTATE GAS CO;SOUTHERN STAR CENTRAL GAS PL CO;2022/01/08 17:00:16+00
NOT AVAILABLE;MONTGOMERY;USA;40.1692;-75.363;TEXAS EASTERN TRANS CORP;TEXAS EASTERN TRANS CORP;2022/01/08 17:00:16+00
RED WASH-NPC;UINTAH;USA;40.199351;-109.297822;QUESTAR P L CO;NORTHWEST PIPELINE CORP;2022/01/08 17:00:16+00
RED WASH;UINTAH;USA;40.199351;-109.297822;NORTHWEST PIPELINE CORP;QUES;2022/01/08 17:00:16+00
RED WASH - NPC;UINTAH;USA;40.199351;-109.297822;QUESTAR P L CO;NORTHWEST PIPELINE CORP;2022/01/08 17:00:16+00
REDWASH TO QUESTAR;UINTAH;USA;40.226816;-109.217792;NORTHWEST PIPELINE CORP;QUES;2022/01/08 17:00:16+00
DELIVERY TO NORTHERN NATURAL (6 22 102.9;GAGE;USA;40.23185;-96.739412;TRAILBLAZER PIPELINE CO;NNAT;2022/01/08 17:00:16+00
DELIVERY TO NGPL (6 22 109.12);GAGE;USA;40.262955;-96.807372;TRAILBLAZER PIPELINE CO;NGPL;2022/01/08 17:00:16+00
501100675;TUSCARAWAS;USA;40.297326;-81.474921;TENNESSEE GAS PIPELINE CO;TENNESSEE GAS PIPELINE CO;2022/01/08 17:00:16+00
POTOMAC;VERMILION;USA;40.338549;-87.864393;MIDWESTERN GAS TRANS CO;TRUNKLINE GAS CO;2022/01/08 17:00:16+00
NOT AVAILABLE;VERMILION;USA;40.338549;-87.864393;MIDWESTERN GAS TRANS CO;TRUNKLINE GAS CO;2022/01/08 17:00:16+00
POTOMAC - MIDWESTERN;VERMILION;USA;40.338549;-87.864393;TRUNKLINE GAS CO;MWST;2022/01/08 17:00:16+00
NGPL TO NNG TRAIL BLAZER;JEFFERSON;USA;40.34244;-96.988833;NORTHERN NATURAL GAS CO;NORTHERN NATURAL GAS CO;2022/01/08 17:00:16+00
TRUNKLINE TO PEPL EMERGENCEY DELIVE;VERMILION;USA;40.350775;-87.730069;PANHANDLE EASTERN P L CO;TRUNKLINE GAS CO;2022/01/08 17:00:16+00
MEWBOURN;WELD;USA;40.356492;-104.77293;COLORADO INTERSTATE GAS COMPANY LLC (KINDER MORGAN);NOT AVAILABLE;2022/01/08 17:00:16+00
LAMBERTVILLE;HUNTERDON;USA;40.361664;-74.940096;ALGONQUIN GAS TRANS CO;TETC;2022/01/08 17:00:16+00
NOT AVAILABLE;HUNTERDON;USA;40.361664;-74.940096;TEXAS EASTERN TRANS CORP;TEXAS EASTERN TRANS CORP;2022/01/08 17:00:16+00
LEBANON LATERAL;DELAWARE;USA;40.37376;-85.561856;PANHANDLE EASTERN P L CO;TEXAS EASTERN TRANS CORP;2022/01/08 17:00:16+00
GILCREST;WELD;USA;40.38784;-104.775168;COLORADO INTERSTATE GAS COMPANY LLC (KINDER MORGAN);NOT AVAILABLE;2022/01/08 17:00:16+00
BOWERSTON (TL-400);HARRISON;USA;40.41062;-81.17761;DOMINION TRANSMISSION CO;DOMINION TRANSMISSION CO;2022/01/08 17:00:16+00
NOT AVAILABLE;WASHINGTON;USA;40.42048;-103.27586;SOUTHERN STAR CENTRAL GAS PL CO;KM INTERSTATE GAS CO;2022/01/08 17:00:16+00
NOT AVAILABLE;CLAY;USA;40.427555;-97.916403;KM INTERSTATE GAS CO;TRAILBLAZER PIPELINE CO;2022/01/08 17:00:16+00
NOT AVAILABLE;WESTMORELAND;USA;40.430845;-79.499494;COLUMBIA GAS TRANS CORP;COLUMBIA GAS TRANS CORP;2022/01/08 17:00:16+00
NOT AVAILABLE;WESTMORELAND;USA;40.430845;-79.499494;TEXAS EASTERN TRANS CORP;TEXAS EASTERN TRANS CORP;2022/01/08 17:00:16+00
NOT AVAILABLE;BUCKS;USA;40.43265;-75.437543;COLUMBIA GAS TRANS CORP;COLUMBIA GAS TRANS CORP;2022/01/08 17:00:16+00
NOT AVAILABLE;BUCKS;USA;40.43265;-75.437543;TEXAS EASTERN TRANS CORP;TEXAS EASTERN TRANS CORP;2022/01/08 17:00:16+00
STA C. MILLIGAN;FILLMORE;USA;40.454912;-97.437696;NORTHERN NATURAL GAS CO;NORTHERN NATURAL GAS CO;2022/01/08 17:00:16+00
NOT AVAILABLE;FILLMORE;USA;40.454912;-97.437696;KM INTERSTATE GAS CO;NORTHERN NATURAL GAS CO;2022/01/08 17:00:16+00
NOT AVAILABLE;FILLMORE;USA;40.454912;-97.437696;KM INTERSTATE GAS CO;NORTHERN NATURAL GAS CO;2022/01/08 17:00:16+00
NOT AVAILABLE;SOMERSET;USA;40.49177;-74.678958;TEXAS EASTERN TRANS CORP;TEXAS EASTERN TRANS CORP;2022/01/08 17:00:16+00
TRANSCONTINENTAL GAS INTERCONNECT;SOMERSET;USA;40.49177;-74.678958;TEXAS EASTERN TRANS CORP;TEXAS EASTERN TRANS CORP;2022/01/08 17:00:16+00
KMIGT / TPC DELIVERY (6 22 11.87);ADAMS;USA;40.492222;-98.557278;TRAILBLAZER PIPELINE CO;KNEN;2022/01/08 17:00:16+00
CENTERVILLE;SOMERSET;USA;40.53054;-74.701668;ALGONQUIN GAS TRANS CO;TRAN;2022/01/08 17:00:16+00
NOT AVAILABLE;SOMERSET;USA;40.53054;-74.701668;TRANSCONTINENTAL GAS P L CO;TRANSCONTINENTAL GAS P L CO;2022/01/08 17:00:16+00
NEFF LAKE;WELD;USA;40.572991;-104.781007;COLORADO INTERSTATE GAS COMPANY LLC (KINDER MORGAN);NOT AVAILABLE;2022/01/08 17:00:16+00
NOT AVAILABLE;UNION;USA;40.61537;-74.221599;TEXAS EASTERN TRANS CORP;TEXAS EASTERN TRANS CORP;2022/01/08 17:00:16+00
TRANSCONTINENTAL GAS INTERCONNECT;UNION;USA;40.61537;-74.221599;TEXAS EASTERN TRANS CORP;TEXAS EASTERN TRANS CORP;2022/01/08 17:00:16+00
TGP BRADFORD WOODS;ALLEGHENY;USA;40.636301;-80.105405;EQUITRANS LP;TENN;2022/01/08 17:00:16+00
BRADFORD WOODS;ALLEGHENY;USA;40.636301;-80.105405;EQUITRANS LP;NOT AVAILABLE;2022/01/08 17:00:16+00
NOT AVAILABLE;COLUMBIANA;USA;40.7299;-80.890403;COLUMBIA GAS TRANS CORP;COLUMBIA GAS TRANS CORP;2022/01/08 17:00:16+00
501101025;COLUMBIANA;USA;40.7299;-80.890403;TENNESSEE GAS PIPELINE CO;TENNESSEE GAS PIPELINE CO;2022/01/08 17:00:16+00
NOT AVAILABLE;MORRIS;USA;40.736491;-74.404538;TEXAS EASTERN TRANS CORP;TEXAS EASTERN TRANS CORP;2022/01/08 17:00:16+00
NOT AVAILABLE;NORTHAMPTON;USA;40.771675;-75.210425;TRANSCONTINENTAL GAS P L CO;TRANSCONTINENTAL GAS P L CO;2022/01/08 17:00:16+00
NOT AVAILABLE;NORTHAMPTON;USA;40.771675;-75.210425;COLUMBIA GAS TRANS CORP;COLUMBIA GAS TRANS CORP;2022/01/08 17:00:16+00
NOT AVAILABLE;BEAVER;USA;40.775936;-80.320848;COLUMBIA GAS TRANS CORP;COLUMBIA GAS TRANS CORP;2022/01/08 17:00:16+00
501101175;BEAVER;USA;40.775936;-80.320848;TENNESSEE GAS PIPELINE CO;TENNESSEE GAS PIPELINE CO;2022/01/08 17:00:16+00
NOT AVAILABLE;BEAVER;USA;40.775936;-80.320848;TENNESSEE GAS PIPELINE CO;TENNESSEE GAS PIPELINE CO;2022/01/08 17:00:16+00
NOT AVAILABLE;BEAVER;USA;40.810213;-80.362967;TENNESSEE GAS PIPELINE CO;TENNESSEE GAS PIPELINE CO;2022/01/08 17:00:16+00
NOT AVAILABLE;BEAVER;USA;40.818009;-80.317876;COLUMBIA GAS TRANS CORP;COLUMBIA GAS TRANS CORP;2022/01/08 17:00:16+00
NOT AVAILABLE;COLUMBIANA;USA;40.832602;-80.728872;COLUMBIA GAS TRANS CORP;COLUMBIA GAS TRANS CORP;2022/01/08 17:00:16+00
501101050;COLUMBIANA;USA;40.832602;-80.728872;TENNESSEE GAS PIPELINE CO;TENNESSEE GAS PIPELINE CO;2022/01/08 17:00:16+00
NOT AVAILABLE;CENTRE;USA;40.839711;-77.835982;TEXAS EASTERN TRANS CORP;TEXAS EASTERN TRANS CORP;2022/01/08 17:00:16+00
AGUSTA OHIO;COLUMBIANA;USA;40.860151;-80.685253;TENNESSEE GAS PIPELINE CO;TENNESSEE GAS PIPELINE CO;2022/01/08 17:00:16+00
NOT AVAILABLE;LAWRENCE;USA;40.887313;-80.441874;COLUMBIA GAS TRANS CORP;COLUMBIA GAS TRANS CORP;2022/01/08 17:00:16+00
501101300;LAWRENCE;USA;40.887313;-80.441874;TENNESSEE GAS PIPELINE CO;TENNESSEE GAS PIPELINE CO;2022/01/08 17:00:16+00
HANOVER;MORRIS;USA;40.895172;-74.415353;ALGONQUIN GAS TRANS CO;TETC;2022/01/08 17:00:16+00
HANOVER;MORRIS;USA;40.895172;-74.415353;ALGONQUIN GAS TRANS CO;CGTC;2022/01/08 17:00:16+00
NOT AVAILABLE;MORRIS;USA;40.895172;-74.415353;TEXAS EASTERN TRANS CORP;TEXAS EASTERN TRANS CORP;2022/01/08 17:00:16+00
NOT AVAILABLE;LAWRENCE;USA;40.911872;-80.325376;COLUMBIA GAS TRANS CORP;COLUMBIA GAS TRANS CORP;2022/01/08 17:00:16+00
DOVER;WELD;USA;40.9392;-104.792896;COLORADO INTERSTATE GAS;WYIN;2022/01/08 17:00:16+00
DOVER;WELD;USA;40.9392;-104.792896;COLORADO INTERSTATE GAS;WYIN;2022/01/08 17:00:16+00
DULLHAWK;WELD;USA;40.9392;-104.792896;COLORADO INTERSTATE GAS;WYIN;2022/01/08 17:00:16+00
TOMAHAWK;WELD;USA;40.9392;-104.792896;COLORADO INTERSTATE GAS;TRBL;2022/01/08 17:00:16+00
DULLKNIFE;WELD;USA;40.9392;-104.792896;TRAILBLAZER PIPELINE CO;WYIN;2022/01/08 17:00:16+00
TOMAHAWK FIELD;WELD;USA;40.9392;-104.792896;TRAILBLAZER PIPELINE CO;CIGG;2022/01/08 17:00:16+00
DOVER;WELD;USA;40.9392;-104.792896;WYOMING INTERSTATE CO;CIGG;2022/01/08 17:00:16+00
DOVER;WELD;USA;40.9392;-104.792896;WYOMING INTERSTATE CO;CIGG;2022/01/08 17:00:16+00
DULL KNIFE;WELD;USA;40.9392;-104.792896;WYOMING INTERSTATE CO;TRBL;2022/01/08 17:00:16+00
DULLHAWK (FLYING HAWK);WELD;USA;40.9392;-104.792896;WYOMING INTERSTATE CO;CIGG;2022/01/08 17:00:16+00
ROCKPORT;WELD;USA;40.9392;-104.792896;WYOMING INTERSTATE CO;KMIG;2022/01/08 17:00:16+00
ARROWHEAD;WELD;USA;40.9392;-104.792896;COLORADO INTERSTATE GAS COMPANY LLC (KINDER MORGAN);NOT AVAILABLE;2022/01/08 17:00:16+00
501101075;MAHONING;USA;40.951784;-80.543202;TENNESSEE GAS PIPELINE CO;TENNESSEE GAS PIPELINE CO;2022/01/08 17:00:16+00
WELD;WELD;USA;40.95232;-104.084992;COLORADO INTERSTATE GAS;KNEN;2022/01/08 17:00:16+00
WELD;WELD;USA;40.95232;-104.084992;COLORADO INTERSTATE GAS;KMIG;2022/01/08 17:00:16+00
WELD;WELD;USA;40.95232;-104.084992;KM INTERSTATE GAS CO;COLORADO INTERSTATE GAS;2022/01/08 17:00:16+00
NOT AVAILABLE;WELD;USA;40.95232;-104.084992;KM INTERSTATE GAS CO;COLORADO INTERSTATE GAS;2022/01/08 17:00:16+00
WELD COUNTY KN;WELD;USA;40.95232;-104.084992;COLORADO INTERSTATE GAS COMPANY LLC (KINDER MORGAN);NOT AVAILABLE;2022/01/08 17:00:16+00
NOT AVAILABLE;LOGAN;USA;40.981553;-103.01952;KM INTERSTATE GAS CO;TRAILBLAZER PIPELINE CO;2022/01/08 17:00:16+00
CLAY BASIN IN;DAGGETT;USA;40.981943;-109.482424;NORTHWEST PIPELINE CORP;QUES;2022/01/08 17:00:16+00
CLAY BASIN;DAGGETT;USA;40.983141;-109.486878;NORTHWEST PIPELINE CORP;QUES;2022/01/08 17:00:16+00
RIVER VALE;BERGEN;USA;40.985253;-74.004813;TRANSCONTINENTAL GAS P L CO;TRANSCONTINENTAL GAS P L CO;2022/01/08 17:00:16+00
663211150;BERGEN;USA;40.985253;-74.004813;TENNESSEE GAS PIPELINE CO;TENNESSEE GAS PIPELINE CO;2022/01/08 17:00:16+00
KMIGT LOGAN;LOGAN;USA;40.992974;-103.027121;TRAILBLAZER PIPELINE CO;KMIG;2022/01/08 17:00:16+00
JUPITER TAP;WELD;USA;40.998467;-104.164301;TRAILBLAZER PIPELINE CO;NGPL;2022/01/08 17:00:16+00
NGPL;MILLS;USA;40.999356;-95.565489;NORTHERN NATURAL GAS CO;NORTHERN NATURAL GAS CO;2022/01/08 17:00:16+00
FINDLAY;HANCOCK;USA;41.023402;-83.690776;COLUMBIA GAS TRANS CORP;COLUMBIA GAS TRANS CORP;2022/01/08 17:00:16+00
WANAQUE;PASSAIC;USA;41.042496;-74.302912;ALGONQUIN GAS TRANS CO;TETC;2022/01/08 17:00:16+00
663210975;PASSAIC;USA;41.049558;-74.289737;TENNESSEE GAS PIPELINE CO;TENNESSEE GAS PIPELINE CO;2022/01/08 17:00:16+00
MAHWAH;PASSAIC;USA;41.049558;-74.289737;ALGONQUIN GAS TRANS CO;TENN;2022/01/08 17:00:16+00
663211000;PASSAIC;USA;41.049558;-74.289737;TENNESSEE GAS PIPELINE CO;TENNESSEE GAS PIPELINE CO;2022/01/08 17:00:16+00
NNG/NGPL  MILLS;MILLS;USA;41.057414;-95.447548;NAT GAS P L CO OF AMERICA;NAT GAS P L CO OF AMERICA;2022/01/08 17:00:16+00
TGP - SHARON*;MERCER;USA;41.134978;-80.423698;NATIONAL FUEL GAS SUPPLY CO;TENN;2022/01/08 17:00:16+00
5011011325;MERCER;USA;41.134978;-80.423698;TENNESSEE GAS PIPELINE CO;TENNESSEE GAS PIPELINE CO;2022/01/08 17:00:16+00
RAMPO;ROCKLAND;USA;41.147904;-74.128512;ALGONQUIN GAS TRANS CO;CGTC;2022/01/08 17:00:16+00
RAMPO;ROCKLAND;USA;41.147904;-74.128512;ALGONQUIN GAS TRANS CO;CGTC;2022/01/08 17:00:16+00
NOT AVAILABLE;ROCKLAND;USA;41.147904;-74.128512;COLUMBIA GAS TRANS CORP;COLUMBIA GAS TRANS CORP;2022/01/08 17:00:16+00
ESHBAUGH;CLARION;USA;41.148272;-79.2568;DOMINION TRANSMISSION CO;DOMINION TRANSMISSION CO;2022/01/08 17:00:16+00
NOT AVAILABLE;CLARION;USA;41.148272;-79.2568;NORTH PENN GAS CO;DOMI;2022/01/08 17:00:16+00
ESHBAUGH;CLARION;USA;41.156977;-79.249465;DOMINION TRANSMISSION CO;DOMINION TRANSMISSION CO;2022/01/08 17:00:16+00
HORIZON/NGPL SOUTH GRUNDY;GRUNDY;USA;41.165693;-88.566967;NAT GAS P L CO OF AMERICA;NAT GAS P L CO OF AMERICA;2022/01/08 17:00:16+00
PAULDING;PAULDING;USA;41.182743;-84.51539;ANR PIPELINE CO;ANR PIPELINE CO;2022/01/08 17:00:16+00
NOT AVAILABLE;PAULDING;USA;41.182744;-84.51541;COLUMBIA GAS TRANS CORP;COLUMBIA GAS TRANS CORP;2022/01/08 17:00:16+00
NOT AVAILABLE;PAULDING;USA;41.185173;-84.51823;COLUMBIA GAS TRANS CORP;COLUMBIA GAS TRANS CORP;2022/01/08 17:00:16+00
SKULL CREEK-WNG;SWEETWATER;USA;41.247446;-108.399656;QUESTAR P L CO;SOUTHERN STAR CENTRAL GAS PL CO;2022/01/08 17:00:16+00
TGP - MERCER (TO TGP)*;MERCER;USA;41.247788;-80.273041;NATIONAL FUEL GAS SUPPLY CO;TENN;2022/01/08 17:00:16+00
TGP - MERCER (FROM TGP)*;MERCER;USA;41.247788;-80.273041;NATIONAL FUEL GAS SUPPLY CO;TENN;2022/01/08 17:00:16+00
501101575;MERCER;USA;41.247788;-80.273041;TENNESSEE GAS PIPELINE CO;TENNESSEE GAS PIPELINE CO;2022/01/08 17:00:16+00
SHELTON A;FAIRFIELD;USA;41.270438;-73.09179;IROQUOIS PIPELINE CO;TENNESSEE GAS PIPELINE CO;2022/01/08 17:00:16+00
SHELTON A;FAIRFIELD;USA;41.270438;-73.09179;IROQUOIS PIPELINE CO;TENNESSEE GAS PIPELINE CO;2022/01/08 17:00:16+00
GREEN RIVER;SWEETWATER;USA;41.274743;-109.558271;COLORADO INTERSTATE GAS;NWST;2022/01/08 17:00:16+00
MCKINNON;SWEETWATER;USA;41.274743;-109.558271;NORTHWEST PIPELINE CORP;CIGG;2022/01/08 17:00:16+00
MCKINNON JCT;SWEETWATER;USA;41.320254;-109.678958;COLORADO INTERSTATE GAS;NWST;2022/01/08 17:00:16+00
GREEN RIVER CIG;SWEETWATER;USA;41.320254;-109.678958;NORTHWEST PIPELINE CORP;CIGG;2022/01/08 17:00:16+00
ANR DEFIANCE;DEFIANCE;USA;41.334473;-84.349979;PANHANDLE EASTERN P L CO;ANR PIPELINE CO;2022/01/08 17:00:16+00
NOT AVAILABLE;PIKE;USA;41.334697;-74.807817;COLUMBIA GAS TRANS CORP;COLUMBIA GAS TRANS CORP;2022/01/08 17:00:16+00
663210750;PIKE;USA;41.334697;-74.807817;TENNESSEE GAS PIPELINE CO;TENNESSEE GAS PIPELINE CO;2022/01/08 17:00:16+00
652190150;VENANGO;USA;41.354448;-79.757031;TENNESSEE GAS PIPELINE CO;TENNESSEE GAS PIPELINE CO;2022/01/08 17:00:16+00
DEFIANCE;DEFIANCE;USA;41.354774;-84.361293;ANR PIPELINE CO;ANR PIPELINE CO;2022/01/08 17:00:16+00
ANR PIPELINE CO. REC;DEFIANCE;USA;41.354774;-84.361293;PANHANDLE EASTERN P L CO;ANR PIPELINE CO;2022/01/08 17:00:16+00
DEFIANCE;DEFIANCE;USA;41.354774;-84.361293;ANR PIPELINE CO;ANR PIPELINE CO;2022/01/08 17:00:16+00
HARPER;KEOKUK;USA;41.362379;-92.057309;NORTHERN BORDER PIPELINE CO;NOT AVAILABLE;2022/01/08 17:00:16+00
HARPER;KEOKUK;USA;41.362379;-92.057309;NORTHERN BORDER PIPELINE CO;NOT AVAILABLE;2022/01/08 17:00:16+00
501101625;MERCER;USA;41.366156;-80.11222;TENNESSEE GAS PIPELINE CO;TENNESSEE GAS PIPELINE CO;2022/01/08 17:00:16+00
NOT AVAILABLE;VENANGO;USA;41.383671;-79.651137;NORTH PENN GAS CO;TENN;2022/01/08 17:00:16+00
NOT AVAILABLE;VENANGO;USA;41.383671;-79.651137;TENNESSEE GAS PIPELINE CO;TENNESSEE GAS PIPELINE CO;2022/01/08 17:00:16+00
MIDWEST GAS METER STATION;WILL;USA;41.392418;-88.186746;ALLIANCE PIPELINE CO;MWST;2022/01/08 17:00:16+00
NOT AVAILABLE;CLINTON;USA;41.393123;-77.826116;TEXAS EASTERN TRANS CORP;TEXAS EASTERN TRANS CORP;2022/01/08 17:00:16+00
TET LEIDY;CLINTON;USA;41.393123;-77.826116;DOMINION TRANSMISSION CO;DOMINION TRANSMISSION CO;2022/01/08 17:00:16+00
TRANSCO;CLINTON;USA;41.393123;-77.826116;DOMINION TRANSMISSION CO;DOMINION TRANSMISSION CO;2022/01/08 17:00:16+00
TRANSCO LEIDY;CLINTON;USA;41.393123;-77.826116;DOMINION TRANSMISSION CO;DOMINION TRANSMISSION CO;2022/01/08 17:00:16+00
NOT AVAILABLE;CLINTON;USA;41.393123;-77.826116;TEXAS EASTERN TRANS CORP;TEXAS EASTERN TRANS CORP;2022/01/08 17:00:16+00
NOT AVAILABLE;CLINTON;USA;41.393123;-77.826116;TEXAS EASTERN TRANS CORP;TEXAS EASTERN TRANS CORP;2022/01/08 17:00:16+00
NOT AVAILABLE;CLINTON;USA;41.394394;-77.825589;TRANSCONTINENTAL GAS P L CO;TRANSCONTINENTAL GAS P L CO;2022/01/08 17:00:16+00
NOT AVAILABLE;CLINTON;USA;41.394394;-77.825589;TRANSCONTINENTAL GAS P L CO;TRANSCONTINENTAL GAS P L CO;2022/01/08 17:00:16+00
NOT AVAILABLE;CLINTON;USA;41.394394;-77.825589;TRANSCONTINENTAL GAS P L CO;TRANSCONTINENTAL GAS P L CO;2022/01/08 17:00:16+00
AUX SABLE;GRUNDY;USA;41.394655;-88.317209;ALLIANCE PIPELINE CO;NOT AVAILABLE;2022/01/08 17:00:16+00
ALLNCEPL/NGPL JOLIET #1 GRUNDY;GRUNDY;USA;41.410243;-88.334629;NAT GAS P L CO OF AMERICA;NAT GAS P L CO OF AMERICA;2022/01/08 17:00:16+00
ALLNCEPL/NGPL JOLIET #2 GRUNDY;GRUNDY;USA;41.410243;-88.334629;NAT GAS P L CO OF AMERICA;NAT GAS P L CO OF AMERICA;2022/01/08 17:00:16+00
ALLEGHENY NATIONAL FOREST;ELK;USA;41.429504;-78.813568;DOMINION TRANSMISSION CO;DOMINION TRANSMISSION CO;2022/01/08 17:00:16+00
BROOKFIELD;FAIRFIELD;USA;41.430603;-73.308763;ALGONQUIN GAS TRANS CO;IROQ;2022/01/08 17:00:16+00
BROOKFIELD;FAIRFIELD;USA;41.430603;-73.308763;IROQUOIS PIPELINE CO;ALGONQUIN GAS TRANS CO;2022/01/08 17:00:16+00
BROOKFIELD;FAIRFIELD;USA;41.430603;-73.308763;IROQUOIS PIPELINE CO;ALGONQUIN GAS TRANS CO;2022/01/08 17:00:16+00
LARAMIE/CIG/WIC;ALBANY;USA;41.433623;-105.910008;WYOMING INTERSTATE CO;CIGG;2022/01/08 17:00:16+00
NOT AVAILABLE;CLINTON;USA;41.438832;-77.882065;TRANSCONTINENTAL GAS P L CO;TRANSCONTINENTAL GAS P L CO;2022/01/08 17:00:16+00
NOT AVAILABLE;SWEETWATER;USA;41.441468;-108.18544;QUESTAR P L CO;SOUTHERN STAR CENTRAL GAS PL CO;2022/01/08 17:00:16+00
JOLIET SALES;WILL;USA;41.45224;-88.220192;MIDWESTERN GAS TRANS CO;NAT GAS P L CO OF AMERICA;2022/01/08 17:00:16+00
NOT AVAILABLE;CAMERON;USA;41.454032;-78.070528;COLUMBIA GAS TRANS CORP;COLUMBIA GAS TRANS CORP;2022/01/08 17:00:16+00
VECTOR;WILL;USA;41.457314;-88.131417;ALLIANCE PIPELINE CO;NOT AVAILABLE;2022/01/08 17:00:16+00
AUX SABLE;WILL;USA;41.458089;-88.131426;ALLIANCE PIPELINE CO;NOT AVAILABLE;2022/01/08 17:00:16+00
ALLIANCE/ANR;WILL;USA;41.458091;-88.131455;ANR PIPELINE CO;ANR PIPELINE CO;2022/01/08 17:00:16+00
WILLINGFORD;NEW HAVEN;USA;41.45954;-72.833009;ALGONQUIN GAS TRANS CO;TENN;2022/01/08 17:00:16+00
QPC JL 36 METER STATION;UINTA;USA;41.460435;-110.886695;OVERTHRUST PIPELINE CO;QUES;2022/01/08 17:00:16+00
CHANNAHON;WILL;USA;41.46227;-88.218874;NORTHERN BORDER PIPELINE CO;MWST;2022/01/08 17:00:16+00
CHANNAHON;WILL;USA;41.46227;-88.218874;NORTHERN BORDER PIPELINE CO;MWST;2022/01/08 17:00:16+00
WILL COUNTY;WILL;USA;41.466248;-88.178154;ANR PIPELINE CO;ANR PIPELINE CO;2022/01/08 17:00:16+00
QPC JL95 INTERCONNECT;UINTA;USA;41.467327;-110.267085;OVERTHRUST PIPELINE CO;QUES;2022/01/08 17:00:16+00
ANR/NGPL SOUTH JOLIET #1 WEST WILL;WILL;USA;41.48647;-88.215869;NAT GAS P L CO OF AMERICA;NAT GAS P L CO OF AMERICA;2022/01/08 17:00:16+00
JOLIET;WILL;USA;41.486999;-88.218125;ANR PIPELINE CO;ANR PIPELINE CO;2022/01/08 17:00:16+00
JOLIET-NGPL;WILL;USA;41.486999;-88.218125;ANR PIPELINE CO;ANR PIPELINE CO;2022/01/08 17:00:16+00
JOLIET;WILL;USA;41.486999;-88.218125;ANR PIPELINE CO;ANR PIPELINE CO;2022/01/08 17:00:16+00
JOLIET WEST (NGPL);WILL;USA;41.486999;-88.218125;ANR PIPELINE CO;ANR PIPELINE CO;2022/01/08 17:00:16+00
JOLIET - ANR;WILL;USA;41.486999;-88.218125;MIDWESTERN GAS TRANS CO;ANR PIPELINE CO;2022/01/08 17:00:16+00
KENDALL COUNTY;KENDALL;USA;41.498467;-88.259988;ANR PIPELINE CO;ANR PIPELINE CO;2022/01/08 17:00:16+00
WHEELER;PORTER;USA;41.500969;-87.190045;CROSSROADS PIPELINE CO;VECT;2022/01/08 17:00:16+00
WHEELER;PORTER;USA;41.500969;-87.190045;CROSSTEX ENERGY PIPELINE;VECT;2022/01/08 17:00:16+00
WHEELER;PORTER;USA;41.500969;-87.190045;VECTOR PIPELINE CO;CROS;2022/01/08 17:00:16+00
663211627;NEW HAVEN;USA;41.504187;-72.899672;TENNESSEE GAS PIPELINE CO;TENNESSEE GAS PIPELINE CO;2022/01/08 17:00:16+00
CHESIRE;NEW HAVEN;USA;41.504187;-72.899672;ALGONQUIN GAS TRANS CO;TENN;2022/01/08 17:00:16+00
CHESIRE;NEW HAVEN;USA;41.504187;-72.899672;ALGONQUIN GAS TRANS CO;TENN;2022/01/08 17:00:16+00
NOT AVAILABLE;NEW HAVEN;USA;41.504187;-72.899672;TENNESSEE GAS PIPELINE CO;TENNESSEE GAS PIPELINE CO;2022/01/08 17:00:16+00
NOT AVAILABLE;FOREST;USA;41.506055;-79.125837;NORTH PENN GAS CO;TENN;2022/01/08 17:00:16+00
652190175;FOREST;USA;41.506055;-79.125837;TENNESSEE GAS PIPELINE CO;TENNESSEE GAS PIPELINE CO;2022/01/08 17:00:16+00
552190200;CRAWFORD;USA;41.506739;-80.003669;TENNESSEE GAS PIPELINE CO;TENNESSEE GAS PIPELINE CO;2022/01/08 17:00:16+00
ANR/NGPL SOUTH JOLIET #2 WILL;WILL;USA;41.506789;-88.190149;NAT GAS P L CO OF AMERICA;NAT GAS P L CO OF AMERICA;2022/01/08 17:00:16+00
OTPL TO QPC XO 16 REC;SWEETWATER;USA;41.507331;-109.929546;QUESTAR P L CO;OVERTHRUST PIPELINE CO;2022/01/08 17:00:16+00
XO-16-NPC RECEIPT;SWEETWATER;USA;41.507331;-109.929546;QUESTAR P L CO;NORTHWEST PIPELINE CORP;2022/01/08 17:00:16+00
X-OVER 16;SWEETWATER;USA;41.507331;-109.929546;NORTHWEST PIPELINE CORP;QUES;2022/01/08 17:00:16+00
CROSROAD/NGPL  LAKE;LAKE;USA;41.507366;-87.417693;NAT GAS P L CO OF AMERICA;NAT GAS P L CO OF AMERICA;2022/01/08 17:00:16+00
WHARTON_TRANSCO_INJ;POTTER;USA;41.527223;-77.99928;NORTH PENN GAS CO;TRAN;2022/01/08 17:00:16+00
NOT AVAILABLE;POTTER;USA;41.527223;-77.99928;TRANSCONTINENTAL GAS P L CO;TRANSCONTINENTAL GAS P L CO;2022/01/08 17:00:16+00
X-OVER 16;SWEETWATER;USA;41.539451;-109.956036;NORTHWEST PIPELINE CORP;QUES;2022/01/08 17:00:16+00
OTPL TO QPC X016 DEL;SWEETWATER;USA;41.539451;-109.956036;OVERTHRUST PIPELINE CO;QUES;2022/01/08 17:00:16+00
XO-16 NPC DELIVERY;SWEETWATER;USA;41.539451;-109.956036;QUESTAR P L CO;NORTHWEST PIPELINE CORP;2022/01/08 17:00:16+00
XO-16  DELIVERY;SWEETWATER;USA;41.539451;-109.956036;QUESTAR P L CO;OVERTHRUST PIPELINE CO;2022/01/08 17:00:16+00
NOT AVAILABLE;WOOD;USA;41.542688;-83.678144;COLUMBIA GAS TRANS CORP;COLUMBIA GAS TRANS CORP;2022/01/08 17:00:16+00
COLUMBIA GAS;WOOD;USA;41.542688;-83.678144;PANHANDLE EASTERN P L CO;COLUMBIA GAS TRANS CORP;2022/01/08 17:00:16+00
NOT AVAILABLE;POTTER;USA;41.543813;-78.012169;TRANSCONTINENTAL GAS P L CO;TRANSCONTINENTAL GAS P L CO;2022/01/08 17:00:16+00
TRANSCO - WHARTON TRANSCO*;POTTER;USA;41.543813;-78.012169;NATIONAL FUEL GAS SUPPLY CO;TRAN;2022/01/08 17:00:16+00
TRANSCO - WHARTON TRANSCO*;POTTER;USA;41.543813;-78.012169;NATIONAL FUEL GAS SUPPLY CO;TRAN;2022/01/08 17:00:16+00
MAUMEE EAST;WOOD;USA;41.545193;-83.681567;ANR PIPELINE CO;ANR PIPELINE CO;2022/01/08 17:00:16+00
OVERTHRUST TO WIC;SWEETWATER;USA;41.545684;-109.33418;OVERTHRUST PIPELINE CO;WYIN;2022/01/08 17:00:16+00
KANDA;SWEETWATER;USA;41.546834;-109.352154;COLORADO INTERSTATE GAS;QUES;2022/01/08 17:00:16+00
COLEMAN;SWEETWATER;USA;41.54688;-109.344062;QUESTAR P L CO;WYOMING INTERSTATE CO;2022/01/08 17:00:16+00
KANDA/COL CIG DEL;SWEETWATER;USA;41.54688;-109.344062;QUESTAR P L CO;COLORADO INTERSTATE GAS;2022/01/08 17:00:16+00
KANDA/COL WIC DEL;SWEETWATER;USA;41.54688;-109.344062;QUESTAR P L CO;WYOMING INTERSTATE CO;2022/01/08 17:00:16+00
KANDA\COLEMAN;SWEETWATER;USA;41.54688;-109.344062;QUESTAR P L CO;OVERTHRUST PIPELINE CO;2022/01/08 17:00:16+00
NOT AVAILABLE;ELK;USA;41.567664;-78.925488;COLUMBIA GAS TRANS CORP;COLUMBIA GAS TRANS CORP;2022/01/08 17:00:16+00
652190300;ELK;USA;41.567664;-78.925488;TENNESSEE GAS PIPELINE CO;TENNESSEE GAS PIPELINE CO;2022/01/08 17:00:16+00
652190325;ELK;USA;41.578816;-78.90912;TENNESSEE GAS PIPELINE CO;TENNESSEE GAS PIPELINE CO;2022/01/08 17:00:16+00
SOUTHINGTON;HARTFORD;USA;41.588608;-72.790213;ALGONQUIN GAS TRANS CO;TENN;2022/01/08 17:00:16+00
NOT AVAILABLE;HARTFORD;USA;41.588608;-72.790213;TENNESSEE GAS PIPELINE CO;TENNESSEE GAS PIPELINE CO;2022/01/08 17:00:16+00
TGP - LAMONT*;ELK;USA;41.618304;-78.851101;NATIONAL FUEL GAS SUPPLY CO;TENN;2022/01/08 17:00:16+00
TGP - LAMONT*;ELK;USA;41.618304;-78.851101;NATIONAL FUEL GAS SUPPLY CO;TENN;2022/01/08 17:00:16+00
WILCOX;MCKEAN;USA;41.644991;-78.520739;DOMINION TRANSMISSION CO;DOMINION TRANSMISSION CO;2022/01/08 17:00:16+00
TGP - TOWNVILLE;CRAWFORD;USA;41.645452;-79.923579;NATIONAL FUEL GAS SUPPLY CO;TENN;2022/01/08 17:00:16+00
552190300;CRAWFORD;USA;41.645452;-79.923579;TENNESSEE GAS PIPELINE CO;TENNESSEE GAS PIPELINE CO;2022/01/08 17:00:16+00
QUESTAR PIPELINE;LINCOLN;USA;41.662976;-110.571008;KERN RIVER GAS TRANS CO;QUESTAR P L CO;2022/01/08 17:00:16+00
WAMSUTTER;SWEETWATER;USA;41.673381;-108.001322;COLORADO INTERSTATE GAS;WYIN;2022/01/08 17:00:16+00
WAMSUTTER;SWEETWATER;USA;41.673381;-108.001322;WYOMING INTERSTATE CO;CIGG;2022/01/08 17:00:16+00
WAMSUTTER;SWEETWATER;USA;41.673381;-108.001322;WYOMING INTERSTATE CO;CIGG;2022/01/08 17:00:16+00
GLENROCK;ALBANY;USA;41.675358;-105.848914;WYOMING INTERSTATE CO;CIGG;2022/01/08 17:00:16+00
CLERMONT;MCKEAN;USA;41.676327;-78.455064;DOMINION TRANSMISSION CO;DOMINION TRANSMISSION CO;2022/01/08 17:00:16+00
NOT AVAILABLE;MCKEAN;USA;41.676327;-78.455064;NORTH PENN GAS CO;DOMI;2022/01/08 17:00:16+00
NOT AVAILABLE;SWEETWATER;USA;41.679104;-109.308416;QUESTAR P L CO;COLORADO INTERSTATE GAS;2022/01/08 17:00:16+00
KANDA;SWEETWATER;USA;41.679104;-109.308416;COLORADO INTERSTATE GAS;QUES;2022/01/08 17:00:16+00
KANDA/COLEMAN;SWEETWATER;USA;41.679104;-109.308416;WYOMING INTERSTATE CO;QUES;2022/01/08 17:00:16+00
ROCK SPRINGS;SWEETWATER;USA;41.679104;-109.308416;WYOMING INTERSTATE CO;OVER;2022/01/08 17:00:16+00
652190350;MCKEAN;USA;41.687422;-78.748641;TENNESSEE GAS PIPELINE CO;TENNESSEE GAS PIPELINE CO;2022/01/08 17:00:16+00
MUDDY CREEK;LINCOLN;USA;41.692862;-110.356179;COLORADO INTERSTATE GAS;KERN;2022/01/08 17:00:16+00
ROBERSON CREEK DELIVERY;LINCOLN;USA;41.692862;-110.356179;KERN RIVER GAS TRANS CO;QUESTAR PIPELINE COMPANY;2022/01/08 17:00:16+00
MUDDY CR TO KRGT;LINCOLN;USA;41.692862;-110.356179;NORTHWEST PIPELINE CORP;KERN;2022/01/08 17:00:16+00
MUDDY CREEK;LINCOLN;USA;41.692862;-110.356179;QUESTAR P L CO;KERN RIVER GAS TRANS CO;2022/01/08 17:00:16+00
WESTERN MARKET;LINCOLN;USA;41.719938;-110.432784;QUESTAR P L CO;OVERLAND TRAILS TRANS CO;2022/01/08 17:00:16+00
NOT AVAILABLE;LINCOLN;USA;41.719938;-110.432784;QUESTAR P L CO;NORTHWEST PIPELINE CORP;2022/01/08 17:00:16+00
NOT AVAILABLE;ELKHART;USA;41.72344;-85.720534;TRUNKLINE GAS CO;ANRP;2022/01/08 17:00:16+00
NOT AVAILABLE;ELKHART;USA;41.72344;-85.720534;TRUNKLINE GAS CO;ANRP;2022/01/08 17:00:16+00
FRONTIER;LINCOLN;USA;41.733482;-110.365992;NORTHWEST PIPELINE CORP;CIGG;2022/01/08 17:00:16+00
AMANA;POWESHIEK;USA;41.740615;-92.35595;NORTHERN BORDER PIPELINE CO;NOT AVAILABLE;2022/01/08 17:00:16+00
AMANA;POWESHIEK;USA;41.740615;-92.35595;NORTHERN BORDER PIPELINE CO;NOT AVAILABLE;2022/01/08 17:00:16+00
NOT AVAILABLE;BRADFORD;USA;41.745836;-76.824147;NORTH PENN GAS CO;TENN;2022/01/08 17:00:16+00
652191375;BRADFORD;USA;41.745836;-76.824147;TENNESSEE GAS PIPELINE CO;TENNESSEE GAS PIPELINE CO;2022/01/08 17:00:16+00
RINER ROAD;SWEETWATER;USA;41.746573;-107.572577;COLORADO INTERSTATE GAS;WNGP;2022/01/08 17:00:16+00
NAUGHTON;LINCOLN;USA;41.753545;-110.581885;QUESTAR P L CO;NORTHWEST PIPELINE CORP;2022/01/08 17:00:16+00
NOT AVAILABLE;TIOGA;USA;41.766723;-77.125542;NORTH PENN GAS CO;TENN;2022/01/08 17:00:16+00
652191325;TIOGA;USA;41.766723;-77.125542;TENNESSEE GAS PIPELINE CO;TENNESSEE GAS PIPELINE CO;2022/01/08 17:00:16+00
MCDOWELL;MCKEAN;USA;41.772818;-78.269572;DOMINION TRANSMISSION CO;DOMINION TRANSMISSION CO;2022/01/08 17:00:16+00
NOT AVAILABLE;MCKEAN;USA;41.772818;-78.269572;NORTH PENN GAS CO;DOMI;2022/01/08 17:00:16+00
FRONTIER;LINCOLN;USA;41.777593;-110.343705;COLORADO INTERSTATE GAS;NWST;2022/01/08 17:00:16+00
HAMS FORK/CIG HUB DELIVERY;LINCOLN;USA;41.777593;-110.343705;NORTHWEST PIPELINE CORP;CIGG;2022/01/08 17:00:16+00
TENNESSEE WELLSBORO;TIOGA;USA;41.782428;-77.326338;NORTH PENN GAS CO;TENN;2022/01/08 17:00:16+00
652191250;TIOGA;USA;41.782428;-77.326338;TENNESSEE GAS PIPELINE CO;TENNESSEE GAS PIPELINE CO;2022/01/08 17:00:16+00
COLORADO INTERSTATE PIP;LINCOLN;USA;41.783138;-110.325395;KERN RIVER GAS TRANS CO;COLORADO INTERSTATE GAS;2022/01/08 17:00:16+00
RINER;CARBON;USA;41.785472;-107.374232;COLORADO INTERSTATE GAS;WNGP;2022/01/08 17:00:16+00
MUDDY CREEK;LINCOLN;USA;41.792694;-110.306269;KERN RIVER GAS TRANS CO;NORTHWEST PIPELINE CORP;2022/01/08 17:00:16+00
OVERLAND TRAIL PIPELINE;LINCOLN;USA;41.801889;-110.288022;KERN RIVER GAS TRANS CO;OVERLAND TRAILS TRANS CO;2022/01/08 17:00:16+00
NOT AVAILABLE;MCKEAN;USA;41.825227;-78.331422;NORTH PENN GAS CO;TENN;2022/01/08 17:00:16+00
NOT AVAILABLE;MCKEAN;USA;41.825227;-78.331422;TENNESSEE GAS PIPELINE CO;TENNESSEE GAS PIPELINE CO;2022/01/08 17:00:16+00
NOT AVAILABLE;POTTER;USA;41.83209;-78.040626;NORTH PENN GAS CO;TENN;2022/01/08 17:00:16+00
652190450;POTTER;USA;41.83209;-78.040626;TENNESSEE GAS PIPELINE CO;TENNESSEE GAS PIPELINE CO;2022/01/08 17:00:16+00
652190475;POTTER;USA;41.83429;-78.10798;TENNESSEE GAS PIPELINE CO;TENNESSEE GAS PIPELINE CO;2022/01/08 17:00:16+00
HAMS FORK;LINCOLN;USA;41.890176;-110.405632;COLORADO INTERSTATE GAS;NWST;2022/01/08 17:00:16+00
552190350;ERIE;USA;41.90848;-79.766944;TENNESSEE GAS PIPELINE CO;TENNESSEE GAS PIPELINE CO;2022/01/08 17:00:16+00
TGP - UNION CITY*;ERIE;USA;41.90848;-79.766944;NATIONAL FUEL GAS SUPPLY CO;TENN;2022/01/08 17:00:16+00
552190325;ERIE;USA;41.90848;-79.766944;TENNESSEE GAS PIPELINE CO;TENNESSEE GAS PIPELINE CO;2022/01/08 17:00:16+00
DTI - ELLISBURG STATION*;POTTER;USA;41.915696;-77.831944;NATIONAL FUEL GAS SUPPLY CO;DOMI;2022/01/08 17:00:16+00
DTI - ELLISBURG STATION*;POTTER;USA;41.915696;-77.831944;NATIONAL FUEL GAS SUPPLY CO;DOMI;2022/01/08 17:00:16+00
NOT AVAILABLE;POTTER;USA;41.915696;-77.831944;TENNESSEE GAS PIPELINE CO;TENNESSEE GAS PIPELINE CO;2022/01/08 17:00:16+00
ELLISBURG;POTTER;USA;41.920849;-77.8111;DOMINION TRANSMISSION CO;DOMINION TRANSMISSION CO;2022/01/08 17:00:16+00
NOT AVAILABLE;TIOGA;USA;41.92436;-77.257188;NORTH PENN GAS CO;DOMI;2022/01/08 17:00:16+00
SOUTH LAKE;RICH;USA;41.93963;-111.101939;NORTHWEST PIPELINE CORP;QUES;2022/01/08 17:00:16+00
652190500;POTTER;USA;41.956544;-77.949376;TENNESSEE GAS PIPELINE CO;TENNESSEE GAS PIPELINE CO;2022/01/08 17:00:16+00
652190525;POTTER;USA;41.956544;-77.949376;TENNESSEE GAS PIPELINE CO;TENNESSEE GAS PIPELINE CO;2022/01/08 17:00:16+00
TGP - WATTSBURG*;ERIE;USA;41.973769;-79.724165;NATIONAL FUEL GAS SUPPLY CO;TENN;2022/01/08 17:00:16+00
552190375;ERIE;USA;41.973769;-79.724165;TENNESSEE GAS PIPELINE CO;TENNESSEE GAS PIPELINE CO;2022/01/08 17:00:16+00
TIOGA_DOMINION_INJ;TIOGA;USA;41.99831;-77.035594;NORTH PENN GAS CO;CNGT;2022/01/08 17:00:16+00
SANFORD;ALLEGANY;USA;42.030204;-78.22238;DOMINION TRANSMISSION CO;DOMINION TRANSMISSION CO;2022/01/08 17:00:16+00
MENDON;WORCESTER;USA;42.03884;-71.661346;ALGONQUIN GAS TRANS CO;TENN;2022/01/08 17:00:16+00
MENDON;WORCESTER;USA;42.03884;-71.661346;ALGONQUIN GAS TRANS CO;TENN;2022/01/08 17:00:16+00
NOT AVAILABLE;WORCESTER;USA;42.038845;-71.661283;TENNESSEE GAS PIPELINE CO;TENNESSEE GAS PIPELINE CO;2022/01/08 17:00:16+00
MENDON;WORCESTER;USA;42.039109;-71.686538;ALGONQUIN GAS TRANS CO;TENN;2022/01/08 17:00:16+00
602452100;WORCESTER;USA;42.039109;-71.686538;TENNESSEE GAS PIPELINE CO;TENNESSEE GAS PIPELINE CO;2022/01/08 17:00:16+00
TAMA;TAMA;USA;42.051899;-92.598568;NORTHERN BORDER PIPELINE CO;NOT AVAILABLE;2022/01/08 17:00:16+00
TAMA;TAMA;USA;42.051899;-92.598568;NORTHERN BORDER PIPELINE CO;NOT AVAILABLE;2022/01/08 17:00:16+00
PG&E GAS TRANS. NW - RECEIPT;KLAMATH;USA;42.070357;-121.38587;TUSCARORA PIPELINE CO;PGNE;2022/01/08 17:00:16+00
WEST WELLSVILLE;ALLEGANY;USA;42.102528;-77.886816;DOMINION TRANSMISSION CO;DOMINION TRANSMISSION CO;2022/01/08 17:00:16+00
NOT AVAILABLE;CHAUTAUQUA;USA;42.127188;-79.62578;TENNESSEE GAS PIPELINE CO;TENNESSEE GAS PIPELINE CO;2022/01/08 17:00:16+00
TGP - SHERMAN*;CHAUTAUQUA;USA;42.127188;-79.62578;NATIONAL FUEL GAS SUPPLY CO;TENN;2022/01/08 17:00:16+00
552190575;CHAUTAUQUA;USA;42.127188;-79.62578;TENNESSEE GAS PIPELINE CO;TENNESSEE GAS PIPELINE CO;2022/01/08 17:00:16+00
KLAMATH FALLS;KLAMATH;USA;42.186169;-121.427407;GAS TRANSMISSION NORTHWEST;MULTIPLE POINTS (9);2022/01/08 17:00:16+00
BELMONT;ALLEGANY;USA;42.188052;-77.90604;DOMINION TRANSMISSION CO;DOMINION TRANSMISSION CO;2022/01/08 17:00:16+00
NOT AVAILABLE;CHEMUNG;USA;42.210427;-76.867587;COLUMBIA GAS TRANS CORP;COLUMBIA GAS TRANS CORP;2022/01/08 17:00:16+00
TGP - MAYVILLE*;CHAUTAUQUA;USA;42.231474;-79.553338;NATIONAL FUEL GAS SUPPLY CO;TENN;2022/01/08 17:00:16+00
552190650;CHAUTAUQUA;USA;42.231474;-79.553338;TENNESSEE GAS PIPELINE CO;TENNESSEE GAS PIPELINE CO;2022/01/08 17:00:16+00
ANR/NGPL SOUTH WOODSTOCK MC HENRY;MCHENRY;USA;42.233475;-88.49446;NAT GAS P L CO OF AMERICA;NAT GAS P L CO OF AMERICA;2022/01/08 17:00:16+00
SOUTH WOODSTOCK (N.G.P.L.);MCHENRY;USA;42.256825;-88.493352;ANR PIPELINE CO;ANR PIPELINE CO;2022/01/08 17:00:16+00
SOUTH WOODSTOCK;MCHENRY;USA;42.256825;-88.493352;ANR PIPELINE CO;ANR PIPELINE CO;2022/01/08 17:00:16+00
HORIZON/NGPL NORTH MC HENRY;MCHENRY;USA;42.257243;-88.237778;NAT GAS P L CO OF AMERICA;NAT GAS P L CO OF AMERICA;2022/01/08 17:00:16+00
BEAMAN;GRUNDY;USA;42.267326;-92.8431;NORTHERN BORDER PIPELINE CO;NOT AVAILABLE;2022/01/08 17:00:16+00
BEAMAN;GRUNDY;USA;42.267326;-92.8431;NORTHERN BORDER PIPELINE CO;NOT AVAILABLE;2022/01/08 17:00:16+00
552190600;CHAUTAUQUA;USA;42.269696;-79.516928;TENNESSEE GAS PIPELINE CO;TENNESSEE GAS PIPELINE CO;2022/01/08 17:00:16+00
OJIBWAY TO DAWN;WAYNE;USA;42.339873;-82.96707;UNION GAS LTD;NOT AVAILABLE;2022/01/08 17:00:16+00
ANGELICA;ALLEGANY;USA;42.358154;-77.974552;DOMINION TRANSMISSION CO;DOMINION TRANSMISSION CO;2022/01/08 17:00:16+00
LINCOLN;MIDDLESEX;USA;42.445405;-71.267698;ALGONQUIN GAS TRANS CO;TENN;2022/01/08 17:00:16+00
KLAMATH FALLS;JOSEPHINE;USA;42.459577;-123.284487;NORTHWEST PIPELINE CORP;PGTC;2022/01/08 17:00:16+00
TGP - NASHVILLE STORAGE*;CHAUTAUQUA;USA;42.475344;-79.105036;NATIONAL FUEL GAS SUPPLY CO;TENN;2022/01/08 17:00:16+00
TGP - NASHVILLE STORAGE*;CHAUTAUQUA;USA;42.475344;-79.105036;NATIONAL FUEL GAS SUPPLY CO;TENN;2022/01/08 17:00:16+00
552190700;CHAUTAUQUA;USA;42.475344;-79.105036;TENNESSEE GAS PIPELINE CO;TENNESSEE GAS PIPELINE CO;2022/01/08 17:00:16+00
602450200;RENSSELAER;USA;42.547776;-73.729152;TENNESSEE GAS PIPELINE CO;TENNESSEE GAS PIPELINE CO;2022/01/08 17:00:16+00
GRUNDY CENTER;HARDIN;USA;42.55624;-93.082298;NORTHERN BORDER PIPELINE CO;NOT AVAILABLE;2022/01/08 17:00:16+00
GRUNDY CENTER;HARDIN;USA;42.55624;-93.082298;NORTHERN BORDER PIPELINE CO;NOT AVAILABLE;2022/01/08 17:00:16+00
SILVER SPRINGS;WYOMING;USA;42.563445;-78.074121;DOMINION TRANSMISSION CO;DOMINION TRANSMISSION CO;2022/01/08 17:00:16+00
NOT AVAILABLE;ALBANY;USA;42.652256;-74.095808;TENNESSEE GAS PIPELINE CO;TENNESSEE GAS PIPELINE CO;2022/01/08 17:00:16+00
NOT AVAILABLE;ALBANY;USA;42.652256;-74.095808;TENNESSEE GAS PIPELINE CO;TENNESSEE GAS PIPELINE CO;2022/01/08 17:00:16+00
WRIGHT;ALBANY;USA;42.653861;-74.175107;IROQUOIS PIPELINE CO;TENNESSEE GAS PIPELINE CO;2022/01/08 17:00:16+00
WRIGHT;ALBANY;USA;42.653861;-74.175107;IROQUOIS PIPELINE CO;TENNESSEE GAS PIPELINE CO;2022/01/08 17:00:16+00
TGP - HAMBURG E. EDEN*;ERIE;USA;42.669549;-78.775834;NATIONAL FUEL GAS SUPPLY CO;TENN;2022/01/08 17:00:16+00
TGP - HAMBURG E. EDEN*;ERIE;USA;42.669549;-78.775834;NATIONAL FUEL GAS SUPPLY CO;TENN;2022/01/08 17:00:16+00
552191050;ERIE;USA;42.701696;-78.794699;TENNESSEE GAS PIPELINE CO;TENNESSEE GAS PIPELINE CO;2022/01/08 17:00:16+00
JOHNSONBURG;WYOMING;USA;42.704005;-78.354445;DOMINION TRANSMISSION CO;DOMINION TRANSMISSION CO;2022/01/08 17:00:16+00
WYOMING;WYOMING;USA;42.704005;-78.354445;DOMINION TRANSMISSION CO;DOMINION TRANSMISSION CO;2022/01/08 17:00:16+00
DRACUT;ESSEX;USA;42.71822;-71.236357;MARITIMES/NORTHEAST PL CO;TENNESSEE GAS PIPELINE CO;2022/01/08 17:00:16+00
DRACUT SMS;ESSEX;USA;42.71822;-71.236357;PORTLAND GAS TRANS CO;TENNESSEE GAS PIPELINE CO;2022/01/08 17:00:16+00
612343045;ESSEX;USA;42.71822;-71.236357;TENNESSEE GAS PIPELINE CO;TENNESSEE GAS PIPELINE CO;2022/01/08 17:00:16+00
NOT AVAILABLE;ESSEX;USA;42.718239;-71.23624;TENNESSEE GAS PIPELINE CO;TENNESSEE GAS PIPELINE CO;2022/01/08 17:00:16+00
612453046;ESSEX;USA;42.718239;-71.23624;TENNESSEE GAS PIPELINE CO;TENNESSEE GAS PIPELINE CO;2022/01/08 17:00:16+00
DRACUT;ESSEX;USA;42.718239;-71.23624;MARITIMES/NORTHEAST PL CO;TENNESSEE GAS PIPELINE CO;2022/01/08 17:00:16+00
602453800;WYOMING;USA;42.733651;-78.406786;TENNESSEE GAS PIPELINE CO;TENNESSEE GAS PIPELINE CO;2022/01/08 17:00:16+00
JANESVILLE (N. NAT.);ROCK;USA;42.763828;-89.045472;ANR PIPELINE CO;ANR PIPELINE CO;2022/01/08 17:00:16+00
ANR;ROCK;USA;42.763828;-89.045472;NORTHERN NATURAL GAS CO;NORTHERN NATURAL GAS CO;2022/01/08 17:00:16+00
TGP - EAST AURORA*;ERIE;USA;42.76582;-78.607775;NATIONAL FUEL GAS SUPPLY CO;TENN;2022/01/08 17:00:16+00
TGP - EAST AURORA*;ERIE;USA;42.76582;-78.607775;NATIONAL FUEL GAS SUPPLY CO;TENN;2022/01/08 17:00:16+00
602453825;ERIE;USA;42.76582;-78.607775;TENNESSEE GAS PIPELINE CO;TENNESSEE GAS PIPELINE CO;2022/01/08 17:00:16+00
GLENROCK;CONVERSE;USA;42.765982;-105.57147;COLORADO INTERSTATE GAS;KNEN;2022/01/08 17:00:16+00
GLENROCK;CONVERSE;USA;42.768908;-105.572889;COLORADO INTERSTATE GAS;KMIG;2022/01/08 17:00:16+00
NOT AVAILABLE;CONVERSE;USA;42.768908;-105.572825;KM INTERSTATE GAS CO;COLORADO INTERSTATE GAS;2022/01/08 17:00:16+00
ANTELOPE;CONVERSE;USA;42.768908;-105.572889;WYOMING INTERSTATE CO;CIGG;2022/01/08 17:00:16+00
GLENROCK;CONVERSE;USA;42.768908;-105.572889;WYOMING INTERSTATE CO;KMIG;2022/01/08 17:00:16+00
NOT AVAILABLE;ST. CLAIR;USA;42.788263;-82.532605;GREAT LAKES GAS TRANS LTD;ANR PIPELINE CO;2022/01/08 17:00:16+00
NOT AVAILABLE;ST. CLAIR;USA;42.788263;-82.532605;GREAT LAKES GAS TRANS LTD;ANR PIPELINE CO;2022/01/08 17:00:16+00
HAVERHILL;ESSEX;USA;42.788437;-71.100536;MARITIMES/NORTHEAST PL CO;TENNESSEE GAS PIPELINE CO;2022/01/08 17:00:16+00
HAVERILL MS - INTERCONNECT (W/ TENN;ESSEX;USA;42.788437;-71.100536;PORTLAND GAS TRANS CO;TENNESSEE GAS PIPELINE CO;2022/01/08 17:00:16+00
NOT AVAILABLE;FREMONT;USA;42.7904;-108.286976;KM INTERSTATE GAS CO;WILLISTON BASIN I P L CO;2022/01/08 17:00:16+00
NOT AVAILABLE;FREMONT;USA;42.7904;-108.286976;KM INTERSTATE GAS CO;WILLISTON BASIN I P L CO;2022/01/08 17:00:16+00
BRIDGER;FREMONT;USA;42.7904;-108.286976;WILLISTON BASIN I P L CO;KMIG;2022/01/08 17:00:16+00
HILAND;NATRONA;USA;42.796288;-107.035392;COLORADO INTERSTATE GAS;KNEN;2022/01/08 17:00:16+00
NOT AVAILABLE;NATRONA;USA;42.796288;-107.035392;KM INTERSTATE GAS CO;COLORADO INTERSTATE GAS;2022/01/08 17:00:16+00
PORTERVILLE;ERIE;USA;42.810511;-78.627097;DOMINION TRANSMISSION CO;DOMINION TRANSMISSION CO;2022/01/08 17:00:16+00
552191125;LIVINGSTON;USA;42.816387;-77.934342;TENNESSEE GAS PIPELINE CO;TENNESSEE GAS PIPELINE CO;2022/01/08 17:00:16+00
WHITEWATER;WALWORTH;USA;42.81847;-88.738121;NORTHERN NATURAL GAS CO;NORTHERN NATURAL GAS CO;2022/01/08 17:00:16+00
POWER RIVER BASIN STATION;CONVERSE;USA;42.819714;-105.570747;MIGC PIPELINE SYSTEM;COLORADO INTERSTATE GAS;2022/01/08 17:00:16+00
552191675;MADISON;USA;42.842512;-75.738448;TENNESSEE GAS PIPELINE CO;TENNESSEE GAS PIPELINE CO;2022/01/08 17:00:16+00
MORRISVILLE;MADISON;USA;42.842512;-75.738448;DOMINION TRANSMISSION CO;DOMINION TRANSMISSION CO;2022/01/08 17:00:16+00
NOT AVAILABLE;MADISON;USA;42.842512;-75.738448;TENNESSEE GAS PIPELINE CO;TENNESSEE GAS PIPELINE CO;2022/01/08 17:00:16+00
602453775;ERIE;USA;42.845094;-78.597422;TENNESSEE GAS PIPELINE CO;TENNESSEE GAS PIPELINE CO;2022/01/08 17:00:16+00
NOT AVAILABLE;ST. CLAIR;USA;42.851692;-82.700473;GREAT LAKES GAS TRANS LTD;ANR PIPELINE CO;2022/01/08 17:00:16+00
NOT AVAILABLE;ST. CLAIR;USA;42.851692;-82.700473;GREAT LAKES GAS TRANS LTD;ANR PIPELINE CO;2022/01/08 17:00:16+00
MUTTONVILLE/ANR;ST. CLAIR;USA;42.856323;-82.7126;GREAT LAKES GAS TRANS LTD;ANR PIPELINE CO;2022/01/08 17:00:16+00
MUTTONVILLE/ANR LINK;ST. CLAIR;USA;42.856323;-82.7126;GREAT LAKES GAS TRANS LTD;ANR PIPELINE CO;2022/01/08 17:00:16+00
MUTTONVILLE/GREENWOOD;ST. CLAIR;USA;42.856323;-82.7126;GREAT LAKES GAS TRANS LTD;ANR PIPELINE CO;2022/01/08 17:00:16+00
MUTTONVILLE/SEMCO;ST. CLAIR;USA;42.856323;-82.7126;GREAT LAKES GAS TRANS LTD;ANR PIPELINE CO;2022/01/08 17:00:16+00
CANAJOHARIE;MONTGOMERY;USA;42.863688;-74.632618;IROQUOIS PIPELINE CO;DOMINION TRANSMISSION CO;2022/01/08 17:00:16+00
CANAJOHARIE;MONTGOMERY;USA;42.863688;-74.632618;IROQUOIS PIPELINE CO;DOMINION TRANSMISSION CO;2022/01/08 17:00:16+00
WHITEWATER;JEFFERSON;USA;42.872552;-88.55303;NORTHERN NATURAL GAS CO;NORTHERN NATURAL GAS CO;2022/01/08 17:00:16+00
ABERDEEN;O'BRIEN;USA;42.925952;-95.632512;NORTHERN NATURAL GAS CO;NORTHERN NATURAL GAS CO;2022/01/08 17:00:16+00
CAPAC;ST. CLAIR;USA;42.932336;-82.911632;GREAT LAKES GAS TRANS LTD;ANR PIPELINE CO;2022/01/08 17:00:16+00
CALEDONIA (BARKS ROAD);LIVINGSTON;USA;42.938275;-77.827067;DOMINION TRANSMISSION CO;DOMINION TRANSMISSION CO;2022/01/08 17:00:16+00
NOT AVAILABLE;ST. CLAIR;USA;42.947807;-82.95214;GREAT LAKES GAS TRANS LTD;ANR PIPELINE CO;2022/01/08 17:00:16+00
552191200;ONTARIO;USA;42.958553;-77.237473;TENNESSEE GAS PIPELINE CO;TENNESSEE GAS PIPELINE CO;2022/01/08 17:00:16+00
552191500;ONTARIO;USA;42.959055;-77.180795;TENNESSEE GAS PIPELINE CO;TENNESSEE GAS PIPELINE CO;2022/01/08 17:00:16+00
602453675;ERIE;USA;42.995364;-78.635129;TENNESSEE GAS PIPELINE CO;TENNESSEE GAS PIPELINE CO;2022/01/08 17:00:16+00
TGP - CLARENCE*;ERIE;USA;43.064793;-78.623075;NATIONAL FUEL GAS SUPPLY CO;TENN;2022/01/08 17:00:16+00
VENTURA;HANCOCK;USA;43.077888;-93.558272;NORTHERN NATURAL GAS CO;NORTHERN NATURAL GAS CO;2022/01/08 17:00:16+00
VENTURA;HANCOCK;USA;43.077888;-93.558272;NORTHERN BORDER PIPELINE CO;NNAT;2022/01/08 17:00:16+00
VENTURA;HANCOCK;USA;43.077888;-93.558272;NORTHERN BORDER PIPELINE CO;NNAT;2022/01/08 17:00:16+00
NEWINGTON;ROCKINGHAM;USA;43.088714;-70.801681;MARITIMES/NORTHEAST PL CO;GRANITE STATE GAS TRANS INC;2022/01/08 17:00:16+00
NEWINGTN GS - GRANITE STATE TRANS I;ROCKINGHAM;USA;43.088714;-70.801681;PORTLAND GAS TRANS CO;GRANITE STATE GAS TRANS INC;2022/01/08 17:00:16+00
ELIOT MS;YORK;USA;43.132406;-70.790749;PORTLAND GAS TRANS CO;ELIOT;2022/01/08 17:00:16+00
OTISVILLE;GENESEE;USA;43.143168;-83.529216;GREAT LAKES GAS TRANS LTD;ANR PIPELINE CO;2022/01/08 17:00:16+00
TGP - PEKIN*;NIAGARA;USA;43.172959;-78.89356;NATIONAL FUEL GAS SUPPLY CO;TENN;2022/01/08 17:00:16+00
602453425;NIAGARA;USA;43.179272;-79.029442;TENNESSEE GAS PIPELINE CO;TENNESSEE GAS PIPELINE CO;2022/01/08 17:00:16+00
602453450;NIAGARA;USA;43.179272;-79.029442;TENNESSEE GAS PIPELINE CO;TENNESSEE GAS PIPELINE CO;2022/01/08 17:00:16+00
TGP - LEWISTON*;NIAGARA;USA;43.180849;-79.003868;NATIONAL FUEL GAS SUPPLY CO;TENN;2022/01/08 17:00:16+00
NOT AVAILABLE;FREMONT;USA;43.27562;-107.615938;KM INTERSTATE GAS CO;COLORADO INTERSTATE GAS;2022/01/08 17:00:16+00
LEDYARD;KOSSUTH;USA;43.447655;-94.237345;NORTHERN BORDER PIPELINE CO;NOT AVAILABLE;2022/01/08 17:00:16+00
LEDYARD;KOSSUTH;USA;43.447655;-94.237345;NORTHERN BORDER PIPELINE CO;NOT AVAILABLE;2022/01/08 17:00:16+00
WELCOME;MARTIN;USA;43.660819;-94.572548;NORTHERN NATURAL GAS CO;NORTHERN NATURAL GAS CO;2022/01/08 17:00:16+00
WELCOME;MARTIN;USA;43.660819;-94.572548;NORTHERN BORDER PIPELINE CO;NNAT;2022/01/08 17:00:16+00
WELCOME;MARTIN;USA;43.660819;-94.572548;NORTHERN BORDER PIPELINE CO;NNAT;2022/01/08 17:00:16+00
CALPINE;CUMBERLAND;USA;43.684574;-70.407454;MARITIMES/NORTHEAST PL CO;MARITIMES & NORTHEAST PL CO;2022/01/08 17:00:16+00
WESTBROOK EXCHANGE;CUMBERLAND;USA;43.684574;-70.407454;MARITIMES/NORTHEAST PL CO;PNGTS/MARITIMES & NORTHEAST PL CO;2022/01/08 17:00:16+00
WESTBROOK;CUMBERLAND;USA;43.68458;-70.407437;MARITIMES/NORTHEAST PL CO;PORTLAND GAS TRANS CO;2022/01/08 17:00:16+00
WESTBROOK;CUMBERLAND;USA;43.684582;-70.407445;GRANITE STATE GAS TRANS CO;PORTLAND GAS TRANS CO;2022/01/08 17:00:16+00
WESTBROOK;CUMBERLAND;USA;43.684584;-70.407453;MARITIMES/NORTHEAST PL CO;MARITIMES/NORTHEAST PL CO;2022/01/08 17:00:16+00
WBRK MN - INTERCONNECTION (W/MARTIM;CUMBERLAND;USA;43.684584;-70.407453;PORTLAND GAS TRANS CO;PNGTS/MARITIMES & NORTHEAST PL CO;2022/01/08 17:00:16+00
WESTBRK MS - GRANITE STATE GAS TRAN;CUMBERLAND;USA;43.684584;-70.407453;PORTLAND GAS TRANS CO;GRANITE STATE GAS TRANS CO;2022/01/08 17:00:16+00
NOT AVAILABLE;CLARE;USA;43.93465;-84.940871;ANR PIPELINE CO;ANR PIPELINE CO;2022/01/08 17:00:16+00
FARWELL;CLARE;USA;43.93465;-84.940871;GREAT LAKES GAS TRANS LTD;ANR PIPELINE CO;2022/01/08 17:00:16+00
NOT AVAILABLE;CLARE;USA;43.93465;-84.940871;GREAT LAKES GAS TRANS LTD;ANR PIPELINE CO;2022/01/08 17:00:16+00
NOT AVAILABLE;CLARE;USA;43.93465;-84.940871;GREAT LAKES GAS TRANS LTD;ANR PIPELINE CO;2022/01/08 17:00:16+00
MARSHALL;LYON;USA;44.275777;-95.871762;NORTHERN BORDER PIPELINE CO;NNAT;2022/01/08 17:00:16+00
MARSHALL;LYON;USA;44.275777;-95.871762;NORTHERN BORDER PIPELINE CO;NNAT;2022/01/08 17:00:16+00
BALATON;LYON;USA;44.288771;-95.905967;NORTHERN BORDER PIPELINE CO;NOT AVAILABLE;2022/01/08 17:00:16+00
BALATON;LYON;USA;44.288771;-95.905967;NORTHERN BORDER PIPELINE CO;NOT AVAILABLE;2022/01/08 17:00:16+00
TYLER;LYON;USA;44.357805;-96.041665;NORTHERN BORDER PIPELINE CO;NNAT;2022/01/08 17:00:16+00
TYLER;LYON;USA;44.357805;-96.041665;NORTHERN BORDER PIPELINE CO;NNAT;2022/01/08 17:00:16+00
IVANHOE;LINCOLN;USA;44.40918;-96.144697;NORTHERN BORDER PIPELINE CO;NOT AVAILABLE;2022/01/08 17:00:16+00
IVANHOE;LINCOLN;USA;44.40918;-96.144697;NORTHERN BORDER PIPELINE CO;NOT AVAILABLE;2022/01/08 17:00:16+00
MARSHFIELD/VIKING;WOOD;USA;44.61972;-90.195901;ANR PIPELINE CO;ANR PIPELINE CO;2022/01/08 17:00:16+00
MARSHFIELD;WOOD;USA;44.61972;-90.195901;VIKING GAS TRANSMISSION CO;ANRP;2022/01/08 17:00:16+00
MILBANK;DEUEL;USA;44.628931;-96.690695;NORTHERN BORDER PIPELINE CO;NOT AVAILABLE;2022/01/08 17:00:16+00
MILBANK;DEUEL;USA;44.628931;-96.690695;NORTHERN BORDER PIPELINE CO;NOT AVAILABLE;2022/01/08 17:00:16+00
GRIZZLY METER STATION;PARK;USA;44.8039;-108.69178;COLORADO INTERSTATE GAS COMPANY LLC (KINDER MORGAN);NOT AVAILABLE;2022/01/08 17:00:16+00
RECLUSE - MTR 834B;CAMPBELL;USA;44.856224;-105.798704;MIGC PIPELINE SYSTEM;WILLISTON BASIN I P L CO;2022/01/08 17:00:16+00
SOUTH CHESTER;OTSEGO;USA;44.904153;-84.837988;GREAT LAKES GAS TRANS LTD;ANR PIPELINE CO;2022/01/08 17:00:16+00
NOT AVAILABLE;OTSEGO;USA;44.904153;-84.837988;GREAT LAKES GAS TRANS LTD;ANR PIPELINE CO;2022/01/08 17:00:16+00
NOT AVAILABLE;OTSEGO;USA;44.904154;-84.837953;GREAT LAKES GAS TRANS LTD;ANR PIPELINE CO;2022/01/08 17:00:16+00
NOT AVAILABLE;OTSEGO;USA;44.904154;-84.837953;GREAT LAKES GAS TRANS LTD;ANR PIPELINE CO;2022/01/08 17:00:16+00
NOT AVAILABLE;OTSEGO;USA;44.904166;-84.837953;GREAT LAKES GAS TRANS LTD;ANR PIPELINE CO;2022/01/08 17:00:16+00
KALKASKA;OTSEGO;USA;44.904185;-84.818193;ANR PIPELINE CO;ANR PIPELINE CO;2022/01/08 17:00:16+00
ELK BASIN;PARK;USA;44.915584;-108.776911;COLORADO INTERSTATE GAS;WBAS;2022/01/08 17:00:16+00
ELK BASIN;PARK;USA;44.915584;-108.776911;COLORADO INTERSTATE GAS;WBAS;2022/01/08 17:00:16+00
ELK BASIN;PARK;USA;44.915584;-108.776911;WILLISTON BASIN I P L CO;CIGG;2022/01/08 17:00:16+00
JORDAN VALLEY;OTSEGO;USA;45.026819;-84.83007;GREAT LAKES GAS TRANS LTD;NOT AVAILABLE;2022/01/08 17:00:16+00
TCPL (TQM PL) INTERCONNECT;COOS;USA;45.031284;-71.492914;PORTLAND GAS TRANS CO;TRANSCANADA PL CO;2022/01/08 17:00:16+00
WSTBROOK, ME- M&N INTERCONNECT;COOS;USA;45.031284;-71.492914;PORTLAND GAS TRANS CO;MARITIMES/NORTHEAST PL CO;2022/01/08 17:00:16+00
BAILEYVILLE DELIVERY POINT;WASHINGTON;USA;45.185878;-67.45798;MARITIMES/NORTHEAST PL CO;MARITIMES/NORTHEAST PL CANADA;2022/01/08 17:00:16+00
BAILEYVILLE;WASHINGTON;USA;45.203959;-67.430654;MARITIMES/NORTHEAST PL CO;MARITIMES/NORTHEAST PL CANADA;2022/01/08 17:00:16+00
ABERDEEN;BROWN;USA;45.243904;-98.183168;NORTHERN BORDER PIPELINE CO;NNAT;2022/01/08 17:00:16+00
ABERDEEN;BROWN;USA;45.243904;-98.183168;NORTHERN BORDER PIPELINE CO;NNAT;2022/01/08 17:00:16+00
POLK;POLK;USA;45.27516;-92.430924;VIKING GAS TRANSMISSION CO;NNAT;2022/01/08 17:00:16+00
VIKING CHISAGO;CHISAGO;USA;45.483764;-92.98644;NORTHERN NATURAL GAS CO;NORTHERN NATURAL GAS CO;2022/01/08 17:00:16+00
PIERZ;CHISAGO;USA;45.497759;-92.988729;NORTHERN NATURAL GAS CO;NORTHERN NATURAL GAS CO;2022/01/08 17:00:16+00
CAMBRIDGE;CHISAGO;USA;45.497759;-92.988729;VIKING GAS TRANSMISSION CO;NNAT;2022/01/08 17:00:16+00
CAMBRIDGE;CHISAGO;USA;45.497759;-92.988729;VIKING GAS TRANSMISSION CO;NNAT;2022/01/08 17:00:16+00
CHISAGO;CHISAGO;USA;45.497759;-92.988729;VIKING GAS TRANSMISSION CO;NNAT;2022/01/08 17:00:16+00
CHISAGO;CHISAGO;USA;45.497759;-92.988729;VIKING GAS TRANSMISSION CO;NNAT;2022/01/08 17:00:16+00
STANFIELD METER;UMATILLA;USA;45.841699;-119.180684;GAS TRANSMISSION NORTHWEST;NORTHWEST PIPELINE CORP;2022/01/08 17:00:16+00
STANFIELD;UMATILLA;USA;45.841699;-119.180684;NORTHWEST PIPELINE CORP;PGTC;2022/01/08 17:00:16+00
STANFIELD (NWP TO PGT);UMATILLA;USA;45.841699;-119.180684;NORTHWEST PIPELINE CORP;PGTC;2022/01/08 17:00:16+00
GENOLA;MORRISON;USA;45.948824;-94.145359;VIKING GAS TRANSMISSION CO;NNAT;2022/01/08 17:00:16+00
GENOLA;MORRISON;USA;45.948824;-94.145359;VIKING GAS TRANSMISSION CO;NNAT;2022/01/08 17:00:16+00
CRYSTAL FALLS-FORTUNE LAKE (G.L.T.C.);IRON;USA;46.09689;-88.461045;ANR PIPELINE CO;ANR PIPELINE CO;2022/01/08 17:00:16+00
FORTUNE LAKE;IRON;USA;46.09689;-88.461045;GREAT LAKES GAS TRANS LTD;ANR PIPELINE CO;2022/01/08 17:00:16+00
FORTUNE LAKE;IRON;USA;46.09689;-88.461045;GREAT LAKES GAS TRANS LTD;CENTERPOINT ENERGY GAS TRANS CO;2022/01/08 17:00:16+00
FORTUNE LAKE;IRON;USA;46.09689;-88.461045;GREAT LAKES GAS TRANS LTD;NAT GAS P L CO OF AMERICA;2022/01/08 17:00:16+00
NOT AVAILABLE;IRON;USA;46.09689;-88.461045;GREAT LAKES GAS TRANS LTD;ANR PIPELINE CO;2022/01/08 17:00:16+00
SAULT STE. MARIE;CHIPPEWA;USA;46.467704;-84.451313;GREAT LAKES GAS TRANS LTD;TRANSCANADA PL CO;2022/01/08 17:00:16+00
WAKEFIELD;GOGEBIC;USA;46.49964;-89.96989;NORTHERN NATURAL GAS CO;NORTHERN NATURAL GAS CO;2022/01/08 17:00:16+00
CARLTON MINN. INTERCONNECTION;CARLTON;USA;46.64268;-92.464463;NORTHERN NATURAL GAS CO;NORTHERN NATURAL GAS CO;2022/01/08 17:00:16+00
CARLTON;CARLTON;USA;46.64268;-92.464463;GREAT LAKES GAS TRANS LTD;NOT AVAILABLE;2022/01/08 17:00:16+00
CARLTON;CARLTON;USA;46.64268;-92.464463;GREAT LAKES GAS TRANS LTD;ANR PIPELINE CO;2022/01/08 17:00:16+00
CARLTON;CARLTON;USA;46.64268;-92.464463;GREAT LAKES GAS TRANS LTD;GULF SOUTH PIPELINE CO;2022/01/08 17:00:16+00
NOT AVAILABLE;CARLTON;USA;46.64268;-92.464463;GREAT LAKES GAS TRANS LTD;RELIANT ENERGY GAS TRANS CO;2022/01/08 17:00:16+00
GLEN ULLIN;MORTON;USA;46.831414;-101.880658;NORTHERN BORDER PIPELINE CO;WBAS;2022/01/08 17:00:16+00
GLEN ULLIN;MORTON;USA;46.831414;-101.880658;NORTHERN BORDER PIPELINE CO;WBAS;2022/01/08 17:00:16+00
GLEN ULLIN;MORTON;USA;46.831414;-101.880658;WILLISTON BASIN I P L CO;NBOR;2022/01/08 17:00:16+00
PALOUSE;WHITMAN;USA;46.930035;-117.761682;NORTHWEST PIPELINE CORP;PGTC;2022/01/08 17:00:16+00
SPOKANE;SPOKANE;USA;47.716633;-117.061368;NORTHWEST PIPELINE CORP;PGTC;2022/01/08 17:00:16+00
MULTIPLE POINTS (26);SPOKANE;USA;47.716655;-117.061313;GAS TRANSMISSION NORTHWEST;NORTHWEST PIPELINE CORP;2022/01/08 17:00:16+00
7: MORGAN CREEK-WILLISTON;MCKENZIE;USA;47.931648;-103.92064;WILLISTON BASIN I P L CO;NNAT;2022/01/08 17:00:16+00
FORT BUFORD;MCKENZIE;USA;47.931648;-103.92064;WILLISTON BASIN I P L CO;NNAT;2022/01/08 17:00:16+00
BUFORD;MCKENZIE;USA;47.939122;-103.891266;NORTHERN BORDER PIPELINE CO;WBAS;2022/01/08 17:00:16+00
BUFORD;MCKENZIE;USA;47.939122;-103.891266;NORTHERN BORDER PIPELINE CO;WBAS;2022/01/08 17:00:16+00
VANDALIA;VALLEY;USA;48.430208;-107.237504;WILLISTON BASIN I P L CO;KMIG;2022/01/08 17:00:16+00
ST. VINCENT;KITTSON;USA;48.980132;-97.053932;VIKING GAS TRANSMISSION CO;ANRP;2022/01/08 17:00:16+00
EMERSON;KITTSON;USA;49.000418;-97.054625;GREAT LAKES GAS TRANS LTD;ANR PIPELINE CO;2022/01/08 17:00:16+00
EMERSON, MANITOBA;KITTSON;USA;49.000418;-97.054625;GREAT LAKES GAS TRANS LTD;NAT GAS P L CO OF AMERICA;2022/01/08 17:00:16+00
EMERSON, MANITOBA;KITTSON;USA;49.000418;-97.054625;GREAT LAKES GAS TRANS LTD;ANR PIPELINE CO;2022/01/08 17:00:16+00
EMERSON, MANITOBA;KITTSON;USA;49.000418;-97.054625;GREAT LAKES GAS TRANS LTD;TRANSCANADA LTD;2022/01/08 17:00:16+00
NOT AVAILABLE;NOT AVAILABLE;CAN;49.007617;-116.182562;ALBERTA NATURAL GAS CO;NOT AVAILABLE;2022/01/08 17:00:16+00
NOT AVAILABLE;NOT AVAILABLE;CAN;49.007617;-116.182562;ALBERTA NATURAL GAS CO;NOT AVAILABLE;2022/01/08 17:00:16+00
CWNG AND NOVA INTERCONNECTION;NOT AVAILABLE;CAN;49.794326;-113.056913;NOVA PIPELINE CO;CWNG AND NOVA INTERCONNECTION;2022/01/08 17:00:16+00
NOVA AND FT_A INTERSECTION;NOT AVAILABLE;CAN;49.80316;-114.158793;NOVA PIPELINE CO;NOVA AND FT_A INTERSECTION;2022/01/08 17:00:16+00
CWNG AND NOVA INTERCONNECTION;NOT AVAILABLE;CAN;49.870192;-112.944994;NOVA PIPELINE CO;CWNG AND NOVA INTERCONNECTION;2022/01/08 17:00:16+00
NOVA AND FT_A INTERSECTION;NOT AVAILABLE;CAN;50.194994;-114.181972;NOVA PIPELINE CO;NOVA AND FT_A INTERSECTION;2022/01/08 17:00:16+00
CWNG AND NOVA INTERCONNECTION;NOT AVAILABLE;CAN;50.266889;-112.888556;NOVA PIPELINE CO;CWNG AND NOVA INTERCONNECTION;2022/01/08 17:00:16+00
CWNG;NOT AVAILABLE;CAN;50.696132;-114.316561;NOVA PIPELINE CO;CWNG;2022/01/08 17:00:16+00
CWNG;NOT AVAILABLE;CAN;50.890732;-114.377363;NOVA PIPELINE CO;CWNG;2022/01/08 17:00:16+00
NOVA AND FT_A INTERSECTION;NOT AVAILABLE;CAN;51.041921;-114.466447;NOVA PIPELINE CO;NOVA AND FT_A INTERSECTION;2022/01/08 17:00:16+00
NOVA AND FT_A INTERSECTION;NOT AVAILABLE;CAN;51.514044;-114.563667;NOVA PIPELINE CO;NOVA AND FT_A INTERSECTION;2022/01/08 17:00:16+00
NOVA AND FT_A INTERCONNECTION;NOT AVAILABLE;CAN;51.660461;-114.576968;NOVA PIPELINE CO;NOVA AND FT_A INTERCONNECTION;2022/01/08 17:00:16+00
NOVA;NOT AVAILABLE;CAN;52.319242;-113.080498;NOVA PIPELINE CO;NOVA;2022/01/08 17:00:16+00
NWUL;NOT AVAILABLE;CAN;52.977794;-110.769847;NOVA PIPELINE CO;NWUL;2022/01/08 17:00:16+00
NWUL;NOT AVAILABLE;CAN;53.341181;-111.24694;NOVA PIPELINE CO;NWUL;2022/01/08 17:00:16+00
ABSN;NOT AVAILABLE;CAN;54.093951;-113.63117;NOVA PIPELINE CO;ABSN;2022/01/08 17:00:16+00
NOVA AND NWUL INTERCONNECTION;NOT AVAILABLE;CAN;55.195157;-118.965073;NOVA PIPELINE CO;NOVA AND NWUL INTERCONNECTION;2022/01/08 17:00:16+00
NOVA AND NWUL INTERCONNECTION;NOT AVAILABLE;CAN;55.253082;-114.568099;NOVA PIPELINE CO;NOVA AND NWUL INTERCONNECTION;2022/01/08 17:00:16+00
SIMM;NOT AVAILABLE;CAN;55.705772;-111.275713;NOVA PIPELINE CO;SIMM;2022/01/08 17:00:16+00
ROCKY MOUNTAIN PLS - LABARGE STATION;LINCOLN;USA;42.254189;-110.235077;AMOCO PIPELINE CO.;ROCKY MOUNTAIN PLS - LABARGE STATION;2022/01/08 17:00:16+00
BENGAL PIPELINE COMPANY, LLC - BATON ROUGE TANK FARM;EAST FELICIANA;USA;30.71977;-91.273564;BENGAL PIPELINE COMPANY, LLC;COLONIAL PIPELINE COMPANY;2022/01/08 17:00:16+00
BP PIPELINE NA FOSTORIA TANK FARM;SENECA;USA;41.14327;-83.44522;BP PRODUCTS CO. NORTH AMERICA;SUNOCO LOGISTICS;2022/01/08 17:00:16+00
BP PRODUCTS NA (TEXAS CITY REFINERY);GALVESTON;USA;29.374444;-94.925;BP PRODUCTS NORTH AMERICA INC.;BLANCHARD REFINING COMPANY LLC;2022/01/08 17:00:16+00
CAPLIEN PATOKA STATION;MARION;USA;38.786868;-89.066428;BP PLAINS, HARDIN;SHELL PIPELINE COMPANY, LP;2022/01/08 17:00:16+00
BUCKEYE TERMINALS, LLC - HARTSDALE STATION;LAKE;USA;41.5072;-87.4515;BUCKEYE PARTNERS LP;TRANSMONTAIGNE PIPELINE, INC.;2022/01/08 17:00:16+00
BUCKEYE PIPELINE TRANSPORATION COMPANY - BRADLEY STATION;CUYAHOGA;USA;41.43521;-81.66976;BUCKEYE PARTNERS LP;SUNOCO LOGISTICS;2022/01/08 17:00:16+00
BROADWAY L316-L523 CONNECTOR PIPELINE PROJECT;CUYAHOGA;USA;41.42702;-81.65754;BUCKEYE PARTNERS LP;JORDAN NICHOLSON;2022/01/08 17:00:16+00
BUCKEYE PIPELINE LUDLOW STATION;HAMPDEN;USA;42.18727;-72.5013;BUCKEYE PIPELINE CO LP;JET LINES INC. LUDLOW;2022/01/08 17:00:16+00
BUCKEYE PIPELINE CO - LINDEN STATION;UNION;USA;40.607771;-74.235089;BUCKEYE PIPELINE CO LP;CITGO PETROLEUM CORPORATION;2022/01/08 17:00:16+00
BUCKEYE DES PLAINES;COOK;USA;42.03004;-87.94598;BUCKEYE PIPELINE COMPANY;WOOD RIVER PIPELINES;2022/01/08 17:00:16+00
BUCKEYE PIPELINE MALVERN TERMINAL;CHESTER;USA;40.04216;-75.53943;BUCKEYE PIPELINE TRANSPORT LLC;EXXONMOBIL CORP.;2022/01/08 17:00:16+00
BUCKEYE MARCY TERMINAL;ONEIDA;USA;43.131333;-75.254333;BUCKEYE TERMINAL, LLC;AGWAY PETROLEUM CORP.;2022/01/08 17:00:16+00
CHEVRON PIPELINE COMPANY;KERN;USA;35.16756;-119.46303;CHEVRON PIPELINE COMPANY;CRIMSON CALIFORNIA PIPELINE LP;2022/01/08 17:00:16+00
CHEVRON PRODUCTS CO. ALBUQUERQUE TERMIANL;BERNALILLO;USA;35.04618;-106.64714;CHEVRON USA INC.;MAGELLAN PIPELINE COMPANY, LP;2022/01/08 17:00:16+00
WORTHAM STATION;FREESTONE;USA;31.776708;-96.400981;CHEVRON PIPELINE CO.;WEST TEXAS GULF PIPELINE CO.;2022/01/08 17:00:16+00
CHICAP PIPELINE CO MOKENA;WILL;USA;41.554928;-87.887924;CHICAP PIPELINE CO. MOKENA;BP PIPELINES NA INC.;2022/01/08 17:00:16+00
CHICAP PIPELINES PATOKA;MARION;USA;38.786819;-89.072538;CHICAP PIPELINE CO. MOKENA;BP PIPELINES NA INC.;2022/01/08 17:00:16+00
SOUR LAKE TANK FARM;HARDIN;USA;30.14503;-94.40214;CITGO PIPELINE COMPANY;APAC-TEXAS, INC.;2022/01/08 17:00:16+00
COFFEYVILLE RESOURCES CRUDE TRANSPORTATION;ALLEN;USA;37.797414;-95.325502;COFFEYVILLE RESOURCES CRUDE TRANSPORATION, LLC;MAGELLAN PIPELINE COMPANY, LP;2022/01/08 17:00:16+00
EXXONMOBIL OIL COLONIAL STORAGE FACILITY;JEFFERSON;USA;29.975833;-94.058333;COLONIAL PIPELINE COMPANY;EXXONMOBIL OIL CORPORATION;2022/01/08 17:00:16+00
COLONIAL PIPELINE CO - BATON ROUGE JUNCTION FACILITY;EAST FELICIANA;USA;30.710219;-91.28651;COLONIAL PIPELINE COMPANY INC.;SHELL TRADING (US) COMPANY;2022/01/08 17:00:16+00
CONOCOPHILLIPS MOUNT PLEASANT;TITUS;USA;33.155078;-94.982777;CONOCOPHILLIPS CO.;DELEK LOGISTICS PARTNERS, LP;2022/01/08 17:00:16+00
CONOCOPHILLIPS CORPORATION;CONTRA COSTA;USA;38.02503;-122.06886;CONOCOPHILLIPS CORPORATION;TESORO REFINING & MARKETING CO.;2022/01/08 17:00:16+00
CONOCOPHILLIPS VENTURA STATION;VENTURA;USA;34.243258;-119.259652;CRIMSON PIPELINE;CONOCOPHILLIPS COMPANY;2022/01/08 17:00:16+00
CONOCOPHILLPS CO JONES CREEK TERMINAL;BRAZORIA;USA;28.940249;-95.430221;CONOCOPHILLIPS COMPANY;NOT AVAILABLE;2022/01/08 17:00:16+00
CRIMSON PIPELINE, LP;VENTURA;USA;34.31688;-119.290665;CRIMSON PIPELINE, LP;SHELL CA PIPELINE CO LLC;2022/01/08 17:00:16+00
ENBRIDGE ENERGY LIMITED PARTNERSHIP;LIVINGSTON;USA;40.942795;-88.648532;ENBRIDGE ENERGY LIMITED PARTNERSHIP;BP PIPELINES NORTH AMERICA INC;2022/01/08 17:00:16+00
TEPPCO BOWIE PIPELINE STATION;MONTAGUE;USA;33.5625;-97.8708;ENTERPRISE CRUDE PIPELINE LLC;BP PIPELINES NORTH AMERICA INC.;2022/01/08 17:00:16+00
SEAWAY TEXAS CITY STATION;GALVESTON;USA;29.346014;-94.936628;ENTERPRISE CRUDE PIPELINE LLC;ARCO PIPELINE COMPANY;2022/01/08 17:00:16+00
ENTERPRISE PRODUCTS;SCOTT;USA;37.22618;-89.48275;ENTERPRISE PRODUCTS;TE PRODUCTS PIPELINE COMPANY;2022/01/08 17:00:16+00
ENTERPRISE SEYMOUR TERMINAL;JACKSON;USA;39.02567;-85.850685;ENTERPRISE PRODUCTS;ENTERPRISE PRODUCTS;2022/01/08 17:00:16+00
CREAL SPRINGS TERMINAL;WILLIAMSON;USA;37.64381;-88.87877;ENTERPRISE PRODUCTS OPERATING;CENTENNIAL PIPELINE LLC;2022/01/08 17:00:16+00
TEXAS CITY TERMINAL;GALVESTON;USA;29.37735;-94.91434;ENTERPRISE PRODUCTS OPERATING LLC;EL PASO CORPORATION;2022/01/08 17:00:16+00
ENTERPRISE REFINED PRODUCTS CO;UNION;USA;33.25433;-92.633611;ENTERPRISE REFINED PRODUCTS COMPANY LLC;TE PRODUCTS PIPELINE COMPANY;2022/01/08 17:00:16+00
TEXAS EASTERN PRODUCTS PIPELINE CO - EL DORADO P-5 TERMINAL;UNION;USA;33.265126;-92.629608;ENTERPRISE REFINED PRODUCTS COMPANY LLC;TE PRODUCTS PIPELINE COMPANY;2022/01/08 17:00:16+00
MCRAE TERMINAL;WHITE;USA;35.127481;-91.755813;ENTERPRISE REFINED PRODUCTS COMPANY LLC;TE PRODUCTS PIPELINE COMPANY;2022/01/08 17:00:16+00
ENTERPRISE REFINED PRODUCTS;PHILLIPS;USA;34.506128;-90.598039;ENTERPRISE REFINED PRODUCTS COMPANY LLC;TE PRODUCTS PIPELINE COMPANY;2022/01/08 17:00:16+00
ENTERPRISE REFINED PRODUCTS;PULASKI;USA;34.863719;-92.073755;ENTERPRISE REFINED PRODUCTS COMPANY LLC;TE PRODUCTS PIPELINE COMPANY;2022/01/08 17:00:16+00
NORTH LITTLE ROCK DELIVERY;PULASKI;USA;34.775333;-92.173944;ENTERPRISE REFINED PRODUCTS COMPANY LLC;TE PRODUCTS PIPELINE COMPANY;2022/01/08 17:00:16+00
ENTERPRISE INDIANAPOLIS TERMINAL;HENDRICKS;USA;39.807343;-86.333024;ENTERPRISE REFINED PRODUCTS COMPANY LLC;TE PRODUCTS PIPELINE COMPANY;2022/01/08 17:00:16+00
PRINCETON TERMINAL;GIBSON;USA;38.307333;-87.393222;ENTERPRISE TERMINALS & STORAGE COMPANY LLC;TE PRODUCTS PIPELINE COMPANY;2022/01/08 17:00:16+00
EQUILON CHASE TERMINAL CO AURORA TERMINAL;ARAPAHOE;USA;39.76042;-104.8137;EQUILON ENTERPRISES LLC;MAGELLAN PIPELINE COMPANY, LP;2022/01/08 17:00:16+00
EXPLORER PIPELINE CO - FAUNA PUMP STATION;HARRIS;USA;29.81767;-95.1825;EXPLORER PIPELINE CO.;CITGO PRODUCTS PIPELINE COMPANY;2022/01/08 17:00:16+00
ARLINGTON PUMPING STATION PIPELINE BREAKOUT STATION;TARRANT;USA;32.81087;-97.10259;EXPLORER PIPELINE CO.;CITGO PRODUCTS PIPELINE COMPANY;2022/01/08 17:00:16+00
ARLINGTON PUMPING STATION PIPELINE BREAKOUT STATION;TARRANT;USA;32.81087;-97.10259;EXPLORER PIPELINE CO.;CITGO PRODUCTS PIPELINE COMPANY;2022/01/08 17:00:16+00
EXPLORER PIPELINE COMPANY - HAMMOND FACILITY;LAKE;USA;41.609583;-87.446361;EXPLORER PIPELINE CO.;CLIFFORD R. WOODWARD;2022/01/08 17:00:16+00
GREENVILLE STATION;HUNT;USA;33.034893;-96.204524;EXPLORER PIPELINE CO.;MAGELLAN PIPELINE TERMINALS LP;2022/01/08 17:00:16+00
EXPLORER PIPELINE CO - FAUNA PUMP STATION;HARRIS;USA;29.81767;-95.1825;EXPLORER PIPELINE CO.;CITGO PRODUCTS PIPELINE COMPANY;2022/01/08 17:00:16+00
EXXONMOBIL OIL COLONIAL STORAGE FACILITY;JEFFERSON;USA;29.960759;-94.04611;EXXONMOBIL OIL CORPORATION;SUNOCO PIPELINE LP;2022/01/08 17:00:16+00
GAVIOTA OIL AND GAS PLANT;SANTA BARBARA;USA;34.474546;-120.205802;FREEPORT MCMORAN OIL & GAS, LLC (FMOG);PLAINS EXPLORATION & PRODUCTION;2022/01/08 17:00:16+00
HEARTLAND PIPELINE (PLEASANT HILL);POLK;USA;41.56855;-93.525767;HEARTLAND PIPELINE COMPANY;CONOCOPHILLIPS;2022/01/08 17:00:16+00
YELLOWSTONE PIPELINE CO SPOKANE;SPOKANE;USA;47.73511;-117.36145;HOLLY ENERGY PARTNERS, LP;YELLOWSTONE PIPELINE CO.;2022/01/08 17:00:16+00
ENBRIDGE PIPELINES (OZARK) LLC;BUTLER;USA;37.802518;-96.90808;HOLLY ENERGY PARTNERS, LP;EQUILON PIPELINE COMPANY, LLC;2022/01/08 17:00:16+00
HOLLY REFINING & MARKETING CO WOODS CROSS REFINERY;DAVIS;USA;40.886022;-111.904759;HOLLY REFINING & MARKETING COMPANY;CONOCOPHILLIPS;2022/01/08 17:00:16+00
KANEB - EL DORADO;BUTLER;USA;37.80281;-96.872546;KANEB PIPELINE - EL DORADO (NOW VALERO);NUSTAR PIPELINE OPERATING PARTNERSHIP LP;2022/01/08 17:00:16+00
SANTA FE PACIFIC PIPELINE EUGENE TERMINAL;LANE;USA;44.093326;-123.156572;KINDER MORGAN ENERGY PARTNERS, LP;SHELL OIL COMPANY;2022/01/08 17:00:16+00
KINDER MORGAN - ORLANDO TERMINAL;ORANGE;USA;28.422;-81.371;KINDER MORGAN LIQUIDS TERMINALS;CENTRAL FLORIDA PIPELINE CORPORATION;2022/01/08 17:00:16+00
KINDER MORGAN - TAMPA TERMINAL;HILLSBOROUGH;USA;27.916;-82.437;KINDER MORGAN LIQUIDS TERMINALS;CENTRAL FLORIDA PIPELINE CORPORATION;2022/01/08 17:00:16+00
GURLEY STATION;CHEYENNE;USA;41.322931;-102.876538;KINDER MORGAN PIPELINES USA INC.;TERASEN PIPELINES USA INC.;2022/01/08 17:00:16+00
KINDER MORGAN PIPELINE WINK WEST STATION;WINKLER;USA;31.764594;-103.169369;KINDER MORGAN WINK PIPELINE LP;PLAINS MARKETING INC.;2022/01/08 17:00:16+00
KOCH PIPELINE CO - HEARNE STATION;ROBERTSON;USA;30.863055;-96.577777;KOCH GATHERING SYSTEMS;EXXONMOBIL PIPELINE COMPANY;2022/01/08 17:00:16+00
KOCH PIPELINE COMPANY - VIOLA STATION;NUECES;USA;27.828423;-97.520127;KOCH REFINING COMPANY;DORADO OIL COMPANY;2022/01/08 17:00:16+00
LAUREL PIPELINE COMPANY, LP - BOOTH STATION;DELAWARE;USA;39.850333;-75.493833;LAUREL PIPELINE COMPANY, LP;BUCKEYE PIPELINE CO LP;2022/01/08 17:00:16+00
LOCAP INC - ST. JAMES TERMINAL;SAINT JAMES;USA;30.00793;-90.8549;LOCAP INC.;TEXACO REFINING & MARKETING;2022/01/08 17:00:16+00
MAGELLAN PIPELINE COMPANY LP;BUTLER;USA;37.80284;-96.866778;MAGELLAN PIPELINE COMPANY LP;WILLIAMS PIPELINE COMPANY;2022/01/08 17:00:16+00
MAGELLAN-WICHITA TERMINAL;SEDGWICK;USA;37.81866;-97.36963;MAGELLAN PIPELINE COMPANY LP;WYNNEWOOD REFINING COMPANY;2022/01/08 17:00:16+00
MAGELLAN PIPELINE COMPANY LP;HALL;USA;40.751967;-98.37866;MAGELLAN PIPELINE COMPANY LP;WILLIAMS REFINING & MARKETING;2022/01/08 17:00:16+00
MAGELLAN PIPELINE COMPANY LP;DOUGLAS;USA;41.27815;-95.93011;MAGELLAN PIPELINE COMPANY LP;WILLIAMS REFINING & MARKETING;2022/01/08 17:00:16+00
ALLEN STATION;PONTOTOC;USA;34.879906;-96.425225;MAGELLAN PIPELINE COMPANY LP;WILLIAMS PIPELINE COMPANY;2022/01/08 17:00:16+00
WEST TULSA TERMINAL;TULSA;USA;36.13204;-96.029381;MAGELLAN PIPELINE COMPANY LP;WILLIAMS PIPELINE COMPANY;2022/01/08 17:00:16+00
MAGELLAN PIPELINE COMPANY LP;MINNEHAHA;USA;43.5453;-96.7956;MAGELLAN PIPELINE COMPANY LP;WILLIAMS PIPELINE COMPANY;2022/01/08 17:00:16+00
KOCH PIPELINE CO - HEARNE STATION;ROBERTSON;USA;30.863055;-96.577777;MAGELLAN PIPELINE COMPANY LP;EXXONMOBIL PIPELINE COMPANY;2022/01/08 17:00:16+00
MAGELLAN PIPELINE COMPANY - FORT DODGE TERMINAL;WEBSTER;USA;42.50098;-94.0222;MAGELLAN PIPELINE COMPANY LP;WILLIAMS PIPELINE COMPANY;2022/01/08 17:00:16+00
MAGELLAN PIPELINE CO, LLC - SIOUX CITY;WOODBURY;USA;42.540456;-96.354604;MAGELLAN PIPELINE COMPANY LP;WILLIAMS PIPELINE COMPANY;2022/01/08 17:00:16+00
MAGELLAN PIPELINE CO LP - ST. PAUL;RAMSEY;USA;45.0244;-93.2008;MAGELLAN PIPELINE COMPANY LP;WILLIAMS PIPELINE COMPANY;2022/01/08 17:00:16+00
MAGELLAN PIPELINE SPRINGFIELD TERMINAL;GREENE;USA;37.158989;-93.423851;MAGELLAN PIPELINE COMPANY LP;WILLIAMS REFINING & MARKETING;2022/01/08 17:00:16+00
MAGELLAN PIPELINE ODESSA TERMINAL;ECTOR;USA;31.8202;-102.3292;MAGELLAN PIPELINE COMPANY LP;SHELL ODESSA REFINING COMPANY;2022/01/08 17:00:16+00
MAGELLAN EAST HOUSTON TERMINAL;HARRIS;USA;29.79136;-95.28526;MAGELLAN PIPELINE TERMINALS LP;PLAINS PIPELINE, LP;2022/01/08 17:00:16+00
MAGELLAN EAST HOUSTON TERMINAL;HARRIS;USA;29.79136;-95.28526;MAGELLAN PIPELINE TERMINALS LP;PLAINS PIPELINE, LP;2022/01/08 17:00:16+00
EL PASO EAST TERMINAL;EL PASO;USA;31.82049;-106.21082;MAGELLAN PIPELINE TERMINALS LP;CHEVRON USA PRODUCT CO.;2022/01/08 17:00:16+00
MARATHON PIPELINE TERMINALS;LAKE;USA;41.511111;-87.45;MARATHON PETROLEUM COMPANY LLC;ARCADIS US, INC.;2022/01/08 17:00:16+00
MARATHON PIPELINE LLC;MARION;USA;38.79105;-89.0854;MARATHON PIPELINE LLC;ASHLAND PIPELINE CO.;2022/01/08 17:00:16+00
MOBIL PIPELINE CORSICANA TANK FARM;NAVARRO;USA;32.07688;-96.4632;MOBIL PIPELINE COMPANY;SUNOCO PIPELINE LP;2022/01/08 17:00:16+00
MOTIVA PORT TAMPA TERMINAL;HILLSBOROUGH;USA;27.858132;-82.543766;MOTIVA ENTERPRISES LLC;SHELL OIL COMPANY;2022/01/08 17:00:16+00
CALUMET SUPERIOR, LLC;DOUGLAS;USA;46.6915;-92.072;MURPHY OIL USA INC.;CALUMET SUPERIOR LLC;2022/01/08 17:00:16+00
CALUMET SUPERIOR, LLC;DOUGLAS;USA;46.6915;-92.072;MURPHY OIL USA INC.;CALUMET SUPERIOR LLC;2022/01/08 17:00:16+00
NORCO PIPELINE CO TOLEDO STATION;LUCAS;USA;41.67784;-83.47295;NORCO PIPELINE CO LLC;BUCKEYE PARTNERS LP;2022/01/08 17:00:16+00
COLUMBUS TERMINAL;PLATTE;USA;41.438087;-97.243675;NUSTAR ENERGY LP;KANEB PIPELILNE OPERATING PARTNERSHIP, LP;2022/01/08 17:00:16+00
NUSTAR ENERGY LP-NORTH PLATTE TERMINAL;LINCOLN;USA;40.976431;-100.755354;NUSTAR ENERGY LP;KANEB PIPELILNE OPERATING PARTNERSHIP, LP;2022/01/08 17:00:16+00
NUSTAR ENERGY GENEVA TERMINAL;FILLMORE;USA;40.55143;-97.59278;NUSTAR LOGISTICS LP;KANEB PIPELILNE OPERATING PARTNERSHIP, LP;2022/01/08 17:00:16+00
NUSTAR ENERGY LP NORFOLK TERMINAL;MADISON;USA;42.089046;-97.425588;NUSTAR LOGISTICS LP;KANEB PIPELILNE OPERATING PARTNERSHIP, LP;2022/01/08 17:00:16+00
OSCEOLA TERMINAL;POLK;USA;41.19171;-97.52168;NUSTAR LOGISTICS LP;KANEB PIPELILNE OPERATING PARTNERSHIP, LP;2022/01/08 17:00:16+00
ABERNATHY REFINED PRODUCTS TERMINAL;HALE;USA;33.876324;-101.868562;NUSTAR LOGISTICS LP;VALERO LOGISTICS OPERATIONS, LP;2022/01/08 17:00:16+00
NUSTAR PIPELINE OP PARTNERSHIP LP-LE MARS TERMINAL;PLYMOUTH;USA;42.894824;-96.174736;NUSTAR PIPELINE OPERATING PARTNERSHIP LP;KANEB PIPELILNE OPERATING PARTNERSHIP, LP;2022/01/08 17:00:16+00
NUSTAR PIPELINE OP PARTNERSHIP LP-MILFORD TERMINAL;DICKINSON;USA;43.32695;-95.16769;NUSTAR PIPELINE OPERATING PARTNERSHIP LP;KANEB PIPELILNE OPERATING PARTNERSHIP, LP;2022/01/08 17:00:16+00
NUSTAR PIPELINE OP PARTNERSHIP LP - ROCK RAPIDS;LYON;USA;43.431723;-96.193167;NUSTAR PIPELINE OPERATING PARTNERSHIP LP;KANEB PIPELILNE OPERATING PARTNERSHIP, LP;2022/01/08 17:00:16+00
NUSTAR ENERGY-CONCORDIA TERMINAL;OTTAWA;USA;39.364096;-97.626894;NUSTAR PIPELINE OPERATING PARTNERSHIP LP;VALERO LOGISTICS OPERATIONS, LP;2022/01/08 17:00:16+00
NUSTAR ENERGY-HUTCHINSON TERMINAL;RENO;USA;38.042781;-97.871429;NUSTAR PIPELINE OPERATING PARTNERSHIP LP;KANEB PIPELILNE OPERATING PARTNERSHIP, LP;2022/01/08 17:00:16+00
NUSTAR PIPELINE OPERATING PARTNERSHIP LP;MCPHERSON;USA;38.334066;-97.667237;NUSTAR PIPELINE OPERATING PARTNERSHIP LP;KANEB PIPELILNE OPERATING PARTNERSHIP, LP;2022/01/08 17:00:16+00
NUSTAR PIPELINE TERMINAL;MINNEHAHA;USA;43.510696;-96.74344;NUSTAR PIPELINE OPERATING PARTNERSHIP LP;KANEB PIPELILNE OPERATING PARTNERSHIP, LP;2022/01/08 17:00:16+00
NUSTAR LOGISTICS YANKTON TERMINAL;YANKTON;USA;42.881;-97.350108;NUSTAR PIPELINE OPERATING PARTNERSHIP LP;KANEB PIPELILNE OPERATING PARTNERSHIP, LP;2022/01/08 17:00:16+00
PASADENA COLEX;HARRIS;USA;29.718133;-95.1827;OIL TANKING HOUSTON INC.;SHELL PIPELINE CO LP;2022/01/08 17:00:16+00
PORTLAND DELIVERY FACILITY;MULTNOMAH;USA;45.59042;-122.77745;OLYMPIC PIPELINE CO.;BP PIPELINES NORTH AMERICA INC.;2022/01/08 17:00:16+00
OLYMPIC PIPELINE RENTON STATION;KING;USA;47.45773;-122.22424;OLYMPIC PIPELINE CO.;ENBRIDGE;2022/01/08 17:00:16+00
OLYMPIC PIPELINE CO\BP PIPELINES CO;KING;USA;47.58271;-122.35168;OLYMPIC PIPELINE CO.;BP PIPELINES NORTH AMERICA INC.;2022/01/08 17:00:16+00
ONEOK NORTH SYSTEM, LLC - DES MOINES STORAGE;POLK;USA;41.56864;-93.52946;ONEOK NORTH SYSTEM, LLC;"KINDER MORGAN OPERATING LP ""A""";2022/01/08 17:00:16+00
OLYMPIC PIPELINE CO FERNDALE STATION;WHATCOM;USA;48.833919;-122.686971;PHILLIPS 66 COMPANY;BP PIPELINE NORTH AMERICA INC.;2022/01/08 17:00:16+00
PHILLIPS 66 PIPELINE LLC - CALHAN;EL PASO;USA;39.079288;-104.222893;NOT AVAILABLE;ENTERPRISE PRODUCTS OPERATING LLC;2022/01/08 17:00:16+00
PLAINS MARKETING LP - COCODRIE STATION;TERREBONNE;USA;29.29922;-90.64891;PLAINS ALL AMERICAN PIPELINE LP;EQUILON PIPELINE CO LLC;2022/01/08 17:00:16+00
PLAINS MARKETING - JAL STATION;LEA;USA;32.078889;-103.179444;PLAINS MARKETING LP;BASIN PIPELINE HOLDINGS, LP;2022/01/08 17:00:16+00
PLAINS PIPELINE LP, EUCUTTA STATION;JASPER;USA;31.819063;-88.901896;PLAINS PIPELINE, LP;EOTT ENERGY PIPELINE LIMITED PARTNERSHIP;2022/01/08 17:00:16+00
PLAINS PIPELINE LP, LUMBERTON STATION;LAMAR;USA;31.037722;-89.446556;PLAINS PIPELINE, LP;EOTT ENERGY PIPELINE LIMITED PARTNERSHIP;2022/01/08 17:00:16+00
PLAINS PIPELINE WINK EAST STATION;WINKLER;USA;31.767032;-103.174926;PLAINS MARKETING LP;CENTURION PIPELINE;2022/01/08 17:00:16+00
WICHITA FALLS TANK FARM;WICHITA;USA;33.91786;-98.43671;PLAINS PIPELINE, LP;BASIN PIPELINE HOLDINGS, LP;2022/01/08 17:00:16+00
PLANTATION PIPELINE CO BREMEN FACILITY;HARALSON;USA;33.699889;-85.14075;PLANTATION PIPELINE COMPANY;KINDER MORGAN;2022/01/08 17:00:16+00
PLANTATION PIPELINE COMPANY-AUSTELL TERMINAL;DOUGLAS;USA;33.759363;-84.672592;PLANTATION PIPELINE COMPANY;KINDER MORGAN;2022/01/08 17:00:16+00
PLANTATION PIPELINE BREAKOUT TANK FARM;EAST BATON ROUGE;USA;30.544901;-91.166021;PLANTATION PIPELINE COMPANY;KINDER MORGAN ENERGY PARTNERS;2022/01/08 17:00:16+00
PLANTATION PIPELINE COMPANY;GUILFORD;USA;36.07917;-79.92669;PLANTATION PIPELINE COMPANY;KINDER MORGAN PRODUCTS PIPELINES;2022/01/08 17:00:16+00
PPL INTERSTATE ENERGY MARCUS HOOK FACILITY;DELAWARE;USA;39.817642;-75.439194;PPL INTERSTATE ENERGY CO.;INTERSTATE ENERGY CO.;2022/01/08 17:00:16+00
MARATHON PIPELINE-LOST CABIN STATION;FREMONT;USA;43.301768;-107.620469;RED BUTTE PIPELINE COMPANY;MARATHON PIPELINE LLC;2022/01/08 17:00:16+00
ROCKY MOUNTAIN PIPELINE SYSTEM, LLC;PENNINGTON;USA;44.09615;-103.16199;ROCKY MOUNTAIN PRODUCTS PIPELINE, LP;MAGELLAN PIPELINE COMPANY LP;2022/01/08 17:00:16+00
EQUILON INTERPRISES LLC MISSION VALLEY TERMINAL;SAN DIEGO;USA;32.786928;-117.117597;SAN DIEGO PIPELINE COMPANY;SHELL OIL COMPANY;2022/01/08 17:00:16+00
SHELL PIPELINE CO LP;ASSUMPTION;USA;30.01545;-91.13656;SHELL PIPELINE CO LP;EQUILON PIPELINE CO LLC;2022/01/08 17:00:16+00
SHELL PIPELINE CO LP - GIBSON STATION;TERREBONNE;USA;29.626045;-90.934263;SHELL PIPELINE CO LP;SHIP SOAL PIPELINE;2022/01/08 17:00:16+00
SHELL PIPELINE CO.;KERN;USA;35.06109;-119.06264;SHELL PIPELINE CO LP;TEXACO TRADING & TRANSPORT SAN EMIDIO STATION;2022/01/08 17:00:16+00
SHELL PIPELINE CO PORT ARTHUR PRODUCTS STATION;JEFFERSON;USA;29.883547;-93.980728;SHELL PIPELINE CO LP;COLONIAL PIPELINE COMPANY;2022/01/08 17:00:16+00
SHELL PIPELINE CO LP - ST. JAMES CAPLINE;SAINT JAMES;USA;30.022768;-90.840866;SHELL PIPELINE CO LP;MARATHON PIPELINE LLC;2022/01/08 17:00:16+00
SINCLAIR KANSAS CITY PRODUCTS TERMINAL;WYANDOTTE;USA;39.087581;-94.667195;SINCLAIR PIPELINE CO.;MAGELLAN PIPELINE COMPANY LP;2022/01/08 17:00:16+00
SINCLAIR OIL - CASPER STATION;NATRONA;USA;42.863333;-106.418888;NOT AVAILABLE;MARATHON PIPELINE LLC;2022/01/08 17:00:16+00
SUNCOR - FORT LUPTON PUMP STATION;WELD;USA;40.130875;-104.807171;SUNCOR ENERGY PIPELINE;CONOCO PIPELINE COMPANY;2022/01/08 17:00:16+00
SUNOCO PIPELINE LP - INKSTER TERMINAL;WAYNE;USA;42.253138;-83.308487;SUNOCO PIPELINE LP;SUN PIPELINE CO.;2022/01/08 17:00:16+00
SUNOCO PIPELINE LP/RINGWOOD CRUDE OIL PIPELINE STATION;MAJOR;USA;36.321617;-98.28303;SUNOCO PIPELINE LP;RINGWOOD CRUDE OIL PIPELINE STA;2022/01/08 17:00:16+00
SUNOCO HEBERT TERMINAL;JEFFERSON;USA;29.984127;-94.060676;SUNOCO PIPELINE LP;MOBIL OIL CORP.;2022/01/08 17:00:16+00
SUNOCO PIPELINE LP / NOBLE CRUDE OIL PIPELINE STATION 1400 N BR;OKLAHOMA;USA;35.483369;-97.459199;SUNOCO PIPELINE LP/NOBLE CRUDE OIL PIPE;MID-CONTINENT PIPELINE CO.;2022/01/08 17:00:16+00
WICHITA FALLS TANK FARM;WICHITA;USA;33.91397;-98.43665;PLAINS PIPELINE, LP;SUNOCO PIPELINE LP;2022/01/08 17:00:16+00
TARGA LOUISIANA FIELD SERVICES - GILLIS GAS PROCESSING PLANT;CALCASIEU;USA;30.273333;-93.156944;TARGA RESOURCES;CONOCOPHILLIPS PIPELINE CO.;2022/01/08 17:00:16+00
TAYLOR TRANSFER SVC LLC/ COATES STATION;OKLAHOMA;USA;35.47867;-97.43278;NOT AVAILABLE;TAYLOR TRANSFER SVC LLC;2022/01/08 17:00:16+00
ELECTRA STATION;WICHITA;USA;34.09222;-98.90416;TEPPCO CRUDE PIPELINE LLC;PHOENIX RESOURCES, INC.;2022/01/08 17:00:16+00
MIDLAND STATION;MIDLAND;USA;32.02393;-102.01073;TEPPCO CRUDE PIPELINE LLC;ENTERPRISE CRUDE PIPELINE LLC;2022/01/08 17:00:16+00
CHEVRON PIPELINE CO - FOURCHON PIPELINE TERMINAL;LAFOURCHE;USA;29.10373;-90.19014;TEXACO PIPELINES LLC;CHEVRON PIPELINE CO.;2022/01/08 17:00:16+00
TEPPCO BAYTOWN TERMINAL;HARRIS;USA;29.76528;-95.01244;TEXAS EASTERN PRODUCTS PIPELINE COMPANY LIMITED PARTNERSHIP;ENTERPRISE REFINED PRODUCTS CO LLC;2022/01/08 17:00:16+00
KIANTONE PIPELINE WEST SENECA;ERIE;USA;42.84701;-78.77614;UNITED REFINING CO.;KIANTONE PIPELINE CORPORATION;2022/01/08 17:00:16+00
VALERO TEXAS CITY REFINERY;GALVESTON;USA;29.369167;-94.911111;VALERO ENERGY CORPORATION;NUSTAR LOGISTICS LP;2022/01/08 17:00:16+00
WEST SHORE PIPELINE CO.;COOK;USA;42.02257;-87.95034;WEST SHORE PIPELINE CO.;BUCKEYE PIPELINE CO LP;2022/01/08 17:00:16+00
WEST SHORE PIPELINE CO.;COOK;USA;42.027826;-87.959992;WEST SHORE PIPELINE CO.;BUCKEYE PIPELINE CO LP;2022/01/08 17:00:16+00
WEST SHORE PIPELINE CO.;COOK;USA;41.801642;-87.795556;WEST SHORE PIPELINE CO.;BUCKEYE PIPELINE CO LP;2022/01/08 17:00:16+00
WEST SHORE PIPELINE CO.;WINNEBAGO;USA;42.262242;-89.177886;WEST SHORE PIPELINE CO.;BUCKEYE PIPELINE CO LP;2022/01/08 17:00:16+00
COLORADO CITY STATION;SCURRY;USA;32.53309;-100.82639;WEST TEXAS GULF PIPELINE COMPANY;CHEVRON PIPELINE COMPANY;2022/01/08 17:00:16+00
WILLIAMS PIPELINE;DOUGLAS;USA;45.89353;-95.38772;WILLIAMS PIPELINE;MAGELLAN PIPELINE COMPANY, LLC;2022/01/08 17:00:16+00
WILLIAMS PIPELINE CO - MANKATO;BLUE EARTH;USA;44.15385;-94.06711;WILLIAMS PIPELINE;MAGELLAN MIDSTREAM PARTNERS, LP;2022/01/08 17:00:16+00
WOLVERINE PIPELINE - BAY CITY;BAY;USA;43.62541;-83.98854;WOLVERINE PIPELINE;TOTAL PIPELINE CORP.;2022/01/08 17:00:16+00
WOOD RIVER PIPELINES LLC;CLAY;USA;38.664329;-88.322596;WOOD RIVER PIPELINES LLC;EQUILON PIPELINE CO LLC;2022/01/08 17:00:16+00
GRANGER STATION (ROCKY MOUNTAIN PIPELINE SYSTEM, LLC);SWEETWATER;USA;41.5634;-109.978;NOT AVAILABLE;AMOCO PIPELINE CO - GRANGER STATION;2022/01/08 17:00:16+00
TESORO;WILLIAMS;USA;48.284273;-102.925516;TESORO HIGH PLAINS PIPELINE COMPANY LLC;NORTH DAKOTA PIPELINE COMPANY LLC;2022/01/08 17:00:16+00
TESORO;MORTON;USA;46.851366;-100.874369;TESORO HIGH PLAINS PIPELINE COMPANY LLC;NUSTAR PIPELINE OPERATING PARTNERSHIP LP;2022/01/08 17:00:16+00
WHITE CLIFFS;WELD;USA;40.2052;-104.6057;ANADARKO PETROLEUM CORP.;ROSE ROCK MIDSTREAM;2022/01/08 17:00:16+00
TARGA RESOURCES;MCKENZIE;USA;47.803174;-102.875194;ARROW PIPELINE;TESORO HIGH PLAINS PIPELINE CO.;2022/01/08 17:00:16+00
NOT AVAILABLE;PLATTE;USA;42.225242;-104.69442;BELLE FOURCHE PIPELINE CO.;BUTTE PIPELINE;2022/01/08 17:00:16+00
NOT AVAILABLE;PLATTE;USA;42.225789;-104.69382;BELLE FOURCHE PIPELINE CO.;PLAINS PIPELINE LP;2022/01/08 17:00:16+00
NOT AVAILABLE;PLATTE;USA;42.22631;-104.693497;BELLE FOURCHE PIPELINE CO.;EXPRESS HOLDINGS (USA), LLC;2022/01/08 17:00:16+00
ROCKY MOUNTAIN PIPELINE;GOSHEN;USA;42.208;-104.51;BELLE FOURCHE PIPELINE CO.;PLAINS PIPELINE LP;2022/01/08 17:00:16+00
ALEXANDER STATION;MCKENZIE;USA;47.979545;-103.661191;BELLE FOURCHE PIPELINE CO.;ENBRIDGE NORTH DAKOTA PIPELINE CO. LLC;2022/01/08 17:00:16+00
MUSH CREEK STATION (WYOMING PIPELINE CO.);WESTON;USA;43.7873;-104.415;BELLE FOURCHE PIPELINE CO.;PAR PACIFIC WYOMING PIPELINE CO.;2022/01/08 17:00:16+00
CRANE STATION;CRANE;USA;31.427046;-102.37069;BKEP PIPELINE LLC;MAGELLAN LONGHORN PARTNERS PIPELINE;2022/01/08 17:00:16+00
PLAINS PIPELINE LP - GOLDEN MEADOW STATION;LAFOURCHE;USA;29.47131;-90.253466;EQUILON PIPELINE LLC;SHELL PIPELINE CO. LLC;2022/01/08 17:00:16+00
CHICAP PIPELINE CO;MARION;USA;38.786819;-89.072538;BP NORTH AMERICA (CHICAP PIPELINE);MARATHON PIPE LINE LLC;2022/01/08 17:00:16+00
CHICAP PIPELINE CO;MARION;USA;38.786819;-89.072538;BP NORTH AMERICA (CHICAP PIPELINE);MUSTANG PIPE LINE LLC;2022/01/08 17:00:16+00
CHICAP PIPELINE CO;MARION;USA;38.793429;-89.085361;BP NORTH AMERICA (CHICAP PIPELINE);PLAINS PIPELINE LP;2022/01/08 17:00:16+00
NOT AVAILABLE;WILL;USA;41.555215;-87.887535;BP NORTH AMERICA (CHICAP PIPELINE);ENBRIDGE PIPELINES OZARK;2022/01/08 17:00:16+00
MAGELLAN TERMINAL HOLDINGS LP - CUSHING STATION;PAYNE;USA;35.943234;-96.741997;MAGELLAN TERMINALS HOLDINGS LP;MAGELLAN PIPELINE CO. LP;2022/01/08 17:00:16+00
NOT AVAILABLE;NORTH SLOPE;USA;70.259;-148.616;BP PIPELINES (ALASKA) INC.;ALYESKA PIPELINE SERVICE CO. (TAPS MAIN LINE);2022/01/08 17:00:16+00
NOT AVAILABLE;NORTH SLOPE;USA;70.321689;-149.40457;HILCORP ALASKA LLC;KUPARUK TRANSPORTATION CO. KUPARUK PIPELINE;2022/01/08 17:00:16+00
NOT AVAILABLE;UINTA;USA;41.319883;-110.491345;BRIDGER LAKE LLC;PLAINS ALL AMERICAN PIPELINE LP;2022/01/08 17:00:16+00
NOT AVAILABLE;GOSHEN;USA;42.207903;-104.509953;BUTTE PIPE LINE CO.;PLAINS PIPELINE LP ROCKY MOUNTAIN PIPELINE;2022/01/08 17:00:16+00
NOT AVAILABLE;PLATTE;USA;42.226625;-104.690986;BUTTE PIPE LINE CO.;SUNCOR;2022/01/08 17:00:16+00
NOT AVAILABLE;CARTER;USA;45.152005;-104.715005;BUTTE PIPE LINE CO.;BELLE FOURCHE PIPELINE CO.;2022/01/08 17:00:16+00
NOT AVAILABLE;FALLON;USA;46.390126;-104.449846;BUTTE PIPE LINE CO.;BRIDGER PIPELINE LLC;2022/01/08 17:00:16+00
BELLE FOURCHE PIPELINE LITTLE BEAVER ETC 318;FALLON;USA;46.392438;-104.45001;BUTTE PIPE LINE CO.;BELLE FOURCHE PIPELINE CO.;2022/01/08 17:00:16+00
NOT AVAILABLE;LINCOLN;USA;35.940251;-96.749138;CCPS TRANSPORTATION LLC;ENTERPRISE CRUDE PIPELINE LLC SEAWAY PIPELINE;2022/01/08 17:00:16+00
ENBRIDGE PIPELINE OZARK LLC/CUSHING TERMINAL;PAYNE;USA;35.945176;-96.760082;CCPS TRANSPORTATION LLC;BP PIPELINES (NORTH AMERICA) INC.;2022/01/08 17:00:16+00
NOT AVAILABLE;LINCOLN;USA;35.934176;-96.750222;CCPS TRANSPORTATION LLC;BP PIPELINES (NORTH AMERICA) INC.;2022/01/08 17:00:16+00
ENBRIDGE FLANAGAN TERMINAL;LIVINGSTON;USA;40.94501;-88.64505;CCPS TRANSPORATION LLC;ENBRIDGE ENERGY LP;2022/01/08 17:00:16+00
NOT AVAILABLE;HOCKLEY;USA;33.407171;-102.44514;CENTURION PIPELINE LP;HOLLY ENERGY PARTNERS ROADRUNNER;2022/01/08 17:00:16+00
NOT AVAILABLE;HOCKLEY;USA;33.408271;-102.444889;CENTURION PIPELINE LP;PLAINS ALL AMERICAN PIPELINE LP;2022/01/08 17:00:16+00
NOT AVAILABLE;YOAKUM;USA;32.987855;-102.769945;CENTURION PIPELINE LP;PLAINS ALL AMERICAN PIPELINE LP;2022/01/08 17:00:16+00
NOT AVAILABLE;MIDLAND;USA;32.017335;-102.015941;CENTURION PIPELINE LP;ENTERPRISE CRUDE PIPELINE LLC,;2022/01/08 17:00:16+00
NOT AVAILABLE;MIDLAND;USA;32.017687;-102.025975;CENTURION PIPELINE LP;PLAINS MESA PIPELINE;2022/01/08 17:00:16+00
NOT AVAILABLE;MIDLAND;USA;32.011819;-102.010368;CENTURION PIPELINE LP;PLAINS BASIN PIPELINE;2022/01/08 17:00:16+00
MIDLAND TANK FARM;MIDLAND;USA;32.004205;-102.039388;CENTURION PIPELINE LP;MAGELLAN PIPELINE CO. LP;2022/01/08 17:00:16+00
COLORADO CITY TANK FARM;SCURRY;USA;32.530102;-100.845496;CENTURION PIPELINE LP;MAGELLAN PIPELINE CO. LP;2022/01/08 17:00:16+00
NOT AVAILABLE;LINCOLN;USA;35.941098;-96.746952;CENTURION PIPELINE LP;MAGELLAN PIPELINE CO. LP;2022/01/08 17:00:16+00
NOT AVAILABLE;PLAQUEMINES;USA;29.369518;-89.539227;CHEVRON PIPE LINE CO.;HARVEST PIPELINE CO.;2022/01/08 17:00:16+00
CHEVRON EMPIRE-OSTRICA TERMINAL;PLAQUEMINES;USA;29.373954;-89.550868;CHEVRON PIPE LINE CO.;SHELL PIPELINE CO. LLC;2022/01/08 17:00:16+00
CHEVRON PIPELINE CO - FOURCHON PIPELINE TERMINAL;LAFOURCHE;USA;29.105296;-90.191965;CHEVRON PIPE LINE CO.;SHELL PIPELINE CO. LLC;2022/01/08 17:00:16+00
COFFEYVILLE RESOURCES CRUDE TRANSPORTATION, LLC BROOM STATION TK-1106;MONTGOMERY;USA;37.036105;-95.888452;COFFEYVILLE RESOURCES CRUDE TRANSPORTATION LLC;PLAINS PIPELINE;2022/01/08 17:00:16+00
COFFEYVILLE RESOURCES - PHILLIPSBURG TERMINAL;PHILLIPS;USA;39.77762;-99.328988;COFFEYVILLE RESOURCES CRUDE TRANSPORTATION LLC;JAYHAWK PIPELINE LLC;2022/01/08 17:00:16+00
SHELL PIPELINE SUGARLAND TERMINAL;SAINT JAMES;USA;30.010952;-90.859262;SHELL PIPELINE COMPANY LP;EXXONMOBIL PIPELINE CO.;2022/01/08 17:00:16+00
SHELL PIPELINE SUGARLAND TERMINAL;SAINT JAMES;USA;30.006407;-90.857448;SHELL PIPELINE COMPANY LP;EXXONMOBIL PIPELINE CO.;2022/01/08 17:00:16+00
NOT AVAILABLE;PAYNE;USA;36.019328;-96.750265;DEEPROCK OIL OPERATING;ROSE ROCK (SEMGROUP CORP.);2022/01/08 17:00:16+00
BKEP CRUDE LLC/CUSHING NORTH AND CE;PAYNE;USA;36.007628;-96.750277;BKEP CRUDE LLC;WHITE CLIFFS PIPELINE, LLC;2022/01/08 17:00:16+00
NOT AVAILABLE;LINCOLN;USA;35.94009;-96.748149;DEEPROCK OIL OPERATING;ENTERPRISE;2022/01/08 17:00:16+00
NOT AVAILABLE;GREGG;USA;32.483143;-94.830452;DELEK (PALINE PIPELINE);MID-VALLEY PIPELINE CO.;2022/01/08 17:00:16+00
NOT AVAILABLE;GREGG;USA;32.480102;-94.836333;DELEK (PALINE PIPELINE);PLAINS MARKETING;2022/01/08 17:00:16+00
NOT AVAILABLE;GREGG;USA;32.483038;-94.835377;DELEK (PALINE PIPELINE);EXXONMOBIL PIPELINE CO.;2022/01/08 17:00:16+00
EXXONMOBIL PIPELINE CO - FINNEY STATION;CADDO;USA;32.35505;-93.678521;DELEK (MAGNOLIA PIPELINE);EXXONMOBIL PIPELINE CO.;2022/01/08 17:00:16+00
NOT AVAILABLE;ERIE;USA;42.865201;-78.792358;ENBRIDGE ENERGY;UNITED REFINING CO. KIANTONE PIPELINE CORP.;2022/01/08 17:00:16+00
ENBRIDGE ENERGY LP GRIFFITH TERMINAL;LAKE;USA;41.515201;-87.448354;ENBRIDGE ENERGY;BP PIPELINES (NORTH AMERICA) INC.;2022/01/08 17:00:16+00
CPF-2;NORTH SLOPE;USA;70.289;-149.886;ALPINE TRANSPORTATION CO.;KUPARUK TRANSPORTATION CO. KUPARUK PIPELINE;2022/01/08 17:00:16+00
ALYESKA TAPS PUMP STATION 01;NORTH SLOPE;USA;70.257;-148.618;ALYESKA PIPELINE SERVICE CO.;BP PIPELINES (ALASKA) INC.;2022/01/08 17:00:16+00
ENBRIDGE BERTHOLD STATION;WARD;USA;48.325;-101.752;BAKKEN PIPELINE CO. LP;NORTH DAKOTA PIPELINE CO. LLC;2022/01/08 17:00:16+00
